{"type":"FeatureCollection","features":[{"type":"Feature","properties":{"name":"Garissa County","code":"007","area_km2":44813,"capital":"Garissa Town","source":"geoBoundaries gbOpen (CC-BY 4.0)"},"geometry":{"type":"Polygon","coordinates":[[[39.46069,0.99468],[39.46617,0.98735],[39.47963,0.9802],[39.49249,0.96216],[39.49794,0.93391],[39.5322,0.85728],[39.56354,0.7572],[39.57527,0.74221],[39.58599,0.72218],[39.59728,0.71297],[39.60032,0.70382],[39.61058,0.69247],[39.61447,0.68462],[39.62478,0.6773],[39.6281,0.67002],[39.63542,0.66763],[39.64621,0.65787],[39.65441,0.63256],[39.66502,0.61452],[39.67356,0.60528],[39.68941,0.57981],[39.71177,0.55787],[39.71769,0.54647],[39.72114,0.54681],[39.72402,0.544],[39.73286,0.52594],[39.74109,0.52351],[39.74685,0.5177],[39.76215,0.51216],[39.77496,0.49525],[39.79299,0.48838],[39.79968,0.4828],[39.81072,0.48348],[39.82067,0.48214],[39.82742,0.47792],[39.83601,0.48006],[39.84099,0.47739],[39.85025,0.47711],[39.85658,0.4692],[39.87473,0.45834],[39.88783,0.46287],[39.90498,0.46208],[39.94392,0.42971],[39.97908,0.40971],[40.01296,0.39894],[40.04836,0.39635],[40.05962,0.3926],[40.12823,0.34261],[40.16091,0.32591],[40.17805,0.30991],[40.21113,0.27197],[40.23345,0.25256],[40.25885,0.23726],[40.30313,0.21798],[40.33131,0.19941],[40.37511,0.19684],[40.40221,0.18387],[40.4261,0.1903],[40.4484,0.18618],[40.47388,0.18648],[40.48272,0.18866],[40.49496,0.19787],[40.49895,0.19719],[40.50367,0.19249],[40.50727,0.19281],[40.51398,0.20819],[40.52053,0.21288],[40.5245,0.22147],[40.53318,0.22629],[40.54075,0.22678],[40.56505,0.21582],[40.58616,0.2154],[40.59501,0.22562],[40.6045,0.22544],[40.61214,0.23276],[40.64768,0.23211],[40.68179,0.25844],[40.68355,0.27112],[40.6945,0.2781],[40.70396,0.29488],[40.7102,0.31285],[40.71574,0.32009],[40.73517,0.32556],[40.7519,0.34359],[40.77314,0.35405],[40.84327,0.37091],[40.86264,0.37893],[40.88599,0.3924],[40.91853,0.42389],[40.94556,0.43685],[40.96123,0.44765],[40.97735,0.45288],[40.99178,0.46442],[40.9924,-0.82909],[41.56224,-1.5975],[41.56198,-1.65865],[40.9029,-1.71448],[40.20794,-2.03289],[40.20455,-2.01527],[40.19685,-2.0008],[40.19688,-1.98053],[40.18599,-1.95979],[40.18941,-1.93628],[40.18653,-1.89417],[40.18881,-1.87274],[40.18752,-1.86291],[40.17807,-1.84602],[40.16726,-1.83395],[40.16302,-1.82338],[40.15771,-1.76375],[40.16915,-1.7355],[40.17075,-1.72387],[40.15823,-1.69733],[40.15991,-1.64457],[40.154,-1.60781],[40.14325,-1.58639],[40.1261,-1.57015],[40.11489,-1.5529],[40.10514,-1.50794],[40.09047,-1.48405],[40.08728,-1.47434],[40.0709,-1.47088],[40.03878,-1.49077],[40.03256,-1.48737],[40.03144,-1.4823],[40.03648,-1.48256],[40.03818,-1.48025],[40.03532,-1.47481],[40.03632,-1.46979],[40.03201,-1.46269],[40.03528,-1.45559],[40.02958,-1.45248],[40.03321,-1.44848],[40.03429,-1.43264],[40.03012,-1.42791],[40.03118,-1.42433],[40.02451,-1.42209],[40.02198,-1.401],[40.01253,-1.38164],[40.00908,-1.37954],[40.01477,-1.37454],[40.01071,-1.36894],[40.00937,-1.36032],[40.00469,-1.36312],[40.00227,-1.36136],[40.00433,-1.35415],[40.00096,-1.34808],[40.01175,-1.32935],[40.00431,-1.32464],[40.00425,-1.31561],[39.99937,-1.30892],[39.99723,-1.29996],[40.00429,-1.29358],[39.99918,-1.28591],[40.00634,-1.2786],[40.00472,-1.26987],[40.01184,-1.26469],[40.00869,-1.25718],[40.00133,-1.25466],[40.00744,-1.24522],[40.00797,-1.2401],[40.00475,-1.23789],[39.99535,-1.23842],[40.0,-1.23362],[39.99564,-1.2268],[40.00042,-1.2152],[39.99106,-1.21275],[39.98925,-1.20247],[39.98313,-1.20402],[39.97985,-1.20238],[39.98103,-1.19316],[39.97266,-1.18633],[39.96948,-1.17658],[39.96287,-1.1676],[39.96232,-1.15679],[39.9558,-1.14454],[39.94491,-1.13877],[39.94376,-1.13112],[39.93644,-1.13285],[39.93239,-1.12909],[39.93235,-1.11086],[39.92951,-1.10524],[39.92594,-1.07772],[39.92085,-1.07868],[39.91859,-1.076],[39.91356,-1.06477],[39.91718,-1.05835],[39.90834,-1.05129],[39.91269,-1.04245],[39.89904,-1.02813],[39.8962,-1.01499],[39.89846,-1.00679],[39.88948,-1.00573],[39.88583,-1.00058],[39.88573,-0.99513],[39.89163,-0.98961],[39.88765,-0.98563],[39.88926,-0.9817],[39.88484,-0.97732],[39.88823,-0.97437],[39.89293,-0.97571],[39.89355,-0.97361],[39.88569,-0.96796],[39.88033,-0.96934],[39.87849,-0.95897],[39.8818,-0.95102],[39.87836,-0.95156],[39.8734,-0.95871],[39.8696,-0.95879],[39.87107,-0.95138],[39.86875,-0.94704],[39.87143,-0.94311],[39.87706,-0.94231],[39.87846,-0.93669],[39.87403,-0.93292],[39.87259,-0.92773],[39.86073,-0.92606],[39.86055,-0.92146],[39.86451,-0.91593],[39.86041,-0.91404],[39.85824,-0.90583],[39.85346,-0.90104],[39.85157,-0.89691],[39.8559,-0.89303],[39.85012,-0.88649],[39.85712,-0.88536],[39.8596,-0.88133],[39.85667,-0.87429],[39.85125,-0.87113],[39.85725,-0.85947],[39.85874,-0.84846],[39.85305,-0.84715],[39.84909,-0.84273],[39.84638,-0.85247],[39.84151,-0.85247],[39.84295,-0.846],[39.83835,-0.84262],[39.83681,-0.83819],[39.83993,-0.83562],[39.84475,-0.84018],[39.84737,-0.83901],[39.84394,-0.82775],[39.84543,-0.81958],[39.83582,-0.81101],[39.84218,-0.80436],[39.83817,-0.80215],[39.82982,-0.80508],[39.8254,-0.80377],[39.82585,-0.7998],[39.8346,-0.79596],[39.83415,-0.79294],[39.83131,-0.79096],[39.82508,-0.7926],[39.82427,-0.78764],[39.82725,-0.78078],[39.81777,-0.77614],[39.81236,-0.77672],[39.80866,-0.77124],[39.81484,-0.76962],[39.8161,-0.76695],[39.80893,-0.76154],[39.80875,-0.75892],[39.81173,-0.75574],[39.81728,-0.75543],[39.81547,-0.74703],[39.8226,-0.74564],[39.82391,-0.74189],[39.8212,-0.73898],[39.81565,-0.73988],[39.80798,-0.73582],[39.80532,-0.727],[39.81141,-0.72827],[39.81322,-0.7132],[39.80952,-0.71074],[39.81245,-0.70582],[39.81069,-0.70393],[39.80505,-0.70465],[39.80771,-0.69468],[39.80252,-0.69813],[39.79797,-0.69122],[39.79556,-0.68123],[39.79985,-0.67103],[39.79045,-0.67187],[39.78901,-0.66043],[39.7795,-0.66177],[39.7817,-0.65206],[39.76855,-0.62929],[39.77467,-0.62162],[39.7766,-0.61313],[39.76512,-0.61082],[39.75755,-0.60548],[39.75599,-0.60103],[39.75288,-0.60097],[39.74944,-0.60505],[39.73978,-0.59595],[39.7387,-0.58758],[39.73087,-0.59359],[39.7219,-0.59405],[39.7139,-0.59088],[39.70472,-0.59437],[39.69693,-0.59155],[39.70016,-0.5821],[39.69323,-0.58575],[39.6927,-0.57851],[39.68561,-0.57443],[39.68765,-0.56511],[39.68641,-0.55164],[39.6833,-0.55094],[39.67595,-0.55733],[39.67369,-0.55593],[39.67235,-0.54737],[39.66327,-0.54893],[39.6614,-0.53781],[39.668,-0.53652],[39.66864,-0.53158],[39.64749,-0.51653],[39.64024,-0.5071],[39.64003,-0.49545],[39.63063,-0.4899],[39.62886,-0.47087],[39.6353,-0.45728],[39.61947,-0.44588],[39.6193,-0.43831],[39.61464,-0.44255],[39.61093,-0.43981],[39.6142,-0.40977],[39.61055,-0.40816],[39.60218,-0.40956],[39.60497,-0.40341],[39.6039,-0.39804],[39.5981,-0.39434],[39.6003,-0.38945],[39.5967,-0.3858],[39.59783,-0.37973],[39.59289,-0.37625],[39.59815,-0.36916],[39.5941,-0.36397],[39.59685,-0.35873],[39.59473,-0.3565],[39.58965,-0.35688],[39.59195,-0.35203],[39.587,-0.3471],[39.58752,-0.34141],[39.58472,-0.34049],[39.58065,-0.34418],[39.57792,-0.33673],[39.56928,-0.32996],[39.56173,-0.32874],[39.55864,-0.31981],[39.554,-0.31716],[39.55606,-0.31123],[39.55116,-0.3073],[39.54845,-0.29647],[39.54271,-0.29021],[39.5353,-0.29443],[39.52962,-0.28773],[39.52582,-0.28676],[39.52066,-0.29624],[39.5126,-0.29817],[39.51738,-0.28202],[39.51505,-0.2777],[39.51003,-0.27732],[39.50932,-0.26987],[39.50487,-0.26497],[39.4979,-0.24833],[39.49017,-0.24937],[39.48843,-0.24414],[39.47708,-0.24147],[39.47392,-0.23528],[39.46979,-0.23302],[39.47121,-0.2267],[39.46734,-0.22113],[39.45735,-0.21616],[39.45322,-0.21068],[39.4449,-0.20984],[39.4273,-0.18976],[39.40648,-0.19047],[39.40022,-0.19543],[39.39687,-0.18839],[39.38995,-0.19169],[39.3841,-0.19052],[39.38138,-0.18257],[39.37383,-0.178],[39.36242,-0.1627],[39.3544,-0.16853],[39.35263,-0.15975],[39.33914,-0.1671],[39.33583,-0.16516],[39.33397,-0.15696],[39.32469,-0.15785],[39.32784,-0.14549],[39.31839,-0.14032],[39.3133,-0.13298],[39.30975,-0.1338],[39.305,-0.13966],[39.29551,-0.13613],[39.28215,-0.14126],[39.27526,-0.13718],[39.27096,-0.14158],[39.26348,-0.14092],[39.25732,-0.14654],[39.25467,-0.13874],[39.24645,-0.14174],[39.23801,-0.13786],[39.22756,-0.13837],[39.22645,-0.12999],[39.21392,-0.13221],[39.21159,-0.13529],[39.20713,-0.13595],[39.20263,-0.14275],[39.1918,-0.14084],[39.18342,-0.13529],[39.17064,-0.1368],[39.16931,-0.13023],[39.16337,-0.12656],[39.13477,-0.13015],[39.13228,-0.12587],[39.1335,-0.11946],[39.12055,-0.12062],[39.12008,-0.11012],[39.10968,-0.10473],[39.10703,-0.09916],[39.10167,-0.09815],[39.0979,-0.08805],[39.07408,-0.06484],[39.06532,-0.04632],[39.0493,-0.05261],[39.03593,-0.05364],[39.02564,-0.04409],[39.02023,-0.0429],[39.01646,-0.04444],[39.00744,-0.05537],[39.00161,-0.05523],[38.99768,-0.04897],[38.98691,-0.05943],[38.97195,-0.059],[38.96696,-0.08227],[38.95476,-0.08596],[38.93834,-0.09921],[38.93105,-0.09812],[38.92007,-0.08582],[38.89952,-0.09553],[38.88179,-0.09623],[38.86045,-0.09171],[38.83481,-0.09359],[38.81057,-0.0842],[38.78651,-0.07871],[38.76112,-0.06261],[38.76669,-0.05504],[38.75941,-0.04804],[38.7534,-0.04718],[38.75497,-0.03703],[38.75126,-0.03203],[38.75198,-0.02432],[38.74411,-0.01103],[38.74383,-0.0026],[38.73912,0.00618],[38.73996,0.01677],[38.73266,0.04083],[38.73365,0.04547],[38.7312,0.04936],[38.73169,0.06176],[38.72937,0.06822],[38.73154,0.07782],[38.72913,0.0857],[38.7323,0.09526],[38.73141,0.12136],[38.73663,0.14896],[38.75674,0.17309],[38.75555,0.19235],[38.68904,0.45163],[38.67857,0.47605],[38.67641,0.49462],[38.67321,0.4995],[38.66537,0.50196],[38.66162,0.50566],[38.6617,0.50906],[38.6795,0.50759],[38.6944,0.5101],[38.70495,0.50635],[38.70962,0.51274],[38.72237,0.51098],[38.72075,0.52059],[38.72438,0.52447],[38.73596,0.51808],[38.74396,0.52291],[38.75132,0.5231],[38.75458,0.52093],[38.75568,0.51492],[38.76634,0.511],[38.76847,0.51608],[38.77434,0.51658],[38.78574,0.52678],[38.79134,0.53906],[38.79901,0.54187],[38.8018,0.5485],[38.80748,0.55139],[38.81566,0.56911],[38.82499,0.5796],[38.83255,0.58427],[38.83847,0.58501],[38.85942,0.59919],[38.87092,0.60001],[38.87551,0.59436],[38.88539,0.59622],[38.89192,0.59437],[38.89479,0.59809],[38.90231,0.59634],[38.90728,0.59991],[38.91052,0.59896],[38.9258,0.60599],[38.93546,0.62567],[38.93983,0.62845],[38.94588,0.62599],[38.95217,0.62877],[38.95938,0.62436],[38.97255,0.62382],[38.97747,0.62131],[38.98599,0.62609],[39.00967,0.62443],[39.01274,0.62926],[39.01302,0.63971],[39.02047,0.64085],[39.02334,0.64531],[39.02195,0.6551],[39.02586,0.66384],[39.03337,0.66484],[39.04641,0.67702],[39.04845,0.68329],[39.05346,0.68585],[39.08507,0.67514],[39.09687,0.68002],[39.09783,0.68674],[39.10099,0.68906],[39.11399,0.69102],[39.13129,0.68802],[39.13477,0.69088],[39.14095,0.69043],[39.14761,0.70632],[39.16293,0.71346],[39.16756,0.7192],[39.17518,0.72093],[39.17721,0.72541],[39.17475,0.72691],[39.17555,0.7378],[39.17924,0.75116],[39.20142,0.79301],[39.22382,0.81868],[39.23568,0.84423],[39.31156,0.92402],[39.35825,0.95344],[39.45476,0.98949],[39.46069,0.99468]]]}}]}