{"type":"FeatureCollection","features":[{"type":"Feature","properties":{"zone_type":"flood_inundation","name":"Garissa Town Reach","risk":"HIGH","description":"Active flood inundation zone — crops submerged"},"geometry":{"type":"Polygon","coordinates":[[[39.665,-0.45],[39.66471,-0.45293],[39.66386,-0.45574],[39.66247,-0.45833],[39.66061,-0.46061],[39.65833,-0.46247],[39.65574,-0.46386],[39.65293,-0.46471],[39.65,-0.465],[39.64707,-0.46471],[39.64426,-0.46386],[39.64167,-0.46247],[39.63939,-0.46061],[39.63753,-0.45833],[39.63614,-0.45574],[39.63529,-0.45293],[39.635,-0.45],[39.63529,-0.44707],[39.63614,-0.44426],[39.63753,-0.44167],[39.63939,-0.43939],[39.64167,-0.43753],[39.64426,-0.43614],[39.64707,-0.43529],[39.65,-0.435],[39.65293,-0.43529],[39.65574,-0.43614],[39.65833,-0.43753],[39.66061,-0.43939],[39.66247,-0.44167],[39.66386,-0.44426],[39.66471,-0.44707],[39.665,-0.45]]]}},{"type":"Feature","properties":{"zone_type":"agricultural_impact","name":"Garissa Town Reach (Farm Zone)","risk":"HIGH","description":"Farm lands affected by waterlogging and access disruption"},"geometry":{"type":"Polygon","coordinates":[[[39.67687,-0.45265],[39.67584,-0.45784],[39.67381,-0.46273],[39.67087,-0.46713],[39.66713,-0.47087],[39.66273,-0.47381],[39.65784,-0.47584],[39.65265,-0.47687],[39.64735,-0.47687],[39.64216,-0.47584],[39.63727,-0.47381],[39.63287,-0.47087],[39.62913,-0.46713],[39.62619,-0.46273],[39.62416,-0.45784],[39.62313,-0.45265],[39.62313,-0.44735],[39.62416,-0.44216],[39.62619,-0.43727],[39.62913,-0.43287],[39.63287,-0.42913],[39.63727,-0.42619],[39.64216,-0.42416],[39.64735,-0.42313],[39.65265,-0.42313],[39.65784,-0.42416],[39.66273,-0.42619],[39.66713,-0.42913],[39.67087,-0.43287],[39.67381,-0.43727],[39.67584,-0.44216],[39.67687,-0.44735],[39.67687,-0.45265]],[[39.66493,-0.44853],[39.66435,-0.44565],[39.66323,-0.44293],[39.6616,-0.44048],[39.65952,-0.4384],[39.65707,-0.43677],[39.65435,-0.43565],[39.65147,-0.43507],[39.64853,-0.43507],[39.64565,-0.43565],[39.64293,-0.43677],[39.64048,-0.4384],[39.6384,-0.44048],[39.63677,-0.44293],[39.63565,-0.44565],[39.63507,-0.44853],[39.63507,-0.45147],[39.63565,-0.45435],[39.63677,-0.45707],[39.6384,-0.45952],[39.64048,-0.4616],[39.64293,-0.46323],[39.64565,-0.46435],[39.64853,-0.46493],[39.65147,-0.46493],[39.65435,-0.46435],[39.65707,-0.46323],[39.65952,-0.4616],[39.6616,-0.45952],[39.66323,-0.45707],[39.66435,-0.45435],[39.66493,-0.45147],[39.66493,-0.44853]]]}},{"type":"Feature","properties":{"zone_type":"flood_inundation","name":"Bura Irrigation Scheme","risk":"HIGH","description":"Active flood inundation zone — crops submerged"},"geometry":{"type":"Polygon","coordinates":[[[39.82,-0.3],[39.81962,-0.3039],[39.81848,-0.30765],[39.81663,-0.31111],[39.81414,-0.31414],[39.81111,-0.31663],[39.80765,-0.31848],[39.8039,-0.31962],[39.8,-0.32],[39.7961,-0.31962],[39.79235,-0.31848],[39.78889,-0.31663],[39.78586,-0.31414],[39.78337,-0.31111],[39.78152,-0.30765],[39.78038,-0.3039],[39.78,-0.3],[39.78038,-0.2961],[39.78152,-0.29235],[39.78337,-0.28889],[39.78586,-0.28586],[39.78889,-0.28337],[39.79235,-0.28152],[39.7961,-0.28038],[39.8,-0.28],[39.8039,-0.28038],[39.80765,-0.28152],[39.81111,-0.28337],[39.81414,-0.28586],[39.81663,-0.28889],[39.81848,-0.29235],[39.81962,-0.2961],[39.82,-0.3]]]}},{"type":"Feature","properties":{"zone_type":"agricultural_impact","name":"Bura Irrigation Scheme (Farm Zone)","risk":"HIGH","description":"Farm lands affected by waterlogging and access disruption"},"geometry":{"type":"Polygon","coordinates":[[[39.83583,-0.30353],[39.83445,-0.31045],[39.83175,-0.31697],[39.82783,-0.32284],[39.82284,-0.32783],[39.81697,-0.33175],[39.81045,-0.33445],[39.80353,-0.33583],[39.79647,-0.33583],[39.78955,-0.33445],[39.78303,-0.33175],[39.77716,-0.32783],[39.77217,-0.32284],[39.76825,-0.31697],[39.76555,-0.31045],[39.76417,-0.30353],[39.76417,-0.29647],[39.76555,-0.28955],[39.76825,-0.28303],[39.77217,-0.27716],[39.77716,-0.27217],[39.78303,-0.26825],[39.78955,-0.26555],[39.79647,-0.26417],[39.80353,-0.26417],[39.81045,-0.26555],[39.81697,-0.26825],[39.82284,-0.27217],[39.82783,-0.27716],[39.83175,-0.28303],[39.83445,-0.28955],[39.83583,-0.29647],[39.83583,-0.30353]],[[39.8199,-0.29804],[39.81914,-0.29419],[39.81764,-0.29057],[39.81546,-0.28731],[39.81269,-0.28454],[39.80943,-0.28236],[39.80581,-0.28086],[39.80196,-0.2801],[39.79804,-0.2801],[39.79419,-0.28086],[39.79057,-0.28236],[39.78731,-0.28454],[39.78454,-0.28731],[39.78236,-0.29057],[39.78086,-0.29419],[39.7801,-0.29804],[39.7801,-0.30196],[39.78086,-0.30581],[39.78236,-0.30943],[39.78454,-0.31269],[39.78731,-0.31546],[39.79057,-0.31764],[39.79419,-0.31914],[39.79804,-0.3199],[39.80196,-0.3199],[39.80581,-0.31914],[39.80943,-0.31764],[39.81269,-0.31546],[39.81546,-0.31269],[39.81764,-0.30943],[39.81914,-0.30581],[39.8199,-0.30196],[39.8199,-0.29804]]]}},{"type":"Feature","properties":{"zone_type":"flood_inundation","name":"Tana Delta Approach","risk":"HIGH","description":"Active flood inundation zone — crops submerged"},"geometry":{"type":"Polygon","coordinates":[[[39.925,-0.1],[39.92452,-0.10488],[39.9231,-0.10957],[39.92079,-0.11389],[39.91768,-0.11768],[39.91389,-0.12079],[39.90957,-0.1231],[39.90488,-0.12452],[39.9,-0.125],[39.89512,-0.12452],[39.89043,-0.1231],[39.88611,-0.12079],[39.88232,-0.11768],[39.87921,-0.11389],[39.8769,-0.10957],[39.87548,-0.10488],[39.875,-0.1],[39.87548,-0.09512],[39.8769,-0.09043],[39.87921,-0.08611],[39.88232,-0.08232],[39.88611,-0.07921],[39.89043,-0.0769],[39.89512,-0.07548],[39.9,-0.075],[39.90488,-0.07548],[39.90957,-0.0769],[39.91389,-0.07921],[39.91768,-0.08232],[39.92079,-0.08611],[39.9231,-0.09043],[39.92452,-0.09512],[39.925,-0.1]]]}},{"type":"Feature","properties":{"zone_type":"agricultural_impact","name":"Tana Delta Approach (Farm Zone)","risk":"HIGH","description":"Farm lands affected by waterlogging and access disruption"},"geometry":{"type":"Polygon","coordinates":[[[39.94478,-0.10441],[39.94414,-0.10878],[39.94306,-0.11306],[39.94157,-0.11722],[39.93969,-0.12121],[39.93742,-0.125],[39.93479,-0.12855],[39.93182,-0.13182],[39.92855,-0.13479],[39.925,-0.13742],[39.92121,-0.13969],[39.91722,-0.14157],[39.91306,-0.14306],[39.90878,-0.14414],[39.90441,-0.14478],[39.9,-0.145],[39.89559,-0.14478],[39.89122,-0.14414],[39.88694,-0.14306],[39.88278,-0.14157],[39.87879,-0.13969],[39.875,-0.13742],[39.87145,-0.13479],[39.86818,-0.13182],[39.86521,-0.12855],[39.86258,-0.125],[39.86031,-0.12121],[39.85843,-0.11722],[39.85694,-0.11306],[39.85586,-0.10878],[39.85522,-0.10441],[39.855,-0.1],[39.85522,-0.09559],[39.85586,-0.09122],[39.85694,-0.08694],[39.85843,-0.08278],[39.86031,-0.07879],[39.86258,-0.075],[39.86521,-0.07145],[39.86818,-0.06818],[39.87145,-0.06521],[39.875,-0.06258],[39.87879,-0.06031],[39.88278,-0.05843],[39.88694,-0.05694],[39.89122,-0.05586],[39.89559,-0.05522],[39.9,-0.055],[39.90441,-0.05522],[39.90878,-0.05586],[39.91306,-0.05694],[39.91722,-0.05843],[39.92121,-0.06031],[39.925,-0.06258],[39.92855,-0.06521],[39.93182,-0.06818],[39.93479,-0.07145],[39.93742,-0.075],[39.93969,-0.07879],[39.94157,-0.08278],[39.94306,-0.08694],[39.94414,-0.09122],[39.94478,-0.09559],[39.945,-0.1],[39.94478,-0.10441]],[[39.92488,-0.09755],[39.92392,-0.09274],[39.92205,-0.08822],[39.91933,-0.08414],[39.91586,-0.08067],[39.91178,-0.07795],[39.90726,-0.07608],[39.90245,-0.07512],[39.89755,-0.07512],[39.89274,-0.07608],[39.88822,-0.07795],[39.88414,-0.08067],[39.88067,-0.08414],[39.87795,-0.08822],[39.87608,-0.09274],[39.87512,-0.09755],[39.87512,-0.10245],[39.87608,-0.10726],[39.87795,-0.11178],[39.88067,-0.11586],[39.88414,-0.11933],[39.88822,-0.12205],[39.89274,-0.12392],[39.89755,-0.12488],[39.90245,-0.12488],[39.90726,-0.12392],[39.91178,-0.12205],[39.91586,-0.11933],[39.91933,-0.11586],[39.92205,-0.11178],[39.92392,-0.10726],[39.92488,-0.10245],[39.92488,-0.09755]]]}},{"type":"Feature","properties":{"zone_type":"flood_inundation","name":"Sangailu Reach","risk":"MEDIUM","description":"Active flood inundation zone — crops submerged"},"geometry":{"type":"Polygon","coordinates":[[[40.03,0.0],[40.02942,-0.00585],[40.02772,-0.01148],[40.02494,-0.01667],[40.02121,-0.02121],[40.01667,-0.02494],[40.01148,-0.02772],[40.00585,-0.02942],[40.0,-0.03],[39.99415,-0.02942],[39.98852,-0.02772],[39.98333,-0.02494],[39.97879,-0.02121],[39.97506,-0.01667],[39.97228,-0.01148],[39.97058,-0.00585],[39.97,0.0],[39.97058,0.00585],[39.97228,0.01148],[39.97506,0.01667],[39.97879,0.02121],[39.98333,0.02494],[39.98852,0.02772],[39.99415,0.02942],[40.0,0.03],[40.00585,0.02942],[40.01148,0.02772],[40.01667,0.02494],[40.02121,0.02121],[40.02494,0.01667],[40.02772,0.01148],[40.02942,0.00585],[40.03,0.0]]]}},{"type":"Feature","properties":{"zone_type":"agricultural_impact","name":"Sangailu Reach (Farm Zone)","risk":"MEDIUM","description":"Farm lands affected by waterlogging and access disruption"},"geometry":{"type":"Polygon","coordinates":[[[40.05374,-0.00529],[40.05296,-0.01053],[40.05167,-0.01568],[40.04989,-0.02066],[40.04762,-0.02546],[40.0449,-0.03],[40.04174,-0.03426],[40.03818,-0.03818],[40.03426,-0.04174],[40.03,-0.0449],[40.02546,-0.04762],[40.02066,-0.04989],[40.01568,-0.05167],[40.01053,-0.05296],[40.00529,-0.05374],[40.0,-0.054],[39.99471,-0.05374],[39.98947,-0.05296],[39.98432,-0.05167],[39.97934,-0.04989],[39.97454,-0.04762],[39.97,-0.0449],[39.96574,-0.04174],[39.96182,-0.03818],[39.95826,-0.03426],[39.9551,-0.03],[39.95238,-0.02546],[39.95011,-0.02066],[39.94833,-0.01568],[39.94704,-0.01053],[39.94626,-0.00529],[39.946,0.0],[39.94626,0.00529],[39.94704,0.01053],[39.94833,0.01568],[39.95011,0.02066],[39.95238,0.02546],[39.9551,0.03],[39.95826,0.03426],[39.96182,0.03818],[39.96574,0.04174],[39.97,0.0449],[39.97454,0.04762],[39.97934,0.04989],[39.98432,0.05167],[39.98947,0.05296],[39.99471,0.05374],[40.0,0.054],[40.00529,0.05374],[40.01053,0.05296],[40.01568,0.05167],[40.02066,0.04989],[40.02546,0.04762],[40.03,0.0449],[40.03426,0.04174],[40.03818,0.03818],[40.04174,0.03426],[40.0449,0.03],[40.04762,0.02546],[40.04989,0.02066],[40.05167,0.01568],[40.05296,0.01053],[40.05374,0.00529],[40.054,0.0],[40.05374,-0.00529]],[[40.02986,0.00294],[40.02871,0.00871],[40.02646,0.01414],[40.02319,0.01903],[40.01903,0.02319],[40.01414,0.02646],[40.00871,0.02871],[40.00294,0.02986],[39.99706,0.02986],[39.99129,0.02871],[39.98586,0.02646],[39.98097,0.02319],[39.97681,0.01903],[39.97354,0.01414],[39.97129,0.00871],[39.97014,0.00294],[39.97014,-0.00294],[39.97129,-0.00871],[39.97354,-0.01414],[39.97681,-0.01903],[39.98097,-0.02319],[39.98586,-0.02646],[39.99129,-0.02871],[39.99706,-0.02986],[40.00294,-0.02986],[40.00871,-0.02871],[40.01414,-0.02646],[40.01903,-0.02319],[40.02319,-0.01903],[40.02646,-0.01414],[40.02871,-0.00871],[40.02986,-0.00294],[40.02986,0.00294]]]}},{"type":"Feature","properties":{"zone_type":"flood_inundation","name":"Masalani Reach","risk":"MEDIUM","description":"Active flood inundation zone — crops submerged"},"geometry":{"type":"Polygon","coordinates":[[[40.225,0.2],[40.22452,0.19512],[40.2231,0.19043],[40.22079,0.18611],[40.21768,0.18232],[40.21389,0.17921],[40.20957,0.1769],[40.20488,0.17548],[40.2,0.175],[40.19512,0.17548],[40.19043,0.1769],[40.18611,0.17921],[40.18232,0.18232],[40.17921,0.18611],[40.1769,0.19043],[40.17548,0.19512],[40.175,0.2],[40.17548,0.20488],[40.1769,0.20957],[40.17921,0.21389],[40.18232,0.21768],[40.18611,0.22079],[40.19043,0.2231],[40.19512,0.22452],[40.2,0.225],[40.20488,0.22452],[40.20957,0.2231],[40.21389,0.22079],[40.21768,0.21768],[40.22079,0.21389],[40.2231,0.20957],[40.22452,0.20488],[40.225,0.2]]]}},{"type":"Feature","properties":{"zone_type":"agricultural_impact","name":"Masalani Reach (Farm Zone)","risk":"MEDIUM","description":"Farm lands affected by waterlogging and access disruption"},"geometry":{"type":"Polygon","coordinates":[[[40.24478,0.19559],[40.24414,0.19122],[40.24306,0.18694],[40.24157,0.18278],[40.23969,0.17879],[40.23742,0.175],[40.23479,0.17145],[40.23182,0.16818],[40.22855,0.16521],[40.225,0.16258],[40.22121,0.16031],[40.21722,0.15843],[40.21306,0.15694],[40.20878,0.15586],[40.20441,0.15522],[40.2,0.155],[40.19559,0.15522],[40.19122,0.15586],[40.18694,0.15694],[40.18278,0.15843],[40.17879,0.16031],[40.175,0.16258],[40.17145,0.16521],[40.16818,0.16818],[40.16521,0.17145],[40.16258,0.175],[40.16031,0.17879],[40.15843,0.18278],[40.15694,0.18694],[40.15586,0.19122],[40.15522,0.19559],[40.155,0.2],[40.15522,0.20441],[40.15586,0.20878],[40.15694,0.21306],[40.15843,0.21722],[40.16031,0.22121],[40.16258,0.225],[40.16521,0.22855],[40.16818,0.23182],[40.17145,0.23479],[40.175,0.23742],[40.17879,0.23969],[40.18278,0.24157],[40.18694,0.24306],[40.19122,0.24414],[40.19559,0.24478],[40.2,0.245],[40.20441,0.24478],[40.20878,0.24414],[40.21306,0.24306],[40.21722,0.24157],[40.22121,0.23969],[40.225,0.23742],[40.22855,0.23479],[40.23182,0.23182],[40.23479,0.22855],[40.23742,0.225],[40.23969,0.22121],[40.24157,0.21722],[40.24306,0.21306],[40.24414,0.20878],[40.24478,0.20441],[40.245,0.2],[40.24478,0.19559]],[[40.22488,0.20245],[40.22392,0.20726],[40.22205,0.21178],[40.21933,0.21586],[40.21586,0.21933],[40.21178,0.22205],[40.20726,0.22392],[40.20245,0.22488],[40.19755,0.22488],[40.19274,0.22392],[40.18822,0.22205],[40.18414,0.21933],[40.18067,0.21586],[40.17795,0.21178],[40.17608,0.20726],[40.17512,0.20245],[40.17512,0.19755],[40.17608,0.19274],[40.17795,0.18822],[40.18067,0.18414],[40.18414,0.18067],[40.18822,0.17795],[40.19274,0.17608],[40.19755,0.17512],[40.20245,0.17512],[40.20726,0.17608],[40.21178,0.17795],[40.21586,0.18067],[40.21933,0.18414],[40.22205,0.18822],[40.22392,0.19274],[40.22488,0.19755],[40.22488,0.20245]]]}},{"type":"Feature","properties":{"zone_type":"flood_inundation","name":"Garsen Upper Reach","risk":"MEDIUM","description":"Active flood inundation zone — crops submerged"},"geometry":{"type":"Polygon","coordinates":[[[40.37,0.4],[40.36962,0.3961],[40.36848,0.39235],[40.36663,0.38889],[40.36414,0.38586],[40.36111,0.38337],[40.35765,0.38152],[40.3539,0.38038],[40.35,0.38],[40.3461,0.38038],[40.34235,0.38152],[40.33889,0.38337],[40.33586,0.38586],[40.33337,0.38889],[40.33152,0.39235],[40.33038,0.3961],[40.33,0.4],[40.33038,0.4039],[40.33152,0.40765],[40.33337,0.41111],[40.33586,0.41414],[40.33889,0.41663],[40.34235,0.41848],[40.3461,0.41962],[40.35,0.42],[40.3539,0.41962],[40.35765,0.41848],[40.36111,0.41663],[40.36414,0.41414],[40.36663,0.41111],[40.36848,0.40765],[40.36962,0.4039],[40.37,0.4]]]}},{"type":"Feature","properties":{"zone_type":"agricultural_impact","name":"Garsen Upper Reach (Farm Zone)","risk":"MEDIUM","description":"Farm lands affected by waterlogging and access disruption"},"geometry":{"type":"Polygon","coordinates":[[[40.38583,0.39647],[40.38445,0.38955],[40.38175,0.38303],[40.37783,0.37716],[40.37284,0.37217],[40.36697,0.36825],[40.36045,0.36555],[40.35353,0.36417],[40.34647,0.36417],[40.33955,0.36555],[40.33303,0.36825],[40.32716,0.37217],[40.32217,0.37716],[40.31825,0.38303],[40.31555,0.38955],[40.31417,0.39647],[40.31417,0.40353],[40.31555,0.41045],[40.31825,0.41697],[40.32217,0.42284],[40.32716,0.42783],[40.33303,0.43175],[40.33955,0.43445],[40.34647,0.43583],[40.35353,0.43583],[40.36045,0.43445],[40.36697,0.43175],[40.37284,0.42783],[40.37783,0.42284],[40.38175,0.41697],[40.38445,0.41045],[40.38583,0.40353],[40.38583,0.39647]],[[40.3699,0.40196],[40.36914,0.40581],[40.36764,0.40943],[40.36546,0.41269],[40.36269,0.41546],[40.35943,0.41764],[40.35581,0.41914],[40.35196,0.4199],[40.34804,0.4199],[40.34419,0.41914],[40.34057,0.41764],[40.33731,0.41546],[40.33454,0.41269],[40.33236,0.40943],[40.33086,0.40581],[40.3301,0.40196],[40.3301,0.39804],[40.33086,0.39419],[40.33236,0.39057],[40.33454,0.38731],[40.33731,0.38454],[40.34057,0.38236],[40.34419,0.38086],[40.34804,0.3801],[40.35196,0.3801],[40.35581,0.38086],[40.35943,0.38236],[40.36269,0.38454],[40.36546,0.38731],[40.36764,0.39057],[40.36914,0.39419],[40.3699,0.39804],[40.3699,0.40196]]]}},{"type":"Feature","properties":{"zone_type":"flood_inundation","name":"Garissa Upstream","risk":"LOW","description":"Active flood inundation zone — crops submerged"},"geometry":{"type":"Polygon","coordinates":[[[39.512,-0.6],[39.51177,-0.60234],[39.51109,-0.60459],[39.50998,-0.60667],[39.50849,-0.60849],[39.50667,-0.60998],[39.50459,-0.61109],[39.50234,-0.61177],[39.5,-0.612],[39.49766,-0.61177],[39.49541,-0.61109],[39.49333,-0.60998],[39.49151,-0.60849],[39.49002,-0.60667],[39.48891,-0.60459],[39.48823,-0.60234],[39.488,-0.6],[39.48823,-0.59766],[39.48891,-0.59541],[39.49002,-0.59333],[39.49151,-0.59151],[39.49333,-0.59002],[39.49541,-0.58891],[39.49766,-0.58823],[39.5,-0.588],[39.50234,-0.58823],[39.50459,-0.58891],[39.50667,-0.59002],[39.50849,-0.59151],[39.50998,-0.59333],[39.51109,-0.59541],[39.51177,-0.59766],[39.512,-0.6]]]}},{"type":"Feature","properties":{"zone_type":"agricultural_impact","name":"Garissa Upstream (Farm Zone)","risk":"LOW","description":"Farm lands affected by waterlogging and access disruption"},"geometry":{"type":"Polygon","coordinates":[[[39.5215,-0.60212],[39.52067,-0.60627],[39.51905,-0.61018],[39.5167,-0.6137],[39.5137,-0.6167],[39.51018,-0.61905],[39.50627,-0.62067],[39.50212,-0.6215],[39.49788,-0.6215],[39.49373,-0.62067],[39.48982,-0.61905],[39.4863,-0.6167],[39.4833,-0.6137],[39.48095,-0.61018],[39.47933,-0.60627],[39.4785,-0.60212],[39.4785,-0.59788],[39.47933,-0.59373],[39.48095,-0.58982],[39.4833,-0.5863],[39.4863,-0.5833],[39.48982,-0.58095],[39.49373,-0.57933],[39.49788,-0.5785],[39.50212,-0.5785],[39.50627,-0.57933],[39.51018,-0.58095],[39.5137,-0.5833],[39.5167,-0.5863],[39.51905,-0.58982],[39.52067,-0.59373],[39.5215,-0.59788],[39.5215,-0.60212]],[[39.51194,-0.59882],[39.51148,-0.59652],[39.51058,-0.59434],[39.50928,-0.59239],[39.50761,-0.59072],[39.50566,-0.58942],[39.50348,-0.58852],[39.50118,-0.58806],[39.49882,-0.58806],[39.49652,-0.58852],[39.49434,-0.58942],[39.49239,-0.59072],[39.49072,-0.59239],[39.48942,-0.59434],[39.48852,-0.59652],[39.48806,-0.59882],[39.48806,-0.60118],[39.48852,-0.60348],[39.48942,-0.60566],[39.49072,-0.60761],[39.49239,-0.60928],[39.49434,-0.61058],[39.49652,-0.61148],[39.49882,-0.61194],[39.50118,-0.61194],[39.50348,-0.61148],[39.50566,-0.61058],[39.50761,-0.60928],[39.50928,-0.60761],[39.51058,-0.60566],[39.51148,-0.60348],[39.51194,-0.60118],[39.51194,-0.59882]]]}},{"type":"Feature","properties":{"zone_type":"flood_inundation","name":"Boje-Malkadaka Area","risk":"LOW","description":"Active flood inundation zone — crops submerged"},"geometry":{"type":"Polygon","coordinates":[[[39.565,-0.5],[39.56471,-0.50293],[39.56386,-0.50574],[39.56247,-0.50833],[39.56061,-0.51061],[39.55833,-0.51247],[39.55574,-0.51386],[39.55293,-0.51471],[39.55,-0.515],[39.54707,-0.51471],[39.54426,-0.51386],[39.54167,-0.51247],[39.53939,-0.51061],[39.53753,-0.50833],[39.53614,-0.50574],[39.53529,-0.50293],[39.535,-0.5],[39.53529,-0.49707],[39.53614,-0.49426],[39.53753,-0.49167],[39.53939,-0.48939],[39.54167,-0.48753],[39.54426,-0.48614],[39.54707,-0.48529],[39.55,-0.485],[39.55293,-0.48529],[39.55574,-0.48614],[39.55833,-0.48753],[39.56061,-0.48939],[39.56247,-0.49167],[39.56386,-0.49426],[39.56471,-0.49707],[39.565,-0.5]]]}},{"type":"Feature","properties":{"zone_type":"agricultural_impact","name":"Boje-Malkadaka Area (Farm Zone)","risk":"LOW","description":"Farm lands affected by waterlogging and access disruption"},"geometry":{"type":"Polygon","coordinates":[[[39.57687,-0.50265],[39.57584,-0.50784],[39.57381,-0.51273],[39.57087,-0.51713],[39.56713,-0.52087],[39.56273,-0.52381],[39.55784,-0.52584],[39.55265,-0.52687],[39.54735,-0.52687],[39.54216,-0.52584],[39.53727,-0.52381],[39.53287,-0.52087],[39.52913,-0.51713],[39.52619,-0.51273],[39.52416,-0.50784],[39.52313,-0.50265],[39.52313,-0.49735],[39.52416,-0.49216],[39.52619,-0.48727],[39.52913,-0.48287],[39.53287,-0.47913],[39.53727,-0.47619],[39.54216,-0.47416],[39.54735,-0.47313],[39.55265,-0.47313],[39.55784,-0.47416],[39.56273,-0.47619],[39.56713,-0.47913],[39.57087,-0.48287],[39.57381,-0.48727],[39.57584,-0.49216],[39.57687,-0.49735],[39.57687,-0.50265]],[[39.56493,-0.49853],[39.56435,-0.49565],[39.56323,-0.49293],[39.5616,-0.49048],[39.55952,-0.4884],[39.55707,-0.48677],[39.55435,-0.48565],[39.55147,-0.48507],[39.54853,-0.48507],[39.54565,-0.48565],[39.54293,-0.48677],[39.54048,-0.4884],[39.5384,-0.49048],[39.53677,-0.49293],[39.53565,-0.49565],[39.53507,-0.49853],[39.53507,-0.50147],[39.53565,-0.50435],[39.53677,-0.50707],[39.5384,-0.50952],[39.54048,-0.5116],[39.54293,-0.51323],[39.54565,-0.51435],[39.54853,-0.51493],[39.55147,-0.51493],[39.55435,-0.51435],[39.55707,-0.51323],[39.55952,-0.5116],[39.5616,-0.50952],[39.56323,-0.50707],[39.56435,-0.50435],[39.56493,-0.50147],[39.56493,-0.49853]]]}}]}