{"type":"FeatureCollection","features":[{"type":"Feature","properties":{"stage_m":3.0,"width_km":0.25,"area_km2":186.6,"level":"Normal"},"geometry":{"type":"Polygon","coordinates":[[[38.5906,-0.0251],[38.5986,-0.0329],[38.6157,-0.0293],[38.6439,-0.0534],[38.6563,-0.0457],[38.6803,-0.0536],[38.6878,-0.0423],[38.69,-0.0415],[38.7154,-0.0623],[38.7277,-0.0624],[38.7445,-0.0708],[38.7603,-0.0747],[38.7735,-0.0707],[38.7944,-0.0832],[38.815,-0.0832],[38.824,-0.0916],[38.8513,-0.0955],[38.8563,-0.0915],[38.8933,-0.0956],[38.9188,-0.0832],[38.9283,-0.0957],[38.9429,-0.0957],[38.9671,-0.0755],[38.9798,-0.0587],[38.9925,-0.0543],[38.9971,-0.05],[39.01,-0.0537],[39.0269,-0.0415],[39.0364,-0.0537],[39.0695,-0.0458],[39.0871,-0.0755],[39.1036,-0.0879],[39.1122,-0.1006],[39.1197,-0.1082],[39.1245,-0.1088],[39.1324,-0.1207],[39.1569,-0.1208],[39.1694,-0.129],[39.1781,-0.1293],[39.1863,-0.1373],[39.194,-0.1373],[39.2097,-0.1412],[39.2229,-0.129],[39.2363,-0.1415],[39.2766,-0.1415],[39.2852,-0.1373],[39.3192,-0.1374],[39.341,-0.1628],[39.3482,-0.1664],[39.366,-0.1628],[39.3905,-0.1914],[39.4283,-0.1877],[39.449,-0.2123],[39.4572,-0.2126],[39.4746,-0.2256],[39.4752,-0.2347],[39.4824,-0.2457],[39.4948,-0.2459],[39.508,-0.259],[39.5085,-0.2681],[39.5209,-0.289],[39.5172,-0.2944],[39.5194,-0.3012],[39.5264,-0.2916],[39.5354,-0.2954],[39.545,-0.2919],[39.5542,-0.3012],[39.5543,-0.3136],[39.5624,-0.3218],[39.5627,-0.3296],[39.5743,-0.3337],[39.5996,-0.359],[39.6002,-0.3773],[39.5968,-0.3814],[39.6124,-0.401],[39.609,-0.41],[39.6168,-0.4183],[39.6132,-0.4234],[39.6168,-0.4313],[39.613,-0.443],[39.6375,-0.4637],[39.6295,-0.4814],[39.6331,-0.4923],[39.6458,-0.5012],[39.6422,-0.514],[39.6437,-0.5156],[39.6469,-0.5126],[39.6492,-0.5127],[39.6566,-0.5235],[39.6596,-0.5208],[39.6618,-0.5212],[39.6709,-0.5306],[39.6672,-0.5429],[39.681,-0.5533],[39.6859,-0.5499],[39.6913,-0.5548],[39.6918,-0.5798],[39.6995,-0.5838],[39.7069,-0.5948],[39.7183,-0.5874],[39.7238,-0.5915],[39.7345,-0.5915],[39.7402,-0.5874],[39.7491,-0.5998],[39.7575,-0.6002],[39.7791,-0.6178],[39.7753,-0.635],[39.7834,-0.6473],[39.7835,-0.6593],[39.8041,-0.676],[39.8006,-0.6887],[39.8123,-0.6966],[39.8168,-0.7101],[39.8132,-0.715],[39.8168,-0.723],[39.8131,-0.7346],[39.8293,-0.7473],[39.8136,-0.7646],[39.8168,-0.7687],[39.8134,-0.7762],[39.8332,-0.7884],[39.8332,-0.7907],[39.8301,-0.794],[39.8416,-0.8094],[39.854,-0.8425],[39.8667,-0.8556],[39.859,-0.8725],[39.8626,-0.8766],[39.8626,-0.8902],[39.8548,-0.9016],[39.8666,-0.9135],[39.8668,-0.9257],[39.8745,-0.9296],[39.8833,-0.9429],[39.8757,-0.9561],[39.8915,-0.9758],[39.8959,-0.9891],[39.8883,-1.0018],[39.8999,-1.0135],[39.9002,-1.0261],[39.9125,-1.0387],[39.9127,-1.0511],[39.921,-1.0602],[39.9171,-1.0688],[39.9206,-1.0757],[39.9293,-1.0849],[39.9258,-1.093],[39.937,-1.1005],[39.9417,-1.1096],[39.9413,-1.1119],[39.9335,-1.1197],[39.9335,-1.1303],[39.9579,-1.1464],[39.9707,-1.1759],[39.9833,-1.1927],[39.9835,-1.201],[40.0042,-1.2181],[40.0003,-1.2311],[40.0168,-1.2644],[40.009,-1.2734],[40.0126,-1.2816],[40.0043,-1.2985],[40.0043,-1.3095],[40.0126,-1.3185],[40.009,-1.3266],[40.0127,-1.3313],[40.0087,-1.3515],[40.0208,-1.3679],[40.021,-1.3849],[40.0376,-1.4183],[40.0377,-1.4511],[40.0418,-1.4562],[40.0382,-1.4641],[40.046,-1.4729],[40.0385,-1.4848],[40.0495,-1.4921],[40.0582,-1.5052],[40.0548,-1.5141],[40.0585,-1.5183],[40.0585,-1.5342],[40.0708,-1.5429],[40.0672,-1.5556],[40.075,-1.5637],[40.0719,-1.5688],[40.0792,-1.5762],[40.0793,-1.5845],[40.0854,-1.5906],[40.0887,-1.5875],[40.0911,-1.5879],[40.1124,-1.6176],[40.1127,-1.6303],[40.1168,-1.6354],[40.1132,-1.6433],[40.121,-1.6516],[40.1136,-1.6604],[40.121,-1.6687],[40.1129,-1.6854],[40.1168,-1.6938],[40.1132,-1.7051],[40.1207,-1.7093],[40.1175,-1.718],[40.1288,-1.7256],[40.1293,-1.7312],[40.1167,-1.7448],[40.1127,-1.7689],[40.1127,-1.7849],[40.1252,-1.8148],[40.1127,-1.8241],[40.1127,-1.8307],[40.1164,-1.8381],[40.1413,-1.859],[40.1459,-1.8724],[40.1381,-1.8854],[40.146,-1.8977],[40.1428,-1.9021],[40.146,-1.9058],[40.146,-1.9192],[40.1392,-1.9265],[40.146,-1.9311],[40.1418,-1.9441],[40.1418,-1.9511],[40.1499,-1.9594],[40.1584,-1.9806],[40.1544,-2.0017],[40.1793,-2.0475],[40.1681,-2.0601],[40.1793,-2.0683],[40.1752,-2.0816],[40.1752,-2.1056],[40.1794,-2.112],[40.1788,-2.1146],[40.1757,-2.1145],[40.1707,-2.1065],[40.1707,-2.081],[40.1744,-2.0697],[40.1623,-2.0606],[40.1743,-2.0475],[40.1499,-2.0028],[40.1539,-1.9815],[40.146,-1.9617],[40.1374,-1.9527],[40.1374,-1.9433],[40.141,-1.9324],[40.1332,-1.9273],[40.1415,-1.9178],[40.1415,-1.9072],[40.1373,-1.9021],[40.1409,-1.8976],[40.1332,-1.8854],[40.1413,-1.8726],[40.1377,-1.8617],[40.113,-1.8412],[40.1082,-1.8315],[40.1086,-1.8217],[40.1201,-1.8137],[40.1083,-1.7861],[40.1082,-1.7684],[40.1125,-1.7429],[40.1248,-1.7303],[40.1248,-1.7283],[40.1127,-1.72],[40.1157,-1.7114],[40.1082,-1.7066],[40.1122,-1.6939],[40.1082,-1.6848],[40.116,-1.6692],[40.1082,-1.6602],[40.1156,-1.6521],[40.1082,-1.6442],[40.1118,-1.6359],[40.1082,-1.6317],[40.1082,-1.6195],[40.0893,-1.5931],[40.0846,-1.5958],[40.0754,-1.5869],[40.0748,-1.578],[40.0667,-1.5696],[40.0697,-1.5646],[40.0623,-1.5562],[40.0661,-1.5447],[40.054,-1.5359],[40.054,-1.5197],[40.0498,-1.5146],[40.0537,-1.5064],[40.0463,-1.4954],[40.0333,-1.4861],[40.0409,-1.4732],[40.0332,-1.4648],[40.0368,-1.4567],[40.0332,-1.4523],[40.0332,-1.4193],[40.0166,-1.386],[40.0165,-1.3695],[40.004,-1.3523],[40.008,-1.332],[40.004,-1.3269],[40.0077,-1.3192],[40.0,-1.3113],[39.9998,-1.2977],[40.0079,-1.2813],[40.0041,-1.2722],[40.0118,-1.2641],[39.9958,-1.2319],[39.9995,-1.2195],[39.9794,-1.2034],[39.979,-1.1945],[39.9668,-1.1782],[39.9545,-1.1495],[39.9343,-1.1374],[39.9292,-1.1321],[39.9291,-1.1181],[39.9368,-1.11],[39.9337,-1.1036],[39.9209,-1.0948],[39.9243,-1.0859],[39.917,-1.0785],[39.9125,-1.0696],[39.916,-1.0609],[39.9083,-1.053],[39.9082,-1.0405],[39.8961,-1.0283],[39.8957,-1.0155],[39.8833,-1.0027],[39.8913,-0.9892],[39.8876,-0.9782],[39.8708,-0.9569],[39.8785,-0.9438],[39.8714,-0.933],[39.8627,-0.9284],[39.8623,-0.9155],[39.8499,-0.9026],[39.8544,-0.8925],[39.8582,-0.8886],[39.8582,-0.878],[39.854,-0.8727],[39.8618,-0.8567],[39.8501,-0.8448],[39.8376,-0.8115],[39.825,-0.7945],[39.8276,-0.79],[39.8083,-0.7778],[39.8118,-0.7692],[39.8086,-0.7658],[39.8084,-0.7635],[39.8237,-0.7482],[39.8083,-0.7362],[39.8122,-0.7231],[39.8082,-0.7143],[39.812,-0.7098],[39.8085,-0.6994],[39.7958,-0.6904],[39.7995,-0.6779],[39.7792,-0.6613],[39.779,-0.6486],[39.7707,-0.6357],[39.7746,-0.6196],[39.7555,-0.6043],[39.7465,-0.6038],[39.7392,-0.5931],[39.7359,-0.596],[39.7229,-0.596],[39.7185,-0.5925],[39.7073,-0.5999],[39.7048,-0.5997],[39.6964,-0.5872],[39.6875,-0.5821],[39.6873,-0.5572],[39.6854,-0.5553],[39.6803,-0.5583],[39.6629,-0.5453],[39.6662,-0.5319],[39.6604,-0.5261],[39.6554,-0.5292],[39.6476,-0.5181],[39.6433,-0.521],[39.6377,-0.5158],[39.6411,-0.503],[39.6294,-0.495],[39.6249,-0.4815],[39.6326,-0.4652],[39.6083,-0.4444],[39.6122,-0.4314],[39.6082,-0.4231],[39.6114,-0.4188],[39.604,-0.4107],[39.6078,-0.4024],[39.5915,-0.3817],[39.5957,-0.3761],[39.5957,-0.3614],[39.5717,-0.3374],[39.5587,-0.3327],[39.5582,-0.3239],[39.5499,-0.3152],[39.5498,-0.303],[39.5433,-0.2965],[39.5355,-0.3002],[39.5278,-0.2967],[39.5203,-0.3078],[39.5172,-0.3079],[39.5123,-0.2938],[39.5159,-0.2892],[39.5041,-0.2696],[39.504,-0.2614],[39.4928,-0.2502],[39.4798,-0.2497],[39.4708,-0.2363],[39.4707,-0.2282],[39.4555,-0.2168],[39.4465,-0.2163],[39.4261,-0.192],[39.3886,-0.1958],[39.3638,-0.1671],[39.3478,-0.171],[39.3386,-0.1666],[39.3177,-0.1418],[39.2859,-0.1418],[39.2773,-0.146],[39.2352,-0.146],[39.2229,-0.1344],[39.2103,-0.146],[39.1935,-0.1418],[39.1846,-0.1417],[39.1762,-0.1335],[39.1679,-0.1333],[39.1556,-0.1252],[39.1304,-0.125],[39.1217,-0.1127],[39.1175,-0.1123],[39.1087,-0.1035],[39.1004,-0.0912],[39.0837,-0.0786],[39.0676,-0.0505],[39.0355,-0.0585],[39.0265,-0.047],[39.011,-0.0584],[38.9985,-0.0547],[38.9947,-0.0583],[38.9826,-0.0623],[38.9704,-0.0786],[38.9442,-0.1001],[38.9262,-0.1],[38.918,-0.0883],[38.8941,-0.1001],[38.8571,-0.0961],[38.852,-0.1002],[38.8222,-0.0959],[38.8137,-0.0877],[38.793,-0.0876],[38.7726,-0.0754],[38.7601,-0.0793],[38.743,-0.075],[38.7266,-0.0668],[38.7139,-0.0667],[38.6901,-0.0471],[38.6819,-0.0584],[38.6566,-0.0504],[38.6431,-0.0584],[38.614,-0.0337],[38.5975,-0.0376],[38.5887,-0.0293],[38.5812,-0.0293],[38.5794,-0.0275],[38.5812,-0.0249],[38.5906,-0.0251]]]}},{"type":"Feature","properties":{"stage_m":3.5,"width_km":0.5,"area_km2":377.2,"level":"Normal"},"geometry":{"type":"Polygon","coordinates":[[[38.5913,-0.0229],[38.5993,-0.0304],[38.6168,-0.0273],[38.6441,-0.0506],[38.6563,-0.0434],[38.6794,-0.0509],[38.6864,-0.0405],[38.6905,-0.0393],[38.7162,-0.0601],[38.7283,-0.0602],[38.7453,-0.0686],[38.7602,-0.0724],[38.774,-0.0685],[38.795,-0.0809],[38.8155,-0.081],[38.825,-0.0895],[38.8505,-0.0931],[38.8563,-0.0892],[38.8929,-0.0933],[38.9188,-0.0809],[38.9222,-0.0825],[38.9295,-0.0934],[38.9421,-0.0934],[38.9655,-0.0739],[38.9783,-0.057],[38.9913,-0.0523],[38.9962,-0.0479],[39.0096,-0.0512],[39.0268,-0.0392],[39.0306,-0.0409],[39.0374,-0.0511],[39.0703,-0.0437],[39.0888,-0.074],[39.1052,-0.0863],[39.1139,-0.0992],[39.1206,-0.1059],[39.1261,-0.1072],[39.1336,-0.1184],[39.1575,-0.1186],[39.1701,-0.1267],[39.1792,-0.1273],[39.1873,-0.1351],[39.1943,-0.1351],[39.209,-0.1387],[39.2201,-0.1277],[39.2229,-0.1267],[39.2258,-0.1277],[39.2373,-0.1392],[39.276,-0.1392],[39.285,-0.1351],[39.3196,-0.1351],[39.3424,-0.161],[39.3484,-0.164],[39.3639,-0.1601],[39.3673,-0.161],[39.3914,-0.189],[39.4295,-0.1858],[39.45,-0.2101],[39.4582,-0.2105],[39.4763,-0.2241],[39.4774,-0.234],[39.4836,-0.2434],[39.4959,-0.2439],[39.5097,-0.2575],[39.5107,-0.2675],[39.5231,-0.2884],[39.5201,-0.2961],[39.5261,-0.2893],[39.5354,-0.2929],[39.5426,-0.2894],[39.5466,-0.2903],[39.556,-0.2999],[39.5566,-0.3127],[39.5644,-0.3208],[39.5649,-0.328],[39.5758,-0.3319],[39.6014,-0.3575],[39.6024,-0.3775],[39.5998,-0.3816],[39.6144,-0.4],[39.6147,-0.4033],[39.6117,-0.4095],[39.619,-0.4179],[39.6159,-0.4238],[39.6191,-0.4314],[39.6157,-0.4422],[39.6396,-0.4628],[39.6396,-0.4662],[39.6319,-0.4816],[39.635,-0.4908],[39.6477,-0.5],[39.6456,-0.5107],[39.6504,-0.5108],[39.6569,-0.52],[39.6625,-0.5189],[39.6722,-0.5284],[39.6732,-0.5318],[39.6699,-0.5421],[39.6808,-0.5503],[39.6867,-0.5478],[39.693,-0.5534],[39.6941,-0.5784],[39.7011,-0.5822],[39.7075,-0.5917],[39.7179,-0.5851],[39.7209,-0.5856],[39.7248,-0.5892],[39.7336,-0.5892],[39.7375,-0.5856],[39.7409,-0.5853],[39.7503,-0.5976],[39.7587,-0.5983],[39.7812,-0.6169],[39.7778,-0.6346],[39.7855,-0.6466],[39.7857,-0.6582],[39.806,-0.6749],[39.8033,-0.6877],[39.8141,-0.6953],[39.819,-0.7099],[39.8159,-0.7155],[39.8191,-0.723],[39.8157,-0.7337],[39.8314,-0.7467],[39.8305,-0.7508],[39.8168,-0.7646],[39.8191,-0.7691],[39.8163,-0.7754],[39.8351,-0.7872],[39.8355,-0.791],[39.833,-0.7942],[39.8436,-0.8084],[39.8559,-0.8412],[39.8689,-0.8549],[39.8617,-0.872],[39.8648,-0.8762],[39.8648,-0.8905],[39.8576,-0.9012],[39.8685,-0.9124],[39.8691,-0.9243],[39.8761,-0.928],[39.8854,-0.942],[39.8852,-0.9459],[39.8785,-0.956],[39.8933,-0.9746],[39.898,-0.9881],[39.8977,-0.9917],[39.8912,-1.0015],[39.9019,-1.0124],[39.9024,-1.0252],[39.9146,-1.0378],[39.9149,-1.0502],[39.9231,-1.0595],[39.9196,-1.0688],[39.9224,-1.0744],[39.9315,-1.0845],[39.9287,-1.0922],[39.9386,-1.0989],[39.9438,-1.1088],[39.9433,-1.113],[39.9357,-1.1206],[39.9357,-1.1294],[39.9596,-1.1449],[39.9727,-1.1748],[39.9853,-1.1917],[39.9857,-1.1999],[40.0064,-1.2175],[40.0028,-1.2309],[40.0191,-1.2642],[40.018,-1.2675],[40.0117,-1.2738],[40.0149,-1.282],[40.0066,-1.299],[40.0066,-1.3085],[40.0149,-1.3182],[40.0117,-1.3262],[40.0149,-1.3313],[40.0111,-1.351],[40.0229,-1.3671],[40.0232,-1.3843],[40.0398,-1.4179],[40.0399,-1.4502],[40.0441,-1.4562],[40.0409,-1.4637],[40.0482,-1.4729],[40.0417,-1.4842],[40.0511,-1.4905],[40.0602,-1.5041],[40.0606,-1.5075],[40.0576,-1.5137],[40.0607,-1.5179],[40.0607,-1.533],[40.0729,-1.5421],[40.0697,-1.555],[40.0771,-1.5628],[40.0772,-1.5659],[40.0751,-1.5688],[40.0812,-1.5753],[40.0816,-1.5835],[40.0854,-1.5874],[40.0891,-1.5851],[40.0927,-1.5863],[40.1143,-1.6165],[40.1149,-1.6294],[40.1191,-1.6353],[40.1159,-1.6429],[40.1232,-1.6512],[40.1225,-1.6546],[40.1168,-1.6604],[40.1232,-1.6687],[40.1154,-1.6854],[40.1191,-1.6934],[40.1159,-1.704],[40.1227,-1.7082],[40.1231,-1.7116],[40.1204,-1.7172],[40.1305,-1.7242],[40.1316,-1.7312],[40.1305,-1.7341],[40.1188,-1.7459],[40.1149,-1.7691],[40.1149,-1.7845],[40.1274,-1.815],[40.1258,-1.8181],[40.1149,-1.8253],[40.1149,-1.8302],[40.1182,-1.8367],[40.143,-1.8575],[40.1481,-1.8719],[40.1477,-1.875],[40.1408,-1.8854],[40.1482,-1.8975],[40.146,-1.9021],[40.1482,-1.9058],[40.1482,-1.9196],[40.143,-1.9258],[40.1468,-1.9279],[40.1482,-1.931],[40.1441,-1.9445],[40.1441,-1.9502],[40.1519,-1.9583],[40.1606,-1.98],[40.1568,-2.0014],[40.1815,-2.047],[40.1806,-2.0508],[40.1717,-2.0597],[40.1815,-2.0679],[40.1774,-2.082],[40.1774,-2.1049],[40.1818,-2.1124],[40.1802,-2.1164],[40.1748,-2.1166],[40.1688,-2.108],[40.1684,-2.0808],[40.1717,-2.0706],[40.1617,-2.0639],[40.1601,-2.0609],[40.1611,-2.0575],[40.1715,-2.0471],[40.1479,-2.0039],[40.1516,-1.9817],[40.1441,-1.963],[40.1352,-1.953],[40.1351,-1.9433],[40.1382,-1.9335],[40.1323,-1.9304],[40.1309,-1.9267],[40.1393,-1.9169],[40.1393,-1.9081],[40.1351,-1.9025],[40.138,-1.8973],[40.1309,-1.8854],[40.1388,-1.8722],[40.1357,-1.8631],[40.1114,-1.8428],[40.106,-1.8321],[40.1065,-1.8208],[40.1173,-1.8129],[40.106,-1.7863],[40.106,-1.768],[40.1104,-1.7421],[40.1225,-1.7295],[40.1109,-1.7213],[40.1102,-1.718],[40.1127,-1.7124],[40.1077,-1.7098],[40.106,-1.7069],[40.1097,-1.6941],[40.106,-1.6847],[40.1133,-1.6696],[40.106,-1.6613],[40.1067,-1.6579],[40.1124,-1.6521],[40.106,-1.6447],[40.1091,-1.6363],[40.106,-1.6321],[40.1059,-1.6202],[40.089,-1.5965],[40.0833,-1.5977],[40.0731,-1.5876],[40.0726,-1.579],[40.0645,-1.5701],[40.0665,-1.5646],[40.0602,-1.5571],[40.0634,-1.5456],[40.052,-1.5367],[40.0518,-1.5206],[40.0476,-1.5147],[40.0511,-1.5066],[40.0447,-1.497],[40.0311,-1.4867],[40.0315,-1.4833],[40.038,-1.4735],[40.031,-1.4651],[40.0341,-1.4571],[40.0309,-1.4525],[40.0309,-1.4198],[40.0146,-1.3871],[40.0143,-1.3703],[40.0018,-1.3525],[40.0055,-1.3327],[40.0018,-1.3267],[40.0049,-1.3196],[39.9978,-1.3117],[39.9976,-1.2975],[40.0054,-1.2813],[40.002,-1.2716],[40.0091,-1.2637],[39.9936,-1.2325],[39.9968,-1.2203],[39.9775,-1.2046],[39.9768,-1.1953],[39.9649,-1.1794],[39.9527,-1.1511],[39.9327,-1.139],[39.9271,-1.133],[39.927,-1.1174],[39.9341,-1.1095],[39.9319,-1.1052],[39.919,-1.0959],[39.9186,-1.0925],[39.9216,-1.0863],[39.915,-1.0795],[39.9104,-1.0704],[39.9133,-1.0613],[39.9063,-1.0538],[39.9059,-1.0415],[39.8942,-1.0296],[39.8934,-1.0165],[39.8811,-1.0034],[39.8815,-0.9999],[39.8888,-0.9889],[39.8856,-0.9793],[39.8686,-0.9575],[39.869,-0.9541],[39.8758,-0.9438],[39.8698,-0.9348],[39.8609,-0.9297],[39.8601,-0.9165],[39.8477,-0.903],[39.8522,-0.8917],[39.8559,-0.8877],[39.8559,-0.879],[39.8518,-0.8726],[39.8591,-0.8571],[39.8481,-0.8458],[39.8356,-0.8126],[39.823,-0.7957],[39.824,-0.7905],[39.8062,-0.7786],[39.8091,-0.7696],[39.8063,-0.7663],[39.8063,-0.7628],[39.8202,-0.7484],[39.8062,-0.737],[39.8097,-0.7233],[39.806,-0.7141],[39.8094,-0.7092],[39.8066,-0.7008],[39.7937,-0.6913],[39.7968,-0.6787],[39.7771,-0.6622],[39.7768,-0.6493],[39.7685,-0.636],[39.772,-0.6205],[39.7547,-0.6066],[39.7454,-0.6058],[39.7389,-0.5967],[39.7359,-0.5983],[39.7225,-0.5983],[39.7182,-0.5954],[39.708,-0.6021],[39.7034,-0.6014],[39.6949,-0.5889],[39.6855,-0.583],[39.6851,-0.5588],[39.6793,-0.5603],[39.6613,-0.5468],[39.6601,-0.5432],[39.6636,-0.5325],[39.6604,-0.5293],[39.6575,-0.5314],[39.6541,-0.5311],[39.6472,-0.5217],[39.642,-0.5229],[39.6358,-0.5171],[39.6352,-0.5136],[39.6384,-0.5039],[39.6276,-0.4963],[39.6226,-0.4818],[39.6298,-0.4658],[39.6061,-0.445],[39.6097,-0.4316],[39.6059,-0.4233],[39.6082,-0.4188],[39.6018,-0.4109],[39.6051,-0.4027],[39.5893,-0.3821],[39.5898,-0.3791],[39.5934,-0.3752],[39.5934,-0.3623],[39.5705,-0.3394],[39.5569,-0.3341],[39.5559,-0.3248],[39.5478,-0.3159],[39.5476,-0.304],[39.5429,-0.2992],[39.5356,-0.3024],[39.5286,-0.2996],[39.5216,-0.3097],[39.5188,-0.3108],[39.5156,-0.3095],[39.5101,-0.2943],[39.5131,-0.2889],[39.502,-0.2704],[39.5018,-0.2623],[39.4919,-0.2524],[39.4784,-0.2514],[39.4688,-0.2372],[39.4684,-0.2294],[39.4548,-0.2191],[39.4451,-0.2181],[39.4252,-0.1943],[39.3875,-0.1978],[39.363,-0.1696],[39.3477,-0.1733],[39.3376,-0.1686],[39.3167,-0.1441],[39.2865,-0.1441],[39.2775,-0.1483],[39.235,-0.1483],[39.2229,-0.1376],[39.2132,-0.1473],[39.2098,-0.1482],[39.1932,-0.1441],[39.1837,-0.1438],[39.1752,-0.1358],[39.167,-0.1354],[39.1549,-0.1274],[39.1295,-0.1271],[39.1205,-0.1149],[39.1163,-0.1142],[39.107,-0.105],[39.0988,-0.0927],[39.0821,-0.0801],[39.0665,-0.0531],[39.0356,-0.0608],[39.032,-0.0591],[39.026,-0.0502],[39.0116,-0.0606],[38.9991,-0.0573],[38.9956,-0.0604],[38.984,-0.0643],[38.972,-0.0802],[38.9446,-0.1024],[38.9254,-0.1021],[38.9172,-0.0912],[38.8945,-0.1024],[38.8579,-0.0985],[38.8519,-0.1024],[38.8215,-0.098],[38.8127,-0.0899],[38.7923,-0.0897],[38.7724,-0.0779],[38.7597,-0.0816],[38.7422,-0.0772],[38.726,-0.0691],[38.7133,-0.0689],[38.6905,-0.0504],[38.6821,-0.0607],[38.6569,-0.0529],[38.6458,-0.0603],[38.6424,-0.0606],[38.6134,-0.0362],[38.5972,-0.0399],[38.5877,-0.0316],[38.5803,-0.0314],[38.5775,-0.0288],[38.5775,-0.0254],[38.5799,-0.0229],[38.5913,-0.0229]]]}},{"type":"Feature","properties":{"stage_m":4.0,"width_km":0.9,"area_km2":681.1,"level":"Alert"},"geometry":{"type":"Polygon","coordinates":[[[39.2198,-0.1237],[39.2274,-0.1245],[39.2388,-0.1356],[39.2752,-0.1356],[39.2854,-0.1314],[39.3218,-0.132],[39.3447,-0.158],[39.3489,-0.1601],[39.3634,-0.1565],[39.3689,-0.1577],[39.3929,-0.1852],[39.4262,-0.1815],[39.4308,-0.1824],[39.4517,-0.2064],[39.4598,-0.2073],[39.4784,-0.2211],[39.4808,-0.2254],[39.481,-0.2329],[39.4856,-0.2398],[39.4975,-0.2407],[39.513,-0.2559],[39.5143,-0.2665],[39.5259,-0.2857],[39.5354,-0.2888],[39.5431,-0.2856],[39.5489,-0.2875],[39.5592,-0.2982],[39.5602,-0.3112],[39.5675,-0.3191],[39.5685,-0.3254],[39.5781,-0.3291],[39.6046,-0.3559],[39.606,-0.3596],[39.606,-0.3771],[39.6045,-0.3818],[39.6176,-0.3983],[39.6184,-0.4035],[39.6161,-0.4088],[39.6225,-0.4172],[39.6203,-0.4245],[39.6226,-0.4323],[39.6199,-0.441],[39.6411,-0.4588],[39.6433,-0.4629],[39.643,-0.4675],[39.6358,-0.4819],[39.638,-0.4885],[39.65,-0.4969],[39.6518,-0.5014],[39.6507,-0.5069],[39.658,-0.5151],[39.6649,-0.5161],[39.6755,-0.5267],[39.6768,-0.5322],[39.6741,-0.5407],[39.6806,-0.5456],[39.6846,-0.544],[39.6892,-0.5449],[39.6963,-0.5517],[39.6976,-0.5554],[39.6977,-0.5762],[39.7036,-0.5796],[39.7085,-0.5867],[39.718,-0.5815],[39.7226,-0.5824],[39.7263,-0.5856],[39.7321,-0.5856],[39.738,-0.5816],[39.7427,-0.5821],[39.7522,-0.5939],[39.7607,-0.5953],[39.7845,-0.6154],[39.7851,-0.62],[39.7816,-0.6339],[39.789,-0.6455],[39.7893,-0.6565],[39.8092,-0.6732],[39.8101,-0.6781],[39.8076,-0.6862],[39.8171,-0.6933],[39.8225,-0.7086],[39.8203,-0.7162],[39.8226,-0.7239],[39.8199,-0.7324],[39.8325,-0.7419],[39.8349,-0.7458],[39.8338,-0.7525],[39.8217,-0.7648],[39.8226,-0.7694],[39.821,-0.774],[39.8381,-0.7853],[39.8393,-0.7898],[39.8377,-0.7944],[39.8468,-0.8068],[39.859,-0.8392],[39.8723,-0.8538],[39.8721,-0.8592],[39.8661,-0.8713],[39.8685,-0.8763],[39.8683,-0.8912],[39.8619,-0.9005],[39.8717,-0.9107],[39.8727,-0.922],[39.8791,-0.926],[39.8887,-0.9406],[39.8887,-0.9469],[39.883,-0.9558],[39.8967,-0.9732],[39.9014,-0.987],[39.9012,-0.9927],[39.8959,-1.001],[39.9054,-1.0115],[39.906,-1.0237],[39.9179,-1.0365],[39.9185,-1.0487],[39.9267,-1.0587],[39.9236,-1.0687],[39.9348,-1.083],[39.9334,-1.091],[39.9417,-1.097],[39.9471,-1.1075],[39.947,-1.1136],[39.9393,-1.1221],[39.9393,-1.1279],[39.9623,-1.1425],[39.9758,-1.173],[39.9885,-1.1901],[39.9893,-1.1982],[40.0077,-1.2129],[40.0098,-1.2164],[40.0067,-1.2306],[40.0226,-1.2639],[40.0213,-1.2692],[40.0161,-1.2745],[40.0182,-1.2833],[40.0102,-1.2998],[40.0102,-1.307],[40.0166,-1.3136],[40.0185,-1.3178],[40.0161,-1.3255],[40.0185,-1.3321],[40.0149,-1.3501],[40.0263,-1.3658],[40.0268,-1.3835],[40.0432,-1.4165],[40.0435,-1.4487],[40.0477,-1.4561],[40.0453,-1.463],[40.0505,-1.4684],[40.0518,-1.4721],[40.0512,-1.476],[40.0467,-1.4832],[40.0542,-1.4886],[40.0637,-1.5031],[40.0642,-1.5077],[40.0619,-1.513],[40.0643,-1.5179],[40.0643,-1.531],[40.0763,-1.5407],[40.0766,-1.5455],[40.0739,-1.554],[40.0804,-1.5615],[40.08,-1.5685],[40.0846,-1.574],[40.0852,-1.582],[40.091,-1.5816],[40.0957,-1.5842],[40.1183,-1.6171],[40.1185,-1.6279],[40.1226,-1.6345],[40.1203,-1.6421],[40.1255,-1.6475],[40.1268,-1.6521],[40.1259,-1.6559],[40.1219,-1.6604],[40.1259,-1.6649],[40.1268,-1.6694],[40.1195,-1.6854],[40.1227,-1.6932],[40.1203,-1.7021],[40.1264,-1.7078],[40.125,-1.716],[40.1328,-1.7213],[40.1352,-1.7271],[40.1338,-1.7358],[40.1221,-1.7477],[40.1185,-1.7694],[40.1185,-1.7837],[40.1303,-1.8114],[40.1309,-1.8161],[40.128,-1.8209],[40.1185,-1.8273],[40.1185,-1.8293],[40.121,-1.8344],[40.1458,-1.8552],[40.1516,-1.8711],[40.1512,-1.876],[40.1452,-1.8854],[40.1518,-1.8979],[40.1507,-1.9021],[40.1518,-1.9196],[40.149,-1.925],[40.1518,-1.9316],[40.1477,-1.9487],[40.1551,-1.9566],[40.164,-1.979],[40.1606,-2.0008],[40.185,-2.0463],[40.1842,-2.0518],[40.1773,-2.0591],[40.1834,-2.0636],[40.1851,-2.0681],[40.181,-2.0826],[40.181,-2.1038],[40.1854,-2.1136],[40.1812,-2.12],[40.1773,-2.121],[40.1728,-2.1196],[40.1652,-2.1086],[40.1649,-2.0804],[40.1674,-2.0721],[40.1589,-2.0662],[40.1565,-2.0604],[40.1583,-2.0552],[40.1671,-2.0465],[40.1446,-2.0053],[40.144,-2.0013],[40.1478,-1.982],[40.141,-1.965],[40.1316,-1.9537],[40.1315,-1.9429],[40.1338,-1.9354],[40.1288,-1.9317],[40.1274,-1.9264],[40.1292,-1.9219],[40.1357,-1.9154],[40.1357,-1.9096],[40.1316,-1.9037],[40.1333,-1.8969],[40.1273,-1.8854],[40.1348,-1.8717],[40.1326,-1.8652],[40.1083,-1.8447],[40.1025,-1.8328],[40.1033,-1.8191],[40.1128,-1.8116],[40.1025,-1.7871],[40.1024,-1.7674],[40.1071,-1.7408],[40.1168,-1.73],[40.1079,-1.7233],[40.1065,-1.7189],[40.1079,-1.7141],[40.1044,-1.7117],[40.1024,-1.7075],[40.1058,-1.6944],[40.1024,-1.6842],[40.1089,-1.6704],[40.1037,-1.665],[40.1024,-1.6612],[40.1033,-1.6566],[40.1073,-1.6521],[40.1024,-1.6447],[40.1047,-1.637],[40.1025,-1.6328],[40.1023,-1.6214],[40.0881,-1.6014],[40.0809,-1.6005],[40.07,-1.5893],[40.069,-1.5805],[40.0616,-1.5726],[40.0617,-1.5648],[40.0568,-1.5585],[40.0591,-1.5471],[40.0511,-1.5417],[40.0485,-1.5378],[40.0482,-1.5221],[40.044,-1.5147],[40.0469,-1.5068],[40.0421,-1.4996],[40.0303,-1.4917],[40.0277,-1.4878],[40.0279,-1.4823],[40.0333,-1.474],[40.0274,-1.4655],[40.0297,-1.4579],[40.0274,-1.4529],[40.0273,-1.4207],[40.0112,-1.3884],[40.0107,-1.3715],[39.9983,-1.3535],[40.0016,-1.3339],[39.9982,-1.328],[40.0006,-1.3204],[39.9942,-1.312],[39.994,-1.2972],[40.0014,-1.2812],[39.9985,-1.2751],[39.9985,-1.2705],[40.0047,-1.263],[39.9901,-1.2334],[39.9926,-1.2216],[39.9746,-1.2067],[39.9732,-1.1965],[39.9618,-1.1812],[39.9499,-1.1536],[39.9305,-1.1418],[39.9238,-1.1344],[39.9233,-1.1172],[39.9297,-1.1088],[39.9158,-1.0977],[39.915,-1.0923],[39.9172,-1.087],[39.912,-1.0815],[39.907,-1.0716],[39.9066,-1.0675],[39.9089,-1.062],[39.9027,-1.0545],[39.9023,-1.043],[39.8912,-1.0316],[39.8898,-1.018],[39.8777,-1.0045],[39.8779,-0.999],[39.8848,-0.9884],[39.8824,-0.9811],[39.8652,-0.9586],[39.8655,-0.9531],[39.8715,-0.9438],[39.8674,-0.9376],[39.8579,-0.9317],[39.8565,-0.918],[39.8442,-0.9038],[39.8449,-0.8984],[39.8523,-0.8862],[39.8523,-0.8805],[39.8491,-0.8768],[39.8482,-0.8723],[39.8547,-0.8579],[39.8449,-0.8474],[39.8324,-0.8144],[39.8202,-0.798],[39.8192,-0.7918],[39.8056,-0.7836],[39.8028,-0.7797],[39.8024,-0.7757],[39.8047,-0.7704],[39.8025,-0.7662],[39.8029,-0.7615],[39.8147,-0.7488],[39.8028,-0.7382],[39.8025,-0.7336],[39.8058,-0.7235],[39.8024,-0.7137],[39.8053,-0.7082],[39.8036,-0.7032],[39.7904,-0.6926],[39.79,-0.6878],[39.7926,-0.6799],[39.7738,-0.6636],[39.7732,-0.6504],[39.7649,-0.6364],[39.768,-0.6219],[39.7534,-0.6102],[39.7434,-0.6089],[39.7378,-0.6015],[39.7221,-0.6019],[39.7178,-0.6],[39.7086,-0.6057],[39.7011,-0.6042],[39.6924,-0.5917],[39.6825,-0.5852],[39.6815,-0.5644],[39.6764,-0.5628],[39.6577,-0.548],[39.6566,-0.5427],[39.6591,-0.5347],[39.6524,-0.5343],[39.6461,-0.5265],[39.64,-0.5259],[39.6328,-0.5191],[39.6316,-0.5136],[39.6341,-0.5054],[39.6246,-0.4984],[39.6191,-0.4823],[39.6253,-0.4667],[39.6053,-0.45],[39.6026,-0.446],[39.6058,-0.4319],[39.6025,-0.4243],[39.6033,-0.419],[39.5983,-0.4121],[39.6009,-0.4031],[39.5858,-0.3828],[39.5863,-0.3781],[39.5898,-0.3737],[39.5898,-0.3638],[39.5686,-0.3425],[39.5541,-0.3363],[39.5523,-0.3263],[39.5446,-0.3177],[39.544,-0.3055],[39.5422,-0.3036],[39.5358,-0.306],[39.5298,-0.3042],[39.525,-0.3114],[39.5212,-0.314],[39.5173,-0.3143],[39.5132,-0.3121],[39.5067,-0.2955],[39.5086,-0.2883],[39.4987,-0.2716],[39.4982,-0.2638],[39.4904,-0.2561],[39.4805,-0.256],[39.4761,-0.2542],[39.4658,-0.2393],[39.4648,-0.2312],[39.4536,-0.2227],[39.4428,-0.2209],[39.4237,-0.1982],[39.3905,-0.2018],[39.3859,-0.201],[39.3617,-0.1737],[39.3474,-0.1769],[39.336,-0.1719],[39.315,-0.1477],[39.2873,-0.1477],[39.2778,-0.1519],[39.2346,-0.1519],[39.2303,-0.1501],[39.2229,-0.1427],[39.2148,-0.1506],[39.2093,-0.1518],[39.1928,-0.1477],[39.1823,-0.1471],[39.1737,-0.1394],[39.1657,-0.1388],[39.1538,-0.1311],[39.1282,-0.1304],[39.1186,-0.1186],[39.1136,-0.1167],[39.1047,-0.1079],[39.0961,-0.0953],[39.0794,-0.0825],[39.0648,-0.0573],[39.0357,-0.0644],[39.0304,-0.0626],[39.0251,-0.0554],[39.0125,-0.0641],[39.0001,-0.0614],[38.9862,-0.0673],[38.9746,-0.0827],[38.9453,-0.1059],[38.9247,-0.1057],[38.9208,-0.1031],[38.916,-0.0959],[38.8952,-0.1059],[38.8592,-0.1023],[38.8518,-0.1061],[38.8203,-0.1015],[38.8112,-0.0936],[38.7912,-0.0931],[38.772,-0.0818],[38.7592,-0.0851],[38.741,-0.0806],[38.7252,-0.0727],[38.7122,-0.0724],[38.6913,-0.0558],[38.6869,-0.062],[38.6827,-0.0643],[38.6574,-0.0569],[38.6468,-0.0638],[38.6413,-0.064],[38.6125,-0.0402],[38.5991,-0.0435],[38.595,-0.043],[38.5862,-0.0352],[38.5765,-0.0334],[38.5739,-0.0294],[38.5737,-0.0255],[38.5765,-0.0208],[38.5816,-0.0189],[38.5927,-0.0196],[38.6004,-0.0264],[38.6172,-0.0235],[38.6444,-0.0461],[38.6564,-0.0398],[38.678,-0.0466],[38.6845,-0.0374],[38.6912,-0.0358],[38.7175,-0.0564],[38.7293,-0.0568],[38.7466,-0.0652],[38.7601,-0.0686],[38.7749,-0.065],[38.796,-0.0773],[38.8162,-0.0774],[38.8267,-0.0861],[38.8492,-0.0893],[38.8563,-0.0856],[38.8923,-0.0896],[38.9189,-0.0773],[38.9245,-0.0797],[38.9314,-0.0898],[38.9408,-0.0898],[38.9629,-0.0714],[38.9759,-0.0543],[38.9894,-0.0491],[38.9949,-0.0445],[38.9997,-0.0441],[39.009,-0.0472],[39.0265,-0.0356],[39.0323,-0.0375],[39.039,-0.047],[39.07,-0.0399],[39.0753,-0.0432],[39.0916,-0.0716],[39.1076,-0.0836],[39.1167,-0.0969],[39.1221,-0.1023],[39.1286,-0.1046],[39.1356,-0.1148],[39.1586,-0.1151],[39.1712,-0.1231],[39.1809,-0.1241],[39.1888,-0.1314],[39.2079,-0.1347],[39.2198,-0.1237]]]}},{"type":"Feature","properties":{"stage_m":4.5,"width_km":1.4,"area_km2":971.6,"level":"Alert"},"geometry":{"type":"Polygon","coordinates":[[[39.1352,-0.1094],[39.1443,-0.1121],[39.1522,-0.1121],[39.152,-0.1103],[39.1599,-0.1108],[39.1725,-0.1186],[39.183,-0.1201],[39.1906,-0.1269],[39.2054,-0.1295],[39.2071,-0.1317],[39.2076,-0.1287],[39.215,-0.1214],[39.2229,-0.1186],[39.2309,-0.1214],[39.2377,-0.1282],[39.2374,-0.1304],[39.2399,-0.1329],[39.2409,-0.1311],[39.2741,-0.1311],[39.2854,-0.1269],[39.2903,-0.1269],[39.2924,-0.1287],[39.3266,-0.1297],[39.3475,-0.1544],[39.3494,-0.1553],[39.3588,-0.153],[39.3591,-0.1548],[39.3634,-0.1533],[39.3712,-0.1538],[39.3948,-0.1804],[39.426,-0.177],[39.4362,-0.1836],[39.4385,-0.1836],[39.4538,-0.2019],[39.4628,-0.2038],[39.4823,-0.2187],[39.4852,-0.2245],[39.4855,-0.2316],[39.488,-0.2353],[39.4997,-0.2367],[39.5151,-0.2514],[39.5183,-0.2567],[39.5188,-0.2652],[39.5284,-0.2812],[39.5354,-0.2838],[39.5452,-0.2812],[39.5526,-0.2848],[39.5614,-0.2936],[39.5629,-0.3057],[39.5647,-0.3052],[39.5647,-0.3093],[39.5709,-0.3159],[39.573,-0.3221],[39.5809,-0.3256],[39.6018,-0.3465],[39.6019,-0.349],[39.6085,-0.3536],[39.6105,-0.3604],[39.6098,-0.3811],[39.6215,-0.3962],[39.623,-0.402],[39.6216,-0.4079],[39.6269,-0.4163],[39.6255,-0.425],[39.6271,-0.4328],[39.6251,-0.4395],[39.6443,-0.4556],[39.6477,-0.462],[39.6471,-0.4692],[39.6407,-0.4822],[39.6418,-0.4856],[39.6535,-0.4941],[39.6561,-0.4998],[39.656,-0.5049],[39.6602,-0.5103],[39.6674,-0.5124],[39.6792,-0.5242],[39.6813,-0.5315],[39.6794,-0.5391],[39.6913,-0.5409],[39.7,-0.5492],[39.7021,-0.555],[39.7022,-0.5734],[39.7097,-0.5804],[39.7175,-0.577],[39.7236,-0.5779],[39.7281,-0.5811],[39.7371,-0.5772],[39.7444,-0.5779],[39.7493,-0.5815],[39.7546,-0.5894],[39.7633,-0.5916],[39.788,-0.6125],[39.7896,-0.6195],[39.7865,-0.633],[39.7881,-0.6387],[39.7933,-0.6442],[39.7938,-0.6543],[39.8132,-0.6711],[39.8147,-0.6773],[39.8129,-0.6844],[39.8214,-0.6917],[39.8269,-0.7076],[39.8255,-0.7166],[39.8272,-0.7233],[39.8252,-0.7307],[39.8345,-0.7377],[39.8375,-0.7451],[39.8363,-0.7535],[39.8384,-0.7535],[39.8269,-0.766],[39.8267,-0.7721],[39.842,-0.7829],[39.8438,-0.7886],[39.843,-0.794],[39.8514,-0.8059],[39.8613,-0.8377],[39.8662,-0.8408],[39.8749,-0.853],[39.875,-0.8592],[39.8693,-0.8709],[39.8728,-0.8746],[39.8728,-0.8921],[39.8679,-0.9],[39.8757,-0.9086],[39.8772,-0.9192],[39.8826,-0.9231],[39.8929,-0.9389],[39.8933,-0.9474],[39.8885,-0.9556],[39.9018,-0.9741],[39.9011,-0.9776],[39.9051,-0.9932],[39.9016,-1.0005],[39.9086,-1.0079],[39.9104,-1.0133],[39.9105,-1.0218],[39.9199,-1.0344],[39.9234,-1.0497],[39.9287,-1.0562],[39.9311,-1.0628],[39.9287,-1.0687],[39.9367,-1.0777],[39.939,-1.0893],[39.946,-1.0952],[39.947,-1.101],[39.952,-1.1081],[39.9506,-1.1165],[39.942,-1.1267],[39.9452,-1.1287],[39.9464,-1.1273],[39.9609,-1.136],[39.9605,-1.1372],[39.9641,-1.1397],[39.9714,-1.1514],[39.9797,-1.1707],[39.9925,-1.1881],[39.9938,-1.196],[40.0109,-1.2097],[40.0141,-1.2152],[40.0144,-1.2215],[40.0115,-1.2303],[40.0271,-1.2636],[40.0262,-1.2695],[40.0216,-1.2754],[40.023,-1.2806],[40.0222,-1.2857],[40.0147,-1.3009],[40.0147,-1.3051],[40.0208,-1.3116],[40.0229,-1.3173],[40.0214,-1.325],[40.0229,-1.3325],[40.0197,-1.349],[40.0305,-1.3642],[40.0313,-1.3824],[40.0475,-1.4153],[40.048,-1.4468],[40.0519,-1.4536],[40.0508,-1.4621],[40.0548,-1.4669],[40.0563,-1.4717],[40.0529,-1.4819],[40.0576,-1.4857],[40.0678,-1.5013],[40.0688,-1.5286],[40.0767,-1.5339],[40.0804,-1.539],[40.0812,-1.5453],[40.079,-1.5528],[40.0845,-1.5597],[40.0852,-1.5673],[40.0887,-1.5722],[40.0897,-1.5769],[40.0952,-1.5783],[40.099,-1.5812],[40.1227,-1.6161],[40.123,-1.626],[40.1271,-1.634],[40.1258,-1.6412],[40.1312,-1.6504],[40.1282,-1.6604],[40.1307,-1.6649],[40.1311,-1.671],[40.1245,-1.6854],[40.1271,-1.6928],[40.1258,-1.6999],[40.1307,-1.7064],[40.1307,-1.7143],[40.1375,-1.72],[40.1397,-1.7271],[40.1382,-1.7372],[40.1263,-1.7499],[40.123,-1.7698],[40.123,-1.7828],[40.1355,-1.8145],[40.1326,-1.8226],[40.1236,-1.8293],[40.1442,-1.8479],[40.1443,-1.8502],[40.1495,-1.856],[40.154,-1.8695],[40.1544,-1.8749],[40.1506,-1.8822],[40.1519,-1.8835],[40.1506,-1.8854],[40.1551,-1.8925],[40.1537,-1.9021],[40.1563,-1.9093],[40.1563,-1.9163],[40.1544,-1.9203],[40.1562,-1.9205],[40.1547,-1.925],[40.1563,-1.9317],[40.1522,-1.9468],[40.1591,-1.9545],[40.1683,-1.9777],[40.1688,-1.9825],[40.1658,-1.9883],[40.1676,-1.9889],[40.1653,-2.0],[40.1894,-2.0453],[40.1887,-2.0527],[40.1844,-2.0585],[40.1875,-2.0617],[40.1879,-2.069],[40.1837,-2.083],[40.1837,-2.1029],[40.1873,-2.1087],[40.1881,-2.1139],[40.1863,-2.1189],[40.1824,-2.1224],[40.1763,-2.1237],[40.1713,-2.1219],[40.1626,-2.1094],[40.1621,-2.0812],[40.1642,-2.0732],[40.1563,-2.0673],[40.1538,-2.0604],[40.1556,-2.0544],[40.1637,-2.046],[40.1549,-2.0335],[40.1547,-2.0294],[40.1422,-2.0063],[40.1413,-2.001],[40.145,-1.9823],[40.1394,-1.9683],[40.1339,-1.9643],[40.129,-1.9542],[40.1289,-1.9426],[40.1305,-1.9368],[40.126,-1.9324],[40.1247,-1.9261],[40.1264,-1.9211],[40.133,-1.9142],[40.133,-1.9108],[40.1293,-1.9052],[40.1301,-1.8969],[40.1246,-1.8854],[40.1259,-1.8803],[40.1318,-1.8713],[40.1306,-1.8677],[40.1217,-1.8619],[40.1204,-1.8585],[40.1061,-1.8463],[40.0998,-1.8333],[40.1005,-1.8187],[40.1089,-1.8093],[40.0999,-1.7876],[40.0997,-1.7678],[40.1045,-1.7398],[40.1124,-1.7303],[40.1051,-1.724],[40.1044,-1.7152],[40.0998,-1.7079],[40.1029,-1.6946],[40.0998,-1.6837],[40.1054,-1.6707],[40.1015,-1.6665],[40.0997,-1.6615],[40.1005,-1.6562],[40.1034,-1.6521],[40.0997,-1.645],[40.1015,-1.6374],[40.0997,-1.6323],[40.0996,-1.6222],[40.0875,-1.6066],[40.0786,-1.6022],[40.0676,-1.5906],[40.0663,-1.5816],[40.0592,-1.5739],[40.0585,-1.5655],[40.0542,-1.5593],[40.0559,-1.5482],[40.0486,-1.5431],[40.0459,-1.5386],[40.0455,-1.5233],[40.0414,-1.5158],[40.0434,-1.5073],[40.0399,-1.5014],[40.0286,-1.4938],[40.0251,-1.4886],[40.0251,-1.4823],[40.0298,-1.4743],[40.0247,-1.4658],[40.0265,-1.4582],[40.0247,-1.4532],[40.0246,-1.4261],[40.0226,-1.4172],[40.0084,-1.3884],[40.008,-1.3724],[39.9956,-1.354],[39.9987,-1.3348],[39.9957,-1.3293],[39.9962,-1.3198],[39.9915,-1.3125],[39.9913,-1.2969],[39.9983,-1.2812],[39.9956,-1.2748],[39.996,-1.2696],[40.0014,-1.2624],[39.9875,-1.2341],[39.9895,-1.2225],[39.9723,-1.2082],[39.9705,-1.1974],[39.9594,-1.1825],[39.9477,-1.1554],[39.9288,-1.144],[39.9213,-1.1354],[39.9207,-1.1166],[39.9259,-1.1088],[39.9135,-1.099],[39.9122,-1.0929],[39.9139,-1.0876],[39.9097,-1.083],[39.9042,-1.0715],[39.9056,-1.0626],[39.9005,-1.0563],[39.8996,-1.0485],[39.8969,-1.0427],[39.888,-1.0313],[39.884,-1.0159],[39.8751,-1.0052],[39.8755,-0.9979],[39.8818,-0.988],[39.88,-0.9824],[39.8626,-0.9593],[39.863,-0.9521],[39.8683,-0.9438],[39.8656,-0.9397],[39.8557,-0.9333],[39.8539,-0.9282],[39.8538,-0.9191],[39.8438,-0.909],[39.8415,-0.9043],[39.842,-0.8982],[39.8496,-0.8851],[39.8455,-0.872],[39.851,-0.8579],[39.8425,-0.8486],[39.83,-0.8157],[39.8179,-0.7994],[39.8163,-0.7933],[39.804,-0.7858],[39.8002,-0.7806],[39.7998,-0.7753],[39.8015,-0.7707],[39.8001,-0.7614],[39.8106,-0.7491],[39.8024,-0.7427],[39.7998,-0.7371],[39.8029,-0.7238],[39.7997,-0.7155],[39.8022,-0.7075],[39.7884,-0.6946],[39.7872,-0.6883],[39.7895,-0.6808],[39.7713,-0.6646],[39.7705,-0.6512],[39.7622,-0.6368],[39.7649,-0.6229],[39.7525,-0.6129],[39.7419,-0.6111],[39.7366,-0.6045],[39.7177,-0.6033],[39.7073,-0.6087],[39.6994,-0.6063],[39.6906,-0.5939],[39.6838,-0.5904],[39.6801,-0.5865],[39.6788,-0.5697],[39.677,-0.5662],[39.6566,-0.5511],[39.652,-0.5432],[39.6528,-0.5393],[39.6422,-0.53],[39.6345,-0.5274],[39.6291,-0.5216],[39.627,-0.5143],[39.6287,-0.5073],[39.6222,-0.5026],[39.6146,-0.4828],[39.6153,-0.4767],[39.6197,-0.4679],[39.6015,-0.4526],[39.5983,-0.4472],[39.5981,-0.4409],[39.601,-0.4322],[39.5983,-0.4263],[39.5981,-0.4202],[39.5939,-0.4131],[39.5955,-0.4037],[39.5832,-0.3882],[39.5814,-0.3836],[39.5817,-0.3775],[39.5853,-0.3718],[39.5853,-0.3657],[39.5728,-0.3531],[39.5733,-0.3511],[39.5671,-0.3449],[39.5561,-0.3412],[39.552,-0.338],[39.5498,-0.3333],[39.5496,-0.3274],[39.5418,-0.3177],[39.5413,-0.3071],[39.536,-0.3088],[39.5308,-0.3077],[39.5264,-0.3139],[39.5209,-0.3169],[39.5158,-0.3167],[39.5113,-0.3141],[39.5041,-0.2961],[39.5053,-0.2882],[39.4966,-0.2735],[39.4942,-0.2636],[39.4893,-0.2588],[39.4792,-0.2586],[39.4744,-0.2563],[39.4634,-0.2406],[39.4621,-0.2325],[39.4527,-0.2254],[39.4458,-0.2252],[39.4411,-0.223],[39.4225,-0.201],[39.3908,-0.2045],[39.3847,-0.2034],[39.3607,-0.1767],[39.3473,-0.1796],[39.3348,-0.1743],[39.3137,-0.1504],[39.2879,-0.1504],[39.2781,-0.1546],[39.2354,-0.1546],[39.2294,-0.1528],[39.2229,-0.1466],[39.2153,-0.1534],[39.2089,-0.1545],[39.1924,-0.1504],[39.1813,-0.1496],[39.1726,-0.1421],[39.1647,-0.1413],[39.153,-0.1338],[39.1271,-0.133],[39.1229,-0.1298],[39.1171,-0.1211],[39.1119,-0.1188],[39.1028,-0.1098],[39.0942,-0.0972],[39.0774,-0.0843],[39.0635,-0.0604],[39.0347,-0.0671],[39.0287,-0.0647],[39.0244,-0.0593],[39.0132,-0.0668],[39.0008,-0.0645],[38.9878,-0.0697],[38.9756,-0.0854],[38.9506,-0.1063],[38.9459,-0.1086],[38.924,-0.1083],[38.9195,-0.1056],[38.9151,-0.0994],[38.8956,-0.1086],[38.8602,-0.1051],[38.8517,-0.1088],[38.8204,-0.1043],[38.8111,-0.0972],[38.8071,-0.0963],[38.7903,-0.0957],[38.7716,-0.0848],[38.7588,-0.0878],[38.74,-0.0831],[38.7246,-0.0754],[38.7114,-0.075],[38.6919,-0.0598],[38.688,-0.0647],[38.6832,-0.0669],[38.6578,-0.0599],[38.6478,-0.0663],[38.6405,-0.0666],[38.6118,-0.0431],[38.5961,-0.0461],[38.5911,-0.0439],[38.5851,-0.0379],[38.5766,-0.0367],[38.5721,-0.0322],[38.5709,-0.026],[38.574,-0.0194],[38.5806,-0.0163],[38.5927,-0.0167],[38.6012,-0.0234],[38.6171,-0.0207],[38.6446,-0.0427],[38.6512,-0.0383],[38.6564,-0.0371],[38.6769,-0.0434],[38.6836,-0.0347],[38.6917,-0.0331],[38.6965,-0.0354],[38.7185,-0.0537],[38.73,-0.0541],[38.7521,-0.0638],[38.7756,-0.0624],[38.7967,-0.0746],[38.8167,-0.0748],[38.8269,-0.0824],[38.8483,-0.0864],[38.8564,-0.0829],[38.8918,-0.0868],[38.9067,-0.0793],[38.9025,-0.0794],[38.9134,-0.074],[38.9114,-0.077],[38.9169,-0.0747],[38.922,-0.0751],[38.9264,-0.0778],[38.9328,-0.0871],[38.9399,-0.0871],[38.9411,-0.086],[38.9387,-0.0853],[38.9611,-0.0663],[38.9612,-0.0691],[38.9729,-0.0509],[38.9883,-0.0438],[38.9896,-0.0451],[38.9981,-0.0412],[39.0085,-0.0442],[39.0215,-0.0345],[39.0263,-0.0329],[39.034,-0.0354],[39.0402,-0.0439],[39.0704,-0.0372],[39.0775,-0.0416],[39.0937,-0.0697],[39.0962,-0.0717],[39.097,-0.07],[39.1107,-0.0803],[39.1202,-0.094],[39.1326,-0.1024],[39.1366,-0.1082],[39.1331,-0.1062],[39.1352,-0.1094]]]}},{"type":"Feature","properties":{"stage_m":5.0,"width_km":2.0,"area_km2":1137.7,"level":"Alarm"},"geometry":{"type":"MultiPolygon","coordinates":[[[[38.8956,-0.1086],[38.8597,-0.1056],[38.8517,-0.1088],[38.8214,-0.1045],[38.8124,-0.0985],[38.8043,-0.0963],[38.7903,-0.0957],[38.7716,-0.0848],[38.7598,-0.0879],[38.7412,-0.0835],[38.7246,-0.0754],[38.7095,-0.0741],[38.6919,-0.0598],[38.688,-0.0647],[38.6832,-0.0669],[38.6578,-0.0599],[38.6478,-0.0663],[38.6405,-0.0666],[38.6118,-0.0431],[38.5961,-0.0461],[38.5911,-0.0439],[38.5851,-0.0379],[38.5757,-0.0361],[38.5717,-0.0312],[38.5713,-0.0239],[38.5748,-0.0187],[38.5806,-0.0163],[38.5927,-0.0167],[38.6012,-0.0234],[38.6171,-0.0207],[38.6446,-0.0427],[38.6512,-0.0383],[38.6564,-0.0371],[38.6769,-0.0434],[38.6836,-0.0347],[38.6917,-0.0331],[38.6965,-0.0354],[38.7185,-0.0537],[38.73,-0.0541],[38.7505,-0.0634],[38.7569,-0.0609],[38.7756,-0.0624],[38.7967,-0.0746],[38.8167,-0.0748],[38.8256,-0.0811],[38.831,-0.0816],[38.8353,-0.0845],[38.8483,-0.0864],[38.8564,-0.0829],[38.8918,-0.0868],[38.9038,-0.0808],[38.8966,-0.0805],[38.8923,-0.0784],[38.9153,-0.0677],[38.9141,-0.0756],[38.923,-0.0754],[38.9271,-0.0785],[38.9328,-0.0871],[38.9396,-0.0871],[38.9337,-0.0821],[38.9327,-0.074],[38.9373,-0.0798],[38.9591,-0.0599],[38.9625,-0.0673],[38.9665,-0.0621],[38.9669,-0.0495],[38.9723,-0.0447],[38.9841,-0.0404],[38.9873,-0.0375],[38.9906,-0.0442],[38.9981,-0.0412],[39.0085,-0.0442],[39.0215,-0.0345],[39.0263,-0.0329],[39.034,-0.0354],[39.0402,-0.0439],[39.0704,-0.0372],[39.0775,-0.0416],[39.0937,-0.0697],[39.0951,-0.0708],[39.0996,-0.0652],[39.1144,-0.0764],[39.1243,-0.0905],[39.1343,-0.0964],[39.1408,-0.1048],[39.1631,-0.1062],[39.1742,-0.1132],[39.1855,-0.1153],[39.1928,-0.1215],[39.2037,-0.1234],[39.202,-0.1255],[39.2063,-0.1284],[39.2088,-0.1243],[39.2129,-0.122],[39.2166,-0.1143],[39.2229,-0.1132],[39.2314,-0.1153],[39.239,-0.1219],[39.2395,-0.1325],[39.242,-0.1249],[39.2729,-0.1257],[39.2838,-0.1216],[39.2888,-0.1234],[39.2943,-0.1287],[39.3314,-0.1294],[39.3356,-0.1334],[39.3368,-0.1389],[39.3445,-0.1452],[39.3469,-0.1452],[39.3505,-0.1495],[39.3572,-0.1478],[39.3601,-0.1527],[39.3774,-0.1519],[39.397,-0.1747],[39.4064,-0.1737],[39.4129,-0.1769],[39.4265,-0.1757],[39.4355,-0.1822],[39.4435,-0.1838],[39.4563,-0.1965],[39.4642,-0.1983],[39.4745,-0.2057],[39.4751,-0.2097],[39.4868,-0.2202],[39.4909,-0.2298],[39.4966,-0.2305],[39.503,-0.2362],[39.5078,-0.2364],[39.5189,-0.2476],[39.5223,-0.2522],[39.5209,-0.2613],[39.522,-0.264],[39.5242,-0.2633],[39.5318,-0.2763],[39.5354,-0.2777],[39.5458,-0.2758],[39.5524,-0.2779],[39.5526,-0.2834],[39.5582,-0.285],[39.5621,-0.2898],[39.5629,-0.3042],[39.5701,-0.3036],[39.5701,-0.3071],[39.5777,-0.3179],[39.5844,-0.3215],[39.5965,-0.3335],[39.5965,-0.3365],[39.6019,-0.3424],[39.6032,-0.348],[39.6153,-0.3558],[39.6157,-0.3798],[39.6263,-0.3936],[39.6283,-0.4002],[39.6278,-0.4065],[39.6322,-0.4152],[39.6314,-0.4377],[39.6481,-0.4517],[39.6483,-0.4583],[39.6533,-0.4657],[39.6467,-0.4823],[39.6588,-0.4921],[39.6632,-0.5051],[39.6718,-0.5089],[39.6826,-0.5198],[39.686,-0.5262],[39.6865,-0.534],[39.6954,-0.537],[39.7045,-0.5462],[39.7075,-0.5545],[39.7076,-0.5701],[39.7112,-0.5732],[39.7205,-0.5716],[39.7292,-0.5749],[39.7361,-0.5718],[39.7436,-0.572],[39.7448,-0.5758],[39.7548,-0.5815],[39.7612,-0.5903],[39.7702,-0.5916],[39.7745,-0.5947],[39.778,-0.6004],[39.7833,-0.6015],[39.7871,-0.605],[39.7912,-0.6154],[39.792,-0.6231],[39.7891,-0.6402],[39.7989,-0.6448],[39.7992,-0.6517],[39.817,-0.667],[39.8197,-0.6737],[39.8193,-0.6821],[39.8261,-0.689],[39.8316,-0.7047],[39.8316,-0.7287],[39.8399,-0.7352],[39.8359,-0.7378],[39.8378,-0.7471],[39.837,-0.7521],[39.8442,-0.7533],[39.8325,-0.7693],[39.8432,-0.7761],[39.8474,-0.7816],[39.8489,-0.7928],[39.8557,-0.8024],[39.8595,-0.8123],[39.8584,-0.8171],[39.8551,-0.8209],[39.8609,-0.8365],[39.8672,-0.8399],[39.8749,-0.853],[39.875,-0.8592],[39.8693,-0.8709],[39.878,-0.8735],[39.8783,-0.8914],[39.8753,-0.8998],[39.8808,-0.9068],[39.879,-0.914],[39.8825,-0.914],[39.8984,-0.9385],[39.8991,-0.9422],[39.896,-0.9454],[39.894,-0.9512],[39.8947,-0.9609],[39.9002,-0.9646],[39.903,-0.9698],[39.9017,-0.9794],[39.9065,-0.9928],[39.9048,-1.0002],[39.9149,-1.0162],[39.9168,-1.0307],[39.9199,-1.0344],[39.9247,-1.0489],[39.9284,-1.0531],[39.9321,-1.0617],[39.9346,-1.0733],[39.9388,-1.0791],[39.9391,-1.0859],[39.9471,-1.0934],[39.9479,-1.103],[39.9545,-1.1099],[39.9554,-1.1178],[39.9515,-1.124],[39.962,-1.1303],[39.9622,-1.1365],[39.969,-1.1441],[39.9713,-1.15],[39.9773,-1.1514],[39.9942,-1.1852],[39.998,-1.1871],[39.9992,-1.1933],[40.0079,-1.2003],[40.0079,-1.2061],[40.0108,-1.2074],[40.0138,-1.205],[40.0193,-1.2136],[40.0199,-1.2209],[40.0173,-1.2299],[40.0325,-1.2631],[40.0317,-1.27],[40.0278,-1.2768],[40.0278,-1.2859],[40.027,-1.2881],[40.0247,-1.2871],[40.027,-1.2883],[40.0201,-1.3022],[40.0262,-1.3101],[40.0283,-1.3167],[40.0283,-1.3331],[40.0255,-1.3477],[40.0355,-1.3622],[40.0367,-1.3811],[40.0527,-1.4138],[40.0534,-1.4447],[40.0572,-1.4525],[40.057,-1.4607],[40.0614,-1.4694],[40.0601,-1.4804],[40.0734,-1.5009],[40.0742,-1.5257],[40.0815,-1.531],[40.0854,-1.537],[40.0867,-1.5441],[40.0852,-1.5513],[40.0895,-1.5576],[40.0909,-1.5655],[40.0944,-1.5721],[40.1042,-1.579],[40.125,-1.6082],[40.128,-1.615],[40.1284,-1.6238],[40.1325,-1.6336],[40.132,-1.6399],[40.1349,-1.6443],[40.132,-1.6516],[40.1326,-1.6733],[40.1279,-1.6842],[40.1283,-1.6936],[40.1324,-1.6961],[40.1367,-1.7118],[40.1429,-1.7185],[40.1451,-1.7271],[40.1429,-1.7398],[40.1314,-1.7525],[40.1284,-1.7703],[40.1284,-1.7817],[40.1394,-1.8074],[40.1409,-1.8144],[40.1388,-1.8231],[40.1317,-1.8304],[40.1396,-1.8369],[40.1445,-1.8444],[40.1455,-1.8512],[40.1495,-1.856],[40.1543,-1.8705],[40.1541,-1.876],[40.1513,-1.881],[40.1562,-1.8888],[40.1544,-1.9034],[40.158,-1.9101],[40.1575,-1.917],[40.1617,-1.9149],[40.1616,-1.9336],[40.1581,-1.9451],[40.1652,-1.9551],[40.163,-1.9575],[40.1628,-1.9608],[40.1664,-1.9641],[40.1726,-1.9763],[40.1712,-1.983],[40.1663,-1.9871],[40.1728,-1.9903],[40.171,-1.9992],[40.1928,-2.0392],[40.195,-2.046],[40.1943,-2.0531],[40.1918,-2.0583],[40.1929,-2.0601],[40.1891,-2.0601],[40.1837,-2.083],[40.1837,-2.1029],[40.1881,-2.1128],[40.1868,-2.118],[40.1833,-2.1219],[40.1773,-2.1237],[40.1713,-2.1219],[40.1626,-2.1094],[40.1621,-2.0812],[40.1642,-2.0732],[40.1563,-2.0673],[40.1538,-2.0604],[40.1556,-2.0544],[40.1635,-2.0462],[40.1594,-2.0436],[40.1545,-2.0364],[40.1533,-2.0269],[40.1422,-2.0063],[40.1413,-2.001],[40.145,-1.9823],[40.14,-1.9697],[40.1327,-1.9648],[40.129,-1.9542],[40.1289,-1.9426],[40.1305,-1.9368],[40.126,-1.9324],[40.1247,-1.9261],[40.1264,-1.9211],[40.133,-1.9142],[40.133,-1.912],[40.129,-1.9042],[40.1301,-1.8969],[40.1246,-1.8854],[40.1259,-1.8803],[40.1311,-1.8724],[40.1301,-1.8689],[40.1228,-1.8657],[40.1175,-1.8561],[40.1061,-1.8463],[40.0998,-1.8333],[40.1001,-1.8198],[40.1028,-1.8152],[40.1074,-1.8119],[40.1078,-1.8082],[40.0999,-1.7876],[40.0997,-1.7678],[40.1042,-1.7409],[40.1112,-1.7295],[40.1051,-1.724],[40.1044,-1.7152],[40.0998,-1.7079],[40.1029,-1.6946],[40.0998,-1.6837],[40.1043,-1.6736],[40.1042,-1.6695],[40.0997,-1.6615],[40.1005,-1.6562],[40.1034,-1.6521],[40.0997,-1.645],[40.1015,-1.6374],[40.0997,-1.6323],[40.0996,-1.6222],[40.0833,-1.6044],[40.0786,-1.6022],[40.0676,-1.5906],[40.0663,-1.5816],[40.0592,-1.5739],[40.0585,-1.5655],[40.0542,-1.5593],[40.0559,-1.5482],[40.0486,-1.5431],[40.0459,-1.5386],[40.0455,-1.5233],[40.0414,-1.5158],[40.0421,-1.508],[40.0378,-1.5],[40.0286,-1.4938],[40.0255,-1.4896],[40.0251,-1.4823],[40.0298,-1.4743],[40.0247,-1.4658],[40.0265,-1.4582],[40.0247,-1.4532],[40.0246,-1.432],[40.02,-1.4121],[40.0084,-1.3884],[40.008,-1.3724],[39.9956,-1.354],[39.9985,-1.3359],[39.9957,-1.3293],[39.9947,-1.3183],[39.9915,-1.3125],[39.9913,-1.2969],[39.9978,-1.2803],[39.9956,-1.2748],[39.996,-1.2696],[40.0014,-1.2624],[39.9879,-1.2352],[39.9885,-1.2231],[39.9718,-1.2073],[39.9705,-1.1993],[39.9594,-1.1825],[39.9477,-1.1554],[39.9288,-1.144],[39.9213,-1.1354],[39.9207,-1.1166],[39.9259,-1.1088],[39.9135,-1.099],[39.9122,-1.0929],[39.9139,-1.0876],[39.9097,-1.083],[39.9042,-1.0715],[39.9055,-1.0629],[39.9009,-1.0572],[39.8996,-1.0507],[39.8956,-1.0435],[39.8863,-1.0297],[39.8827,-1.0212],[39.8825,-1.0161],[39.8751,-1.0052],[39.8751,-0.9989],[39.8815,-0.9868],[39.88,-0.9824],[39.8626,-0.9593],[39.863,-0.9521],[39.8683,-0.9438],[39.8656,-0.9397],[39.8557,-0.9333],[39.8539,-0.9282],[39.8538,-0.9191],[39.8438,-0.909],[39.8415,-0.9043],[39.842,-0.8982],[39.8496,-0.8846],[39.8455,-0.8731],[39.8499,-0.8569],[39.8425,-0.8486],[39.83,-0.8157],[39.8179,-0.7994],[39.8163,-0.7933],[39.804,-0.7858],[39.8002,-0.7806],[39.7998,-0.7753],[39.8015,-0.7707],[39.8001,-0.7614],[39.8106,-0.7491],[39.8024,-0.7427],[39.8,-0.7382],[39.7999,-0.733],[39.8029,-0.7238],[39.7997,-0.7155],[39.8014,-0.7086],[39.7972,-0.7021],[39.7879,-0.6936],[39.7872,-0.6883],[39.7895,-0.6808],[39.7737,-0.6682],[39.7709,-0.6636],[39.7705,-0.6512],[39.7622,-0.6368],[39.7649,-0.6229],[39.7525,-0.6129],[39.7419,-0.6111],[39.7366,-0.6045],[39.7177,-0.6033],[39.7083,-0.6086],[39.7003,-0.6069],[39.6906,-0.5939],[39.6838,-0.5904],[39.6801,-0.5865],[39.6788,-0.5726],[39.6751,-0.5652],[39.6566,-0.5511],[39.6441,-0.5332],[39.6335,-0.5284],[39.6278,-0.5235],[39.6239,-0.5066],[39.6176,-0.4951],[39.6119,-0.4927],[39.6096,-0.4853],[39.6094,-0.4782],[39.6129,-0.4693],[39.5976,-0.4565],[39.5931,-0.4487],[39.5926,-0.4415],[39.5952,-0.4326],[39.5887,-0.4142],[39.5893,-0.4045],[39.5765,-0.3864],[39.5761,-0.3776],[39.5799,-0.3679],[39.5714,-0.3594],[39.5722,-0.35],[39.5671,-0.3449],[39.5561,-0.3412],[39.552,-0.338],[39.5498,-0.3333],[39.5496,-0.3274],[39.5418,-0.3177],[39.5413,-0.3071],[39.536,-0.3088],[39.5308,-0.3077],[39.5264,-0.3139],[39.5209,-0.3169],[39.5158,-0.3167],[39.5113,-0.3141],[39.5041,-0.2961],[39.5053,-0.2882],[39.4966,-0.2735],[39.4955,-0.2673],[39.4915,-0.2609],[39.4893,-0.2588],[39.4792,-0.2586],[39.4744,-0.2563],[39.4634,-0.2406],[39.4621,-0.2325],[39.4527,-0.2254],[39.4458,-0.2252],[39.4411,-0.223],[39.4225,-0.201],[39.3908,-0.2045],[39.3847,-0.2034],[39.3607,-0.1767],[39.3473,-0.1796],[39.3348,-0.1743],[39.3137,-0.1504],[39.2879,-0.1504],[39.2781,-0.1546],[39.2354,-0.1546],[39.2294,-0.1528],[39.2229,-0.1466],[39.2153,-0.1534],[39.2089,-0.1545],[39.1924,-0.1504],[39.1813,-0.1496],[39.1726,-0.1421],[39.1647,-0.1413],[39.1544,-0.1347],[39.1271,-0.133],[39.1229,-0.1298],[39.1171,-0.1211],[39.1119,-0.1188],[39.1028,-0.1098],[39.0942,-0.0972],[39.0774,-0.0843],[39.0635,-0.0604],[39.0347,-0.0671],[39.0287,-0.0647],[39.0244,-0.0593],[39.0132,-0.0668],[39.0008,-0.0645],[38.9878,-0.0697],[38.9756,-0.0854],[38.9506,-0.1063],[38.9459,-0.1086],[38.924,-0.1083],[38.9195,-0.1056],[38.9151,-0.0994],[38.8956,-0.1086]],[[39.1343,-0.1081],[39.1343,-0.108],[39.1342,-0.1079],[39.1343,-0.1081]],[[39.146,-0.1121],[39.151,-0.1111],[39.1452,-0.1111],[39.146,-0.1121]],[[39.9448,-1.127],[39.9436,-1.127],[39.9424,-1.1269],[39.9441,-1.128],[39.9448,-1.127]]],[[[40.1617,-1.8726],[40.161,-1.878],[40.1594,-1.8817],[40.1571,-1.8775],[40.1567,-1.8715],[40.1598,-1.8642],[40.1617,-1.8726]]]]}},{"type":"Feature","properties":{"stage_m":5.5,"width_km":2.8,"area_km2":1332.1,"level":"Alarm"},"geometry":{"type":"MultiPolygon","coordinates":[[[[40.1689,-1.8724],[40.1662,-1.8866],[40.1585,-1.8834],[40.1553,-1.8779],[40.1551,-1.8695],[40.1641,-1.8542],[40.1689,-1.8724]]],[[[39.3958,-0.1632],[39.396,-0.1671],[39.3982,-0.1703],[39.4048,-0.1709],[39.4129,-0.1749],[39.4289,-0.1745],[39.4363,-0.1804],[39.4445,-0.1823],[39.4531,-0.1906],[39.4593,-0.1913],[39.469,-0.1964],[39.4751,-0.2028],[39.4769,-0.2085],[39.4879,-0.2187],[39.4926,-0.2277],[39.4984,-0.2295],[39.5037,-0.2344],[39.5119,-0.2362],[39.5212,-0.2452],[39.524,-0.2514],[39.5231,-0.2617],[39.5314,-0.2614],[39.5362,-0.2696],[39.5483,-0.2689],[39.5532,-0.2746],[39.5544,-0.2817],[39.5596,-0.2838],[39.5633,-0.2881],[39.5645,-0.302],[39.5772,-0.3026],[39.5848,-0.3131],[39.588,-0.3221],[39.5928,-0.3239],[39.5965,-0.3276],[39.5983,-0.3357],[39.6032,-0.341],[39.605,-0.3468],[39.6177,-0.3555],[39.6231,-0.3641],[39.6231,-0.3775],[39.6337,-0.3924],[39.6354,-0.4046],[39.6393,-0.4138],[39.6394,-0.4351],[39.6501,-0.4439],[39.6493,-0.4549],[39.6548,-0.4645],[39.6556,-0.471],[39.6588,-0.4738],[39.656,-0.4798],[39.6648,-0.4881],[39.6687,-0.499],[39.6763,-0.5033],[39.6865,-0.5133],[39.691,-0.5194],[39.6937,-0.5282],[39.7013,-0.5325],[39.7105,-0.5421],[39.7143,-0.5513],[39.7147,-0.5646],[39.7212,-0.5644],[39.7292,-0.5666],[39.7407,-0.5643],[39.7465,-0.5749],[39.7556,-0.5798],[39.7624,-0.5885],[39.7711,-0.59],[39.7794,-0.5986],[39.7876,-0.6026],[39.7933,-0.6172],[39.7938,-0.6287],[39.7912,-0.6347],[39.7912,-0.6393],[39.8024,-0.6446],[39.8214,-0.6609],[39.8242,-0.665],[39.8242,-0.668],[39.8207,-0.6761],[39.8272,-0.6762],[39.8271,-0.679],[39.8334,-0.6876],[39.8396,-0.7073],[39.8396,-0.7257],[39.8444,-0.7295],[39.8423,-0.7351],[39.8377,-0.739],[39.8376,-0.7503],[39.8447,-0.7516],[39.8507,-0.7567],[39.8433,-0.7674],[39.8497,-0.7724],[39.8538,-0.7784],[39.8542,-0.7951],[39.8588,-0.7987],[39.8611,-0.8039],[39.8609,-0.8158],[39.8565,-0.8222],[39.8585,-0.8301],[39.8602,-0.8346],[39.8655,-0.8362],[39.8693,-0.8396],[39.8714,-0.8478],[39.8749,-0.853],[39.875,-0.8592],[39.8709,-0.8696],[39.8796,-0.8718],[39.8844,-0.8791],[39.8846,-0.8845],[39.8813,-0.8959],[39.8833,-0.903],[39.8813,-0.9122],[39.8886,-0.9134],[39.8951,-0.919],[39.905,-0.9356],[39.896,-0.9514],[39.8969,-0.9598],[39.9023,-0.9642],[39.9049,-0.9698],[39.9031,-0.9807],[39.9081,-0.991],[39.9071,-0.9997],[39.9166,-1.0156],[39.9186,-1.0308],[39.9338,-1.061],[39.9364,-1.0725],[39.9405,-1.0786],[39.941,-1.0854],[39.9487,-1.0925],[39.9499,-1.1022],[39.9562,-1.1092],[39.9574,-1.1165],[39.9556,-1.1221],[39.9626,-1.1274],[39.9642,-1.1356],[39.9708,-1.1436],[39.9725,-1.1483],[39.9846,-1.15],[39.9914,-1.1652],[39.9934,-1.1793],[39.9957,-1.1838],[40.0079,-1.1942],[40.0097,-1.2052],[40.0151,-1.2026],[40.0211,-1.2022],[40.0254,-1.2091],[40.0272,-1.2192],[40.0251,-1.2293],[40.038,-1.2554],[40.0397,-1.2626],[40.0347,-1.2877],[40.0286,-1.3013],[40.0336,-1.3088],[40.0354,-1.3159],[40.0355,-1.3338],[40.0332,-1.3459],[40.0422,-1.3596],[40.0439,-1.3794],[40.0596,-1.4118],[40.0606,-1.4423],[40.0684,-1.468],[40.0682,-1.4788],[40.0803,-1.4987],[40.0814,-1.5218],[40.0883,-1.5278],[40.0921,-1.5343],[40.0938,-1.5417],[40.0932,-1.5497],[40.098,-1.563],[40.0999,-1.5665],[40.1085,-1.5729],[40.1277,-1.5995],[40.1341,-1.616],[40.1343,-1.6234],[40.1323,-1.6287],[40.1364,-1.6387],[40.1367,-1.6449],[40.1338,-1.6521],[40.1344,-1.6734],[40.1298,-1.6842],[40.1304,-1.6925],[40.14,-1.6969],[40.1438,-1.7082],[40.1479,-1.7129],[40.1494,-1.721],[40.1476,-1.7358],[40.1445,-1.7424],[40.1445,-1.7495],[40.1381,-1.756],[40.1357,-1.7703],[40.1326,-1.7739],[40.1356,-1.7754],[40.1356,-1.7802],[40.1479,-1.8118],[40.147,-1.8218],[40.1427,-1.8302],[40.1417,-1.8368],[40.1466,-1.8446],[40.147,-1.8526],[40.1541,-1.8678],[40.1545,-1.8747],[40.1529,-1.88],[40.1578,-1.8874],[40.1564,-1.9029],[40.1591,-1.9075],[40.16,-1.9135],[40.1689,-1.9131],[40.1687,-1.9346],[40.1663,-1.9432],[40.1687,-1.9502],[40.1647,-1.9599],[40.1742,-1.975],[40.1739,-1.9814],[40.1702,-1.9868],[40.1802,-1.99],[40.1786,-1.998],[40.1992,-2.0357],[40.2021,-2.0453],[40.2,-2.0583],[40.2011,-2.0612],[40.1907,-2.0619],[40.1837,-2.083],[40.1837,-2.1029],[40.1873,-2.1087],[40.1881,-2.1139],[40.1863,-2.1189],[40.1815,-2.1229],[40.1763,-2.1237],[40.1713,-2.1219],[40.1626,-2.1094],[40.1621,-2.0812],[40.1642,-2.0732],[40.1563,-2.0673],[40.1538,-2.0604],[40.1556,-2.0544],[40.1621,-2.0476],[40.1577,-2.0444],[40.1526,-2.0367],[40.1515,-2.0236],[40.1418,-2.0053],[40.145,-1.9823],[40.1408,-1.9716],[40.1337,-1.9688],[40.1299,-1.9625],[40.1288,-1.9437],[40.1305,-1.9368],[40.126,-1.9324],[40.1247,-1.9261],[40.1264,-1.9211],[40.1321,-1.9149],[40.1288,-1.9032],[40.1301,-1.8969],[40.1246,-1.8854],[40.1299,-1.8742],[40.1286,-1.8704],[40.1201,-1.8653],[40.1133,-1.8526],[40.1055,-1.8454],[40.0998,-1.8333],[40.0998,-1.8208],[40.1056,-1.8131],[40.1059,-1.8081],[40.1044,-1.7988],[40.0999,-1.7876],[40.0997,-1.7678],[40.1042,-1.7409],[40.1094,-1.7293],[40.1047,-1.723],[40.1042,-1.7151],[40.0996,-1.7069],[40.1015,-1.699],[40.0996,-1.6849],[40.1026,-1.6745],[40.1026,-1.6678],[40.0997,-1.6593],[40.1033,-1.6519],[40.0997,-1.645],[40.1015,-1.6374],[40.0996,-1.6249],[40.0983,-1.6217],[40.0676,-1.5906],[40.0663,-1.5818],[40.0592,-1.5739],[40.0585,-1.5655],[40.0542,-1.5593],[40.0554,-1.5495],[40.0459,-1.5386],[40.0455,-1.5233],[40.0418,-1.5179],[40.0403,-1.5088],[40.0353,-1.4984],[40.0278,-1.4931],[40.0251,-1.4886],[40.0251,-1.4823],[40.0298,-1.4743],[40.0247,-1.4658],[40.0265,-1.4582],[40.0247,-1.4532],[40.0235,-1.4342],[40.0166,-1.4052],[40.0084,-1.3884],[40.008,-1.3724],[39.9956,-1.354],[39.9978,-1.3392],[39.9915,-1.3125],[39.9913,-1.2969],[39.9964,-1.2791],[39.996,-1.2696],[40.0003,-1.2636],[39.9879,-1.2352],[39.9869,-1.2239],[39.9809,-1.2157],[39.9718,-1.2073],[39.9705,-1.2023],[39.9577,-1.1813],[39.9477,-1.1554],[39.9288,-1.144],[39.9213,-1.1354],[39.9207,-1.1166],[39.9259,-1.1088],[39.9135,-1.099],[39.9122,-1.0929],[39.9139,-1.0876],[39.9049,-1.0736],[39.9045,-1.0649],[39.8847,-1.0305],[39.8783,-1.0103],[39.8751,-1.0052],[39.8748,-1.0],[39.8782,-0.9934],[39.8803,-0.9834],[39.8626,-0.9593],[39.863,-0.9521],[39.8683,-0.9438],[39.8649,-0.9394],[39.8557,-0.9333],[39.8509,-0.9162],[39.8418,-0.9054],[39.8417,-0.8992],[39.8484,-0.8831],[39.8455,-0.8731],[39.8483,-0.8562],[39.8425,-0.8486],[39.8356,-0.8338],[39.83,-0.8157],[39.8179,-0.7994],[39.8163,-0.7933],[39.804,-0.7858],[39.8002,-0.7806],[39.7998,-0.7753],[39.8015,-0.7707],[39.8001,-0.7614],[39.8105,-0.7492],[39.8024,-0.7427],[39.8,-0.7382],[39.802,-0.7265],[39.7997,-0.7155],[39.8005,-0.7103],[39.7879,-0.6936],[39.7872,-0.6883],[39.7894,-0.681],[39.7713,-0.6646],[39.7705,-0.6512],[39.7624,-0.6378],[39.7639,-0.6221],[39.7508,-0.6129],[39.7419,-0.6111],[39.7366,-0.6045],[39.7177,-0.6033],[39.7083,-0.6086],[39.7003,-0.6069],[39.6906,-0.5939],[39.6807,-0.5874],[39.6788,-0.5759],[39.6726,-0.5633],[39.6507,-0.5465],[39.643,-0.5346],[39.6322,-0.5297],[39.626,-0.5242],[39.6241,-0.5194],[39.6241,-0.5119],[39.6162,-0.4966],[39.609,-0.493],[39.6054,-0.4884],[39.6025,-0.4759],[39.604,-0.4713],[39.5908,-0.4597],[39.5862,-0.4507],[39.5853,-0.4432],[39.5874,-0.4331],[39.5812,-0.4133],[39.5803,-0.4048],[39.582,-0.3986],[39.5774,-0.395],[39.5697,-0.3828],[39.5695,-0.3745],[39.5714,-0.3696],[39.5696,-0.3678],[39.5708,-0.349],[39.5671,-0.3449],[39.5561,-0.3412],[39.552,-0.338],[39.5498,-0.3333],[39.5496,-0.3274],[39.5421,-0.3188],[39.5407,-0.3074],[39.536,-0.3088],[39.5308,-0.3077],[39.5264,-0.3139],[39.5209,-0.3169],[39.5158,-0.3167],[39.5113,-0.3141],[39.5041,-0.2961],[39.5053,-0.2882],[39.4888,-0.2588],[39.4792,-0.2586],[39.4744,-0.2563],[39.4634,-0.2406],[39.4607,-0.2315],[39.4527,-0.2254],[39.4458,-0.2252],[39.4411,-0.223],[39.4235,-0.2022],[39.3897,-0.2046],[39.3847,-0.2034],[39.3602,-0.1769],[39.3462,-0.1795],[39.3329,-0.1731],[39.3137,-0.1504],[39.2879,-0.1504],[39.2781,-0.1546],[39.2354,-0.1546],[39.2294,-0.1528],[39.2229,-0.1466],[39.2153,-0.1534],[39.2089,-0.1545],[39.1924,-0.1504],[39.1823,-0.15],[39.1719,-0.1431],[39.1475,-0.1338],[39.1271,-0.133],[39.1229,-0.1298],[39.1171,-0.1211],[39.1128,-0.1195],[39.1059,-0.1133],[39.0952,-0.1016],[39.0929,-0.0962],[39.0774,-0.0843],[39.0635,-0.0604],[39.0347,-0.0671],[39.0287,-0.0647],[39.0244,-0.0593],[39.0132,-0.0668],[39.0008,-0.0645],[38.9878,-0.0697],[38.9756,-0.0854],[38.9506,-0.1063],[38.9459,-0.1086],[38.924,-0.1083],[38.9195,-0.1056],[38.9151,-0.0994],[38.8956,-0.1086],[38.8709,-0.1063],[38.8517,-0.1088],[38.8223,-0.1048],[38.8139,-0.1],[38.808,-0.1],[38.8013,-0.0963],[38.7903,-0.0957],[38.7716,-0.0848],[38.7588,-0.0878],[38.74,-0.0831],[38.7246,-0.0754],[38.7114,-0.075],[38.6919,-0.0598],[38.688,-0.0647],[38.6832,-0.0669],[38.6578,-0.0599],[38.6478,-0.0663],[38.6405,-0.0666],[38.6118,-0.0431],[38.5961,-0.0461],[38.5911,-0.0439],[38.5851,-0.0379],[38.5766,-0.0367],[38.5717,-0.0312],[38.5711,-0.025],[38.5748,-0.0187],[38.5806,-0.0163],[38.5927,-0.0167],[38.6012,-0.0234],[38.6171,-0.0207],[38.6446,-0.0427],[38.6512,-0.0383],[38.6564,-0.0371],[38.6769,-0.0434],[38.6836,-0.0347],[38.6917,-0.0331],[38.6965,-0.0354],[38.7185,-0.0537],[38.73,-0.0541],[38.7475,-0.0627],[38.7551,-0.0592],[38.7692,-0.0592],[38.7967,-0.0746],[38.8167,-0.0748],[38.8238,-0.0793],[38.8305,-0.0796],[38.8362,-0.0828],[38.844,-0.083],[38.8491,-0.0856],[38.8542,-0.0831],[38.8653,-0.0827],[38.8918,-0.0868],[38.9002,-0.0826],[38.892,-0.0804],[38.8843,-0.0714],[38.8892,-0.0719],[38.9148,-0.0604],[38.917,-0.066],[38.9164,-0.0748],[38.9248,-0.0764],[38.9328,-0.0871],[38.9357,-0.0871],[38.931,-0.0795],[38.932,-0.0657],[38.9267,-0.0642],[38.9227,-0.0604],[38.9308,-0.0632],[38.9383,-0.0695],[38.9541,-0.0558],[38.9607,-0.0589],[38.9641,-0.0652],[38.9649,-0.0412],[38.9821,-0.0324],[38.9881,-0.0357],[38.992,-0.043],[38.9981,-0.0412],[39.0085,-0.0442],[39.0215,-0.0345],[39.0263,-0.0329],[39.034,-0.0354],[39.0402,-0.0439],[39.0704,-0.0372],[39.0775,-0.0416],[39.0936,-0.0697],[39.0997,-0.0623],[39.1044,-0.0595],[39.1193,-0.0711],[39.1299,-0.0859],[39.1389,-0.0908],[39.1447,-0.0976],[39.1635,-0.0987],[39.1763,-0.1059],[39.1889,-0.1089],[39.1959,-0.1144],[39.2027,-0.1157],[39.2068,-0.1118],[39.2057,-0.1254],[39.2115,-0.1205],[39.2181,-0.1091],[39.2227,-0.1067],[39.2278,-0.1064],[39.2391,-0.1119],[39.2408,-0.1235],[39.2474,-0.1199],[39.2606,-0.1207],[39.2631,-0.1184],[39.2712,-0.1184],[39.2767,-0.1164],[39.2893,-0.1216],[39.2964,-0.1287],[39.3134,-0.1287],[39.3199,-0.1265],[39.3306,-0.1271],[39.3358,-0.1306],[39.3386,-0.1377],[39.3452,-0.1433],[39.3553,-0.1444],[39.3613,-0.1504],[39.3851,-0.1509],[39.3958,-0.1632]]],[[[38.854,-0.0685],[38.8631,-0.069],[38.8557,-0.0724],[38.8467,-0.0724],[38.8424,-0.0709],[38.854,-0.0685]]]]}},{"type":"Feature","properties":{"stage_m":6.0,"width_km":3.7,"area_km2":1528.8,"level":"Alarm"},"geometry":{"type":"MultiPolygon","coordinates":[[[[39.6398,-0.3864],[39.6459,-0.4075],[39.6478,-0.4315],[39.6499,-0.4332],[39.652,-0.4413],[39.6514,-0.4548],[39.6564,-0.4631],[39.6576,-0.4699],[39.6626,-0.4765],[39.6665,-0.4777],[39.6695,-0.4809],[39.6758,-0.4933],[39.6944,-0.51],[39.7008,-0.5224],[39.7152,-0.5349],[39.7216,-0.5472],[39.7228,-0.5564],[39.7292,-0.5578],[39.7338,-0.5567],[39.7384,-0.5595],[39.7443,-0.5653],[39.7483,-0.5735],[39.7569,-0.5782],[39.7636,-0.5864],[39.7721,-0.5883],[39.7807,-0.5967],[39.7891,-0.6013],[39.7953,-0.6163],[39.7958,-0.6281],[39.7934,-0.6378],[39.8029,-0.6425],[39.8074,-0.6471],[39.8161,-0.6476],[39.8219,-0.6509],[39.8261,-0.6592],[39.8246,-0.6741],[39.8328,-0.6759],[39.8383,-0.6818],[39.8397,-0.699],[39.8427,-0.705],[39.843,-0.7159],[39.846,-0.7214],[39.8465,-0.7283],[39.8446,-0.7352],[39.8397,-0.7402],[39.8381,-0.7483],[39.8479,-0.7512],[39.8561,-0.7618],[39.8549,-0.7661],[39.8566,-0.768],[39.8565,-0.794],[39.8612,-0.7986],[39.8633,-0.805],[39.863,-0.8157],[39.8591,-0.8226],[39.8601,-0.8326],[39.8665,-0.8344],[39.8716,-0.8395],[39.8754,-0.8561],[39.8731,-0.8675],[39.8813,-0.8706],[39.886,-0.8774],[39.8867,-0.8841],[39.8836,-0.8958],[39.8853,-0.9039],[39.8834,-0.9101],[39.8894,-0.9116],[39.9014,-0.9194],[39.9067,-0.9271],[39.9064,-0.9384],[39.8982,-0.9515],[39.8991,-0.9586],[39.9039,-0.963],[39.9066,-0.9682],[39.9054,-0.9807],[39.9101,-0.9907],[39.9094,-0.9992],[39.9185,-1.0149],[39.9206,-1.0302],[39.9356,-1.0602],[39.9384,-1.0716],[39.9425,-1.078],[39.9432,-1.0842],[39.9504,-1.0915],[39.9522,-1.1013],[39.9578,-1.1079],[39.9594,-1.1153],[39.9584,-1.121],[39.9644,-1.1264],[39.9663,-1.1347],[39.9742,-1.1466],[39.985,-1.148],[39.9914,-1.153],[39.9939,-1.1596],[39.9931,-1.1664],[39.9952,-1.1784],[39.9974,-1.1823],[40.0091,-1.1924],[40.0117,-1.2018],[40.0173,-1.2002],[40.0259,-1.2008],[40.0316,-1.2045],[40.034,-1.2093],[40.0353,-1.22],[40.0334,-1.2343],[40.0424,-1.2458],[40.0454,-1.2534],[40.0458,-1.2761],[40.0381,-1.3003],[40.0435,-1.315],[40.0435,-1.3346],[40.0418,-1.3439],[40.0498,-1.3567],[40.0519,-1.3657],[40.052,-1.3775],[40.0675,-1.4099],[40.0687,-1.4322],[40.0663,-1.4349],[40.0687,-1.4367],[40.0764,-1.4664],[40.0767,-1.4769],[40.088,-1.4963],[40.0892,-1.5049],[40.0865,-1.5122],[40.0891,-1.5136],[40.0894,-1.5176],[40.0949,-1.5232],[40.0959,-1.5302],[40.1002,-1.5331],[40.1017,-1.5479],[40.1059,-1.5604],[40.1146,-1.5675],[40.1162,-1.5724],[40.1211,-1.578],[40.1288,-1.5934],[40.1363,-1.6163],[40.1347,-1.6287],[40.1384,-1.6382],[40.1387,-1.6449],[40.1359,-1.6526],[40.1364,-1.6735],[40.132,-1.6843],[40.1326,-1.6915],[40.1401,-1.6945],[40.1445,-1.6989],[40.1495,-1.7094],[40.1514,-1.7224],[40.1496,-1.7363],[40.1466,-1.7427],[40.1459,-1.7545],[40.1398,-1.7619],[40.1389,-1.7685],[40.1357,-1.7734],[40.1437,-1.7756],[40.1546,-1.8044],[40.1562,-1.8143],[40.1557,-1.8198],[40.1522,-1.8209],[40.1462,-1.8269],[40.1441,-1.8365],[40.1487,-1.8444],[40.1492,-1.8522],[40.1549,-1.8643],[40.1633,-1.8519],[40.1704,-1.8479],[40.1768,-1.8689],[40.1746,-1.8854],[40.1757,-1.8886],[40.1648,-1.8885],[40.1597,-1.8868],[40.1585,-1.9024],[40.162,-1.9109],[40.177,-1.9123],[40.1762,-1.9388],[40.1757,-1.9404],[40.1701,-1.9406],[40.1705,-1.9517],[40.1669,-1.959],[40.1761,-1.9745],[40.1761,-1.9808],[40.1735,-1.9863],[40.1799,-1.9875],[40.1879,-1.9927],[40.1871,-1.9967],[40.2062,-2.0318],[40.2097,-2.0411],[40.2102,-2.051],[40.2087,-2.0583],[40.2103,-2.0689],[40.2043,-2.0618],[40.1922,-2.064],[40.1877,-2.0707],[40.1837,-2.083],[40.1837,-2.1029],[40.1873,-2.1087],[40.1881,-2.1139],[40.1857,-2.1197],[40.1805,-2.1232],[40.1752,-2.1235],[40.1705,-2.1213],[40.1626,-2.1094],[40.1621,-2.0812],[40.1642,-2.0732],[40.157,-2.0681],[40.1543,-2.0636],[40.1546,-2.0562],[40.1606,-2.0491],[40.1562,-2.0458],[40.1506,-2.0371],[40.1495,-2.0199],[40.1415,-2.0043],[40.145,-1.9823],[40.1416,-1.9737],[40.133,-1.9709],[40.1279,-1.963],[40.1278,-1.9504],[40.1305,-1.9368],[40.126,-1.9324],[40.1247,-1.9261],[40.1299,-1.9151],[40.1284,-1.8943],[40.1246,-1.8854],[40.1282,-1.8753],[40.1269,-1.872],[40.118,-1.8659],[40.0998,-1.8333],[40.0998,-1.8208],[40.1036,-1.8145],[40.1039,-1.808],[40.0997,-1.7865],[40.0993,-1.7591],[40.1027,-1.741],[40.1072,-1.7293],[40.0996,-1.7069],[40.099,-1.6854],[40.1008,-1.6653],[40.0996,-1.6604],[40.1012,-1.6494],[40.0997,-1.645],[40.0996,-1.6326],[40.0968,-1.623],[40.0816,-1.6085],[40.0676,-1.5906],[40.0663,-1.5851],[40.0584,-1.5719],[40.058,-1.5649],[40.0542,-1.5593],[40.0518,-1.5455],[40.0459,-1.5386],[40.0455,-1.5234],[40.0326,-1.4965],[40.0278,-1.4931],[40.0251,-1.4886],[40.0248,-1.4833],[40.0282,-1.4768],[40.0279,-1.4723],[40.0249,-1.4668],[40.0265,-1.4582],[40.0216,-1.4348],[40.0127,-1.3975],[40.0082,-1.3874],[40.0065,-1.3704],[39.9956,-1.354],[39.9971,-1.3429],[39.9915,-1.3239],[39.9903,-1.3045],[39.9926,-1.2852],[39.9982,-1.2636],[39.9872,-1.2305],[39.9851,-1.2249],[39.9675,-1.2019],[39.9576,-1.1856],[39.9464,-1.1546],[39.9288,-1.144],[39.9217,-1.1364],[39.9205,-1.1177],[39.9244,-1.1103],[39.9219,-1.1061],[39.9135,-1.099],[39.9121,-1.0939],[39.9131,-1.0892],[39.9045,-1.0726],[39.9035,-1.0668],[39.8794,-1.0233],[39.8746,-1.0021],[39.8789,-0.981],[39.8634,-0.9613],[39.8623,-0.9541],[39.8666,-0.9462],[39.8662,-0.9434],[39.8557,-0.9333],[39.8477,-0.913],[39.8415,-0.9043],[39.8469,-0.8784],[39.8448,-0.8667],[39.846,-0.8565],[39.8397,-0.8414],[39.8336,-0.8342],[39.8333,-0.8244],[39.83,-0.8157],[39.8178,-0.7997],[39.8158,-0.7939],[39.8032,-0.7851],[39.8002,-0.7806],[39.7998,-0.7753],[39.8015,-0.7707],[39.8001,-0.7614],[39.809,-0.7507],[39.8,-0.7382],[39.7999,-0.7123],[39.7879,-0.6936],[39.7886,-0.6834],[39.7858,-0.6779],[39.7713,-0.6646],[39.7689,-0.6489],[39.7624,-0.6378],[39.7619,-0.6218],[39.7419,-0.6111],[39.7349,-0.6046],[39.7172,-0.6036],[39.7073,-0.6087],[39.7003,-0.6069],[39.6906,-0.5939],[39.6807,-0.5874],[39.6788,-0.5794],[39.6696,-0.5611],[39.6575,-0.5519],[39.6509,-0.5493],[39.6416,-0.5362],[39.631,-0.5314],[39.6244,-0.5254],[39.6207,-0.5089],[39.6146,-0.4981],[39.6082,-0.4949],[39.6042,-0.4905],[39.6022,-0.4798],[39.5985,-0.4714],[39.5851,-0.4592],[39.5831,-0.4536],[39.5833,-0.4443],[39.5777,-0.4378],[39.5788,-0.4333],[39.5763,-0.4248],[39.5763,-0.4104],[39.5797,-0.3997],[39.5703,-0.3892],[39.5678,-0.3839],[39.568,-0.3474],[39.552,-0.338],[39.5496,-0.3279],[39.5426,-0.3197],[39.5389,-0.3082],[39.5308,-0.3077],[39.5264,-0.3139],[39.5209,-0.3169],[39.5158,-0.3167],[39.5113,-0.3141],[39.5041,-0.2961],[39.5053,-0.2882],[39.494,-0.274],[39.4868,-0.2588],[39.4792,-0.2586],[39.4744,-0.2563],[39.4565,-0.2291],[39.4504,-0.2254],[39.4411,-0.223],[39.4232,-0.2042],[39.3847,-0.2034],[39.3584,-0.1778],[39.3462,-0.1795],[39.3329,-0.1731],[39.3168,-0.1541],[39.3113,-0.1504],[39.2897,-0.1504],[39.2781,-0.1546],[39.2354,-0.1546],[39.2294,-0.1528],[39.2229,-0.1466],[39.2153,-0.1534],[39.2089,-0.1545],[39.1924,-0.1504],[39.1823,-0.15],[39.1494,-0.1373],[39.1446,-0.1338],[39.1271,-0.133],[39.1229,-0.1298],[39.1174,-0.1217],[39.109,-0.1187],[39.0941,-0.1035],[39.0907,-0.0946],[39.0767,-0.0834],[39.0635,-0.0604],[39.0358,-0.0671],[39.0296,-0.0654],[39.0244,-0.0593],[39.0132,-0.0668],[39.0008,-0.0645],[38.9848,-0.0737],[38.9756,-0.0854],[38.9506,-0.1063],[38.9459,-0.1086],[38.924,-0.1083],[38.9195,-0.1056],[38.9151,-0.0994],[38.8946,-0.1087],[38.8739,-0.1066],[38.8655,-0.11],[38.8555,-0.1082],[38.8309,-0.1082],[38.8197,-0.1062],[38.814,-0.1021],[38.8062,-0.1015],[38.7985,-0.0963],[38.7903,-0.0957],[38.7716,-0.0848],[38.7618,-0.0878],[38.7548,-0.0877],[38.74,-0.0831],[38.7246,-0.0754],[38.7114,-0.075],[38.6919,-0.0598],[38.688,-0.0647],[38.6832,-0.0669],[38.6578,-0.0599],[38.6478,-0.0663],[38.6405,-0.0666],[38.6118,-0.0431],[38.5961,-0.0461],[38.5911,-0.0439],[38.5851,-0.0379],[38.5757,-0.0361],[38.5717,-0.0312],[38.5713,-0.0239],[38.5748,-0.0187],[38.5806,-0.0163],[38.5927,-0.0167],[38.6012,-0.0234],[38.6171,-0.0207],[38.6446,-0.0427],[38.6512,-0.0383],[38.6564,-0.0371],[38.6769,-0.0434],[38.6836,-0.0347],[38.6917,-0.0331],[38.6965,-0.0354],[38.7185,-0.0537],[38.73,-0.0541],[38.7464,-0.0621],[38.754,-0.0574],[38.7695,-0.0572],[38.7967,-0.0746],[38.8133,-0.0741],[38.8219,-0.0775],[38.8302,-0.0774],[38.8369,-0.0807],[38.845,-0.0811],[38.8508,-0.0844],[38.8585,-0.081],[38.8659,-0.0807],[38.8749,-0.0849],[38.8918,-0.0868],[38.8965,-0.0844],[38.8908,-0.082],[38.885,-0.0765],[38.8784,-0.0625],[38.8877,-0.0636],[38.9069,-0.0541],[38.9148,-0.0522],[38.919,-0.0652],[38.9186,-0.0746],[38.9248,-0.0764],[38.9297,-0.0824],[38.9293,-0.0674],[38.9213,-0.062],[38.9187,-0.052],[38.9288,-0.0535],[38.9387,-0.0587],[38.9446,-0.0538],[38.9561,-0.0386],[38.9558,-0.054],[38.9626,-0.0579],[38.9635,-0.0389],[38.9673,-0.0334],[38.9727,-0.0305],[38.9845,-0.0309],[38.99,-0.0348],[38.9938,-0.0421],[38.9992,-0.0413],[39.0085,-0.0442],[39.0215,-0.0345],[39.0263,-0.0329],[39.034,-0.0354],[39.0402,-0.0439],[39.0704,-0.0372],[39.0775,-0.0416],[39.0924,-0.0675],[39.1017,-0.0585],[39.1143,-0.057],[39.1274,-0.0679],[39.1282,-0.0744],[39.1308,-0.0726],[39.1353,-0.0794],[39.1488,-0.0894],[39.1658,-0.0909],[39.1789,-0.0979],[39.1898,-0.1003],[39.1996,-0.1067],[39.2039,-0.1038],[39.2084,-0.1103],[39.2091,-0.1194],[39.2178,-0.1068],[39.2227,-0.1046],[39.2296,-0.1042],[39.2353,-0.1057],[39.2395,-0.109],[39.2421,-0.1136],[39.2429,-0.1194],[39.2485,-0.1177],[39.26,-0.1183],[39.2666,-0.1147],[39.2773,-0.1144],[39.2904,-0.1198],[39.2988,-0.1287],[39.3103,-0.1287],[39.3185,-0.1246],[39.3313,-0.1252],[39.3369,-0.1288],[39.3405,-0.1364],[39.346,-0.1413],[39.3562,-0.1425],[39.3624,-0.1482],[39.3818,-0.1481],[39.3882,-0.1502],[39.3959,-0.1579],[39.3994,-0.1683],[39.4055,-0.169],[39.4129,-0.1726],[39.4296,-0.1726],[39.4371,-0.1784],[39.4455,-0.1805],[39.4539,-0.1885],[39.46,-0.1894],[39.4708,-0.1953],[39.4764,-0.2011],[39.4788,-0.2072],[39.4895,-0.2175],[39.4939,-0.2257],[39.4994,-0.2277],[39.5045,-0.2324],[39.5129,-0.2345],[39.5227,-0.2438],[39.5259,-0.2506],[39.5258,-0.2593],[39.5375,-0.2602],[39.5467,-0.2648],[39.5527,-0.2704],[39.5565,-0.28],[39.5619,-0.283],[39.5654,-0.2877],[39.5662,-0.2998],[39.5767,-0.3003],[39.5834,-0.3045],[39.5898,-0.3204],[39.5978,-0.3258],[39.6003,-0.3349],[39.605,-0.34],[39.6069,-0.3455],[39.6205,-0.3556],[39.627,-0.3683],[39.6398,-0.3864]]],[[[38.838,-0.0617],[38.8434,-0.0629],[38.8566,-0.0603],[38.8697,-0.0616],[38.8639,-0.0711],[38.8549,-0.0745],[38.8445,-0.074],[38.8334,-0.0686],[38.8289,-0.063],[38.8277,-0.0547],[38.838,-0.0617]]]]}},{"type":"Feature","properties":{"stage_m":6.5,"width_km":4.8,"area_km2":1742.4,"level":"Emergency"},"geometry":{"type":"MultiPolygon","coordinates":[[[[40.0535,-1.2836],[40.0493,-1.3],[40.0536,-1.318],[40.0524,-1.3415],[40.0602,-1.3569],[40.0619,-1.3751],[40.0715,-1.3943],[40.0713,-1.402],[40.0691,-1.4078],[40.074,-1.423],[40.07,-1.4346],[40.0745,-1.4396],[40.0766,-1.4458],[40.0821,-1.4515],[40.0846,-1.459],[40.0816,-1.471],[40.0838,-1.4773],[40.0833,-1.4841],[40.0913,-1.4968],[40.0917,-1.505],[40.09,-1.5112],[40.0961,-1.5184],[40.0984,-1.5292],[40.1055,-1.5349],[40.1086,-1.5454],[40.1136,-1.5502],[40.1187,-1.5715],[40.123,-1.5762],[40.1307,-1.5916],[40.1387,-1.6159],[40.1375,-1.6287],[40.1409,-1.6382],[40.1411,-1.645],[40.1384,-1.6534],[40.1389,-1.6736],[40.1345,-1.6844],[40.1352,-1.6901],[40.1414,-1.6924],[40.1466,-1.6976],[40.1515,-1.7077],[40.1539,-1.7208],[40.152,-1.7369],[40.149,-1.7432],[40.1485,-1.7543],[40.1423,-1.7633],[40.1403,-1.7714],[40.1549,-1.7795],[40.164,-1.8014],[40.1658,-1.8095],[40.1615,-1.8185],[40.1486,-1.828],[40.1468,-1.8362],[40.1508,-1.843],[40.1518,-1.8514],[40.1558,-1.8593],[40.1648,-1.8475],[40.1707,-1.8453],[40.1788,-1.8452],[40.1858,-1.8634],[40.1858,-1.8883],[40.1788,-1.891],[40.1628,-1.8906],[40.1611,-1.8998],[40.164,-1.9082],[40.1777,-1.9099],[40.1869,-1.9194],[40.1867,-1.9345],[40.1808,-1.9409],[40.1726,-1.9433],[40.1729,-1.9522],[40.1703,-1.9588],[40.1784,-1.9734],[40.1776,-1.9842],[40.1828,-1.9863],[40.1926,-1.994],[40.1978,-1.9934],[40.2168,-2.0309],[40.2193,-2.0391],[40.22,-2.0732],[40.21,-2.0715],[40.2032,-2.0652],[40.1938,-2.0665],[40.1865,-2.0745],[40.1837,-2.083],[40.1837,-2.1029],[40.1873,-2.1087],[40.1881,-2.1139],[40.185,-2.1205],[40.1794,-2.1235],[40.1705,-2.1213],[40.1623,-2.1084],[40.1621,-2.0812],[40.1642,-2.0732],[40.1546,-2.0646],[40.1543,-2.0573],[40.1588,-2.0509],[40.1534,-2.0462],[40.1474,-2.0352],[40.147,-2.017],[40.1414,-2.0032],[40.1446,-1.9846],[40.1434,-1.9781],[40.1426,-1.9761],[40.1362,-1.9753],[40.1307,-1.9722],[40.1255,-1.9636],[40.1253,-1.9502],[40.1283,-1.9374],[40.1246,-1.9272],[40.1273,-1.92],[40.1246,-1.8854],[40.1267,-1.879],[40.125,-1.874],[40.1198,-1.8715],[40.1156,-1.8668],[40.0998,-1.8333],[40.1014,-1.8078],[40.098,-1.785],[40.0968,-1.7594],[40.0989,-1.7459],[40.1044,-1.7293],[40.0992,-1.7136],[40.0967,-1.6968],[40.0989,-1.6585],[40.0971,-1.6331],[40.0948,-1.6245],[40.0764,-1.6062],[40.0621,-1.5835],[40.0459,-1.5386],[40.0455,-1.5268],[40.0385,-1.5168],[40.0295,-1.4945],[40.0251,-1.4886],[40.0257,-1.4692],[40.0232,-1.4537],[40.0028,-1.3655],[39.9959,-1.355],[39.9963,-1.3469],[39.9918,-1.3356],[39.9886,-1.3209],[39.9889,-1.2929],[39.9956,-1.2637],[39.9884,-1.2418],[39.9879,-1.2357],[39.9829,-1.226],[39.9655,-1.2032],[39.9554,-1.1868],[39.9431,-1.1526],[39.9288,-1.144],[39.9217,-1.1364],[39.9205,-1.1187],[39.9227,-1.1122],[39.9135,-1.099],[39.901,-1.0677],[39.8771,-1.0242],[39.874,-1.0118],[39.8734,-0.9975],[39.877,-0.9791],[39.8634,-0.9613],[39.8621,-0.9562],[39.8648,-0.9489],[39.8639,-0.9447],[39.8568,-0.937],[39.8503,-0.9263],[39.8415,-0.9043],[39.8421,-0.8874],[39.8449,-0.8765],[39.8427,-0.8701],[39.8433,-0.8571],[39.8406,-0.851],[39.8403,-0.8445],[39.8352,-0.8411],[39.8313,-0.8352],[39.8301,-0.828],[39.832,-0.8213],[39.8268,-0.8114],[39.8172,-0.8032],[39.8135,-0.7954],[39.8002,-0.7806],[39.7998,-0.7753],[39.8015,-0.7707],[39.7998,-0.7625],[39.806,-0.7508],[39.8,-0.7382],[39.7968,-0.7201],[39.7974,-0.7135],[39.7892,-0.7002],[39.7877,-0.686],[39.783,-0.6776],[39.7723,-0.6665],[39.7674,-0.6568],[39.7664,-0.6494],[39.7615,-0.6412],[39.7593,-0.623],[39.734,-0.6071],[39.7142,-0.6056],[39.7062,-0.6088],[39.7003,-0.6069],[39.6916,-0.5954],[39.6807,-0.5874],[39.671,-0.5715],[39.6665,-0.5587],[39.6609,-0.5545],[39.6494,-0.5513],[39.6398,-0.538],[39.6297,-0.5334],[39.6224,-0.5269],[39.6198,-0.5211],[39.6186,-0.5103],[39.6128,-0.5],[39.6063,-0.4966],[39.6021,-0.4918],[39.5967,-0.4734],[39.583,-0.4604],[39.5807,-0.454],[39.5809,-0.4453],[39.5747,-0.4369],[39.5738,-0.4103],[39.5772,-0.401],[39.568,-0.3903],[39.5654,-0.3845],[39.5659,-0.3489],[39.552,-0.338],[39.5364,-0.3088],[39.5308,-0.3077],[39.5264,-0.3139],[39.5209,-0.3169],[39.5158,-0.3167],[39.5113,-0.3141],[39.5041,-0.2961],[39.5053,-0.2882],[39.4948,-0.2797],[39.4836,-0.2588],[39.4744,-0.2563],[39.4548,-0.2311],[39.4411,-0.223],[39.4219,-0.2068],[39.4056,-0.2066],[39.3847,-0.2034],[39.3676,-0.1916],[39.3544,-0.1783],[39.3451,-0.1792],[39.3338,-0.1738],[39.3184,-0.1573],[39.3079,-0.1504],[39.2957,-0.1504],[39.2903,-0.1528],[39.2781,-0.1546],[39.2354,-0.1546],[39.2304,-0.1533],[39.2243,-0.148],[39.2206,-0.1489],[39.2153,-0.1534],[39.21,-0.1546],[39.1749,-0.1494],[39.1483,-0.1396],[39.143,-0.1357],[39.1317,-0.1351],[39.1231,-0.1308],[39.1181,-0.1242],[39.108,-0.121],[39.0926,-0.1055],[39.0891,-0.0997],[39.0882,-0.0927],[39.0767,-0.0834],[39.0635,-0.0604],[39.0358,-0.0671],[39.0296,-0.0654],[39.0244,-0.0593],[39.0132,-0.0668],[39.0008,-0.0645],[38.9889,-0.0744],[38.9825,-0.0768],[38.9756,-0.0854],[38.9506,-0.1063],[38.9459,-0.1086],[38.924,-0.1083],[38.9195,-0.1056],[38.9151,-0.0994],[38.8956,-0.1086],[38.8771,-0.107],[38.8717,-0.111],[38.8656,-0.1124],[38.858,-0.1117],[38.8497,-0.1085],[38.8428,-0.1108],[38.8302,-0.1106],[38.8044,-0.1035],[38.7955,-0.0963],[38.7893,-0.0953],[38.7741,-0.0863],[38.7544,-0.0901],[38.7246,-0.0754],[38.7104,-0.0746],[38.6919,-0.0598],[38.688,-0.0647],[38.6832,-0.0669],[38.6578,-0.0599],[38.6478,-0.0663],[38.6405,-0.0666],[38.6118,-0.0431],[38.5961,-0.0461],[38.5911,-0.0439],[38.5851,-0.0379],[38.5757,-0.0361],[38.5709,-0.0281],[38.5733,-0.0202],[38.5795,-0.0164],[38.5896,-0.0162],[38.5956,-0.018],[38.6012,-0.0234],[38.613,-0.0205],[38.618,-0.021],[38.6446,-0.0427],[38.6512,-0.0383],[38.6564,-0.0371],[38.6769,-0.0434],[38.6836,-0.0347],[38.6917,-0.0331],[38.6965,-0.0354],[38.7185,-0.0537],[38.73,-0.0541],[38.7442,-0.061],[38.7534,-0.055],[38.7698,-0.0547],[38.7766,-0.0576],[38.7827,-0.0661],[38.7967,-0.0746],[38.8066,-0.0716],[38.8132,-0.0715],[38.8213,-0.0751],[38.83,-0.0749],[38.8378,-0.0781],[38.8456,-0.0787],[38.8515,-0.0817],[38.8579,-0.0786],[38.8671,-0.0783],[38.8735,-0.0806],[38.8784,-0.0853],[38.8918,-0.0868],[38.8931,-0.0861],[38.888,-0.0831],[38.8813,-0.0756],[38.8766,-0.0659],[38.8758,-0.0596],[38.8725,-0.0616],[38.8659,-0.0726],[38.8591,-0.0764],[38.8445,-0.0766],[38.8328,-0.0711],[38.8282,-0.0668],[38.8256,-0.061],[38.8266,-0.0437],[38.8427,-0.0526],[38.8567,-0.0503],[38.8859,-0.0534],[38.9105,-0.0428],[38.9163,-0.0495],[38.9163,-0.0421],[38.9278,-0.043],[38.9377,-0.0464],[38.9527,-0.0278],[38.9582,-0.0362],[38.9586,-0.0523],[38.9601,-0.053],[38.9602,-0.0417],[38.9623,-0.0357],[38.9668,-0.0306],[38.9741,-0.0277],[38.9868,-0.0292],[38.9925,-0.0339],[38.9966,-0.0413],[39.0085,-0.0442],[39.0215,-0.0345],[39.0263,-0.0329],[39.034,-0.0354],[39.0402,-0.0439],[39.0704,-0.0372],[39.0775,-0.0416],[39.091,-0.0651],[39.1026,-0.0554],[39.1202,-0.0556],[39.1277,-0.0613],[39.1307,-0.0699],[39.1397,-0.068],[39.142,-0.0715],[39.1532,-0.0795],[39.1687,-0.0813],[39.1871,-0.0891],[39.188,-0.0946],[39.1917,-0.0984],[39.204,-0.1008],[39.2086,-0.1052],[39.2112,-0.111],[39.2186,-0.1034],[39.2302,-0.1018],[39.2402,-0.1061],[39.2452,-0.1158],[39.2594,-0.1156],[39.2686,-0.1119],[39.2821,-0.1129],[39.293,-0.1186],[39.3015,-0.1287],[39.3071,-0.1287],[39.3117,-0.1244],[39.3176,-0.1222],[39.3321,-0.1228],[39.3388,-0.1271],[39.3428,-0.1349],[39.3469,-0.1388],[39.3563,-0.1399],[39.3637,-0.1456],[39.3876,-0.147],[39.3974,-0.1557],[39.4008,-0.1658],[39.4129,-0.17],[39.4304,-0.1702],[39.438,-0.1759],[39.4468,-0.1784],[39.4548,-0.186],[39.4618,-0.1875],[39.4725,-0.1934],[39.4783,-0.1996],[39.481,-0.2057],[39.4915,-0.216],[39.4954,-0.2235],[39.5007,-0.2256],[39.5054,-0.2299],[39.5142,-0.2323],[39.5246,-0.2422],[39.528,-0.2487],[39.5286,-0.2568],[39.5393,-0.2583],[39.5488,-0.2633],[39.5546,-0.2688],[39.5588,-0.2782],[39.5639,-0.2815],[39.5674,-0.2862],[39.569,-0.2973],[39.5788,-0.2984],[39.5859,-0.3037],[39.5918,-0.3184],[39.5997,-0.3243],[39.6028,-0.334],[39.6092,-0.344],[39.6218,-0.3533],[39.6293,-0.3672],[39.6365,-0.3745],[39.6433,-0.3855],[39.6468,-0.3957],[39.6499,-0.424],[39.6544,-0.441],[39.654,-0.4547],[39.6586,-0.462],[39.6601,-0.4687],[39.6644,-0.4743],[39.6731,-0.4794],[39.6836,-0.4923],[39.6972,-0.5026],[39.7004,-0.51],[39.7184,-0.5343],[39.7218,-0.544],[39.7267,-0.5513],[39.7403,-0.5578],[39.7463,-0.5639],[39.7503,-0.5715],[39.7585,-0.5763],[39.7649,-0.5839],[39.7755,-0.5873],[39.7823,-0.5944],[39.7916,-0.6004],[39.7977,-0.6159],[39.7983,-0.6283],[39.7959,-0.6361],[39.8088,-0.6446],[39.8206,-0.6468],[39.827,-0.6537],[39.8287,-0.6598],[39.8282,-0.6718],[39.8367,-0.6757],[39.8413,-0.6827],[39.8422,-0.6982],[39.845,-0.7039],[39.8456,-0.715],[39.8487,-0.7223],[39.8484,-0.7326],[39.8422,-0.7416],[39.8417,-0.7459],[39.8506,-0.7502],[39.856,-0.756],[39.8586,-0.7617],[39.859,-0.7927],[39.8636,-0.7978],[39.8657,-0.8048],[39.8654,-0.8163],[39.862,-0.8231],[39.863,-0.8304],[39.8691,-0.8331],[39.8737,-0.8382],[39.877,-0.8587],[39.8761,-0.8655],[39.884,-0.8696],[39.8884,-0.8766],[39.8892,-0.8844],[39.8863,-0.8956],[39.8877,-0.9013],[39.887,-0.9081],[39.9041,-0.9184],[39.9092,-0.927],[39.9088,-0.9393],[39.9008,-0.9516],[39.9016,-0.9573],[39.9062,-0.9619],[39.9091,-0.968],[39.9081,-0.9807],[39.9123,-0.9893],[39.9122,-0.9985],[39.9208,-1.0141],[39.9231,-1.0297],[39.9347,-1.0516],[39.9457,-1.0829],[39.9525,-1.0902],[39.9548,-1.1002],[39.9603,-1.1074],[39.9614,-1.1199],[39.9668,-1.1256],[39.9688,-1.1336],[39.9762,-1.1445],[39.9864,-1.1459],[39.9935,-1.1516],[39.9962,-1.1583],[39.9974,-1.1772],[40.0108,-1.1905],[40.014,-1.1982],[40.0273,-1.1987],[40.0326,-1.202],[40.0363,-1.2072],[40.0378,-1.2139],[40.0364,-1.234],[40.047,-1.2491],[40.0482,-1.2799],[40.0535,-1.2836]],[[38.922,-0.0751],[38.9264,-0.0777],[38.9265,-0.0691],[38.9215,-0.066],[38.922,-0.0751]]],[[[39.8943,-0.8247],[39.9043,-0.8394],[39.8972,-0.8323],[39.8943,-0.8247]]]]}},{"type":"Feature","properties":{"stage_m":7.0,"width_km":6.2,"area_km2":2008.7,"level":"Emergency"},"geometry":{"type":"MultiPolygon","coordinates":[[[[40.0663,-1.2439],[40.07,-1.259],[40.0668,-1.2521],[40.0663,-1.2439]]],[[[38.5927,-0.0167],[38.6012,-0.0234],[38.613,-0.0205],[38.619,-0.0213],[38.6446,-0.0427],[38.6512,-0.0383],[38.6564,-0.0371],[38.6769,-0.0434],[38.6828,-0.0353],[38.6907,-0.0329],[38.6956,-0.0347],[38.7185,-0.0537],[38.73,-0.0541],[38.7413,-0.0596],[38.7458,-0.055],[38.7526,-0.0519],[38.7721,-0.052],[38.7804,-0.0566],[38.7845,-0.0623],[38.7864,-0.0683],[38.7956,-0.0739],[38.8012,-0.07],[38.808,-0.0683],[38.8155,-0.0687],[38.8221,-0.0717],[38.8283,-0.0716],[38.824,-0.0659],[38.8222,-0.0599],[38.824,-0.0455],[38.8222,-0.0397],[38.8224,-0.03],[38.8358,-0.0336],[38.8455,-0.0387],[38.8569,-0.0377],[38.8836,-0.0404],[38.8955,-0.0345],[38.8994,-0.0345],[38.9067,-0.0363],[38.9131,-0.041],[38.9165,-0.0294],[38.9333,-0.0313],[38.9444,-0.0184],[38.9519,-0.0225],[38.9603,-0.0329],[38.965,-0.0281],[38.9713,-0.025],[38.9864,-0.0256],[38.9938,-0.0306],[39.0015,-0.0418],[39.0085,-0.0442],[39.0215,-0.0345],[39.0263,-0.0329],[39.034,-0.0354],[39.0402,-0.0439],[39.0662,-0.0374],[39.0715,-0.0374],[39.0775,-0.0416],[39.0893,-0.0621],[39.0961,-0.0554],[39.1015,-0.0524],[39.1208,-0.0524],[39.1287,-0.0576],[39.1331,-0.0655],[39.1459,-0.0654],[39.1523,-0.0682],[39.1617,-0.0695],[39.1696,-0.075],[39.1815,-0.0776],[39.1883,-0.0842],[39.1932,-0.0952],[39.2039,-0.0972],[39.2119,-0.1045],[39.2195,-0.0996],[39.2304,-0.0986],[39.2409,-0.1026],[39.2476,-0.1122],[39.2585,-0.1122],[39.2684,-0.1087],[39.2808,-0.1092],[39.2948,-0.1161],[39.3043,-0.1273],[39.3089,-0.1225],[39.3153,-0.1195],[39.3314,-0.1193],[39.3401,-0.124],[39.3483,-0.1357],[39.3573,-0.1369],[39.3652,-0.1424],[39.3821,-0.1425],[39.3894,-0.1444],[39.3996,-0.1534],[39.4034,-0.1628],[39.4129,-0.1667],[39.4315,-0.1672],[39.4394,-0.1728],[39.4484,-0.1757],[39.4562,-0.1829],[39.4631,-0.1846],[39.4735,-0.1902],[39.494,-0.2141],[39.4973,-0.2207],[39.5068,-0.2267],[39.5158,-0.2296],[39.5265,-0.2396],[39.5305,-0.2461],[39.5317,-0.2537],[39.5389,-0.2547],[39.5479,-0.259],[39.5569,-0.2666],[39.5617,-0.2761],[39.5696,-0.2836],[39.5722,-0.2941],[39.5811,-0.2959],[39.5885,-0.3018],[39.5942,-0.316],[39.6023,-0.3225],[39.6059,-0.3325],[39.6119,-0.3421],[39.625,-0.3522],[39.6322,-0.3657],[39.639,-0.3726],[39.6462,-0.3842],[39.6499,-0.395],[39.653,-0.4232],[39.6575,-0.4406],[39.6573,-0.4542],[39.6615,-0.4606],[39.6632,-0.4673],[39.6665,-0.4717],[39.6753,-0.4771],[39.6856,-0.4898],[39.6997,-0.5007],[39.7032,-0.5084],[39.7211,-0.5327],[39.7244,-0.5421],[39.729,-0.5485],[39.7434,-0.5563],[39.7527,-0.5691],[39.7605,-0.5739],[39.7665,-0.5808],[39.7771,-0.5846],[39.7933,-0.5975],[39.8008,-0.615],[39.8015,-0.6279],[39.7999,-0.6348],[39.8103,-0.6415],[39.8193,-0.6427],[39.8267,-0.6477],[39.8313,-0.6564],[39.8318,-0.6693],[39.8388,-0.6733],[39.8434,-0.6793],[39.8452,-0.6853],[39.8453,-0.6972],[39.8482,-0.7037],[39.8487,-0.714],[39.8521,-0.7243],[39.851,-0.7346],[39.8452,-0.7435],[39.857,-0.7522],[39.8615,-0.7605],[39.8622,-0.7912],[39.867,-0.7974],[39.8689,-0.8047],[39.8687,-0.8158],[39.8655,-0.8237],[39.8662,-0.828],[39.8725,-0.8318],[39.8771,-0.8378],[39.8789,-0.8438],[39.8799,-0.8633],[39.8866,-0.8677],[39.8914,-0.8756],[39.8924,-0.8841],[39.8896,-0.8954],[39.8907,-0.906],[39.9066,-0.9164],[39.9121,-0.9257],[39.9117,-0.9403],[39.9041,-0.9518],[39.9047,-0.9557],[39.912,-0.9667],[39.9115,-0.9806],[39.9153,-0.9884],[39.9155,-0.9977],[39.924,-1.0135],[39.9263,-1.029],[39.9376,-1.0504],[39.9487,-1.0812],[39.9553,-1.0886],[39.958,-1.0989],[39.963,-1.1057],[39.9648,-1.1185],[39.9695,-1.1241],[39.9719,-1.1323],[39.9784,-1.1416],[39.9888,-1.1435],[39.9961,-1.1498],[39.9993,-1.1577],[40.0002,-1.1756],[40.0125,-1.1876],[40.0164,-1.1946],[40.0247,-1.1947],[40.0313,-1.1971],[40.0361,-1.2011],[40.0399,-1.2076],[40.0399,-1.2336],[40.05,-1.2481],[40.0515,-1.278],[40.0563,-1.282],[40.0599,-1.288],[40.0605,-1.3065],[40.0658,-1.3131],[40.0658,-1.3374],[40.061,-1.3434],[40.0667,-1.3521],[40.0679,-1.3648],[40.0744,-1.3799],[40.0746,-1.4006],[40.0727,-1.4078],[40.0771,-1.4224],[40.0742,-1.434],[40.0873,-1.4558],[40.0875,-1.4635],[40.0849,-1.4705],[40.0869,-1.4768],[40.0866,-1.4838],[40.0943,-1.4961],[40.0938,-1.5102],[40.099,-1.5172],[40.1013,-1.5272],[40.1081,-1.533],[40.1117,-1.5437],[40.1178,-1.5513],[40.1218,-1.57],[40.1336,-1.5903],[40.1418,-1.6154],[40.1409,-1.6287],[40.1439,-1.6375],[40.1443,-1.6451],[40.1412,-1.6568],[40.1419,-1.6751],[40.1378,-1.6847],[40.1382,-1.6875],[40.1446,-1.6908],[40.1496,-1.6965],[40.1545,-1.7067],[40.157,-1.7206],[40.155,-1.7377],[40.1522,-1.7442],[40.1515,-1.7551],[40.1454,-1.7649],[40.1445,-1.7696],[40.1543,-1.7748],[40.1617,-1.7821],[40.1678,-1.7938],[40.169,-1.8],[40.1671,-1.8159],[40.1625,-1.822],[40.1515,-1.8295],[40.1501,-1.8358],[40.1539,-1.8423],[40.1562,-1.8524],[40.1653,-1.8437],[40.1798,-1.8421],[40.1899,-1.8471],[40.196,-1.8533],[40.1981,-1.8606],[40.1995,-1.8719],[40.1979,-1.8843],[40.183,-1.8932],[40.1658,-1.8943],[40.1642,-1.9004],[40.1664,-1.9052],[40.1754,-1.9058],[40.1834,-1.9098],[40.1892,-1.9171],[40.1914,-1.9229],[40.1897,-1.9355],[40.1839,-1.9426],[40.1761,-1.9461],[40.1741,-1.9586],[40.1811,-1.9713],[40.1816,-1.9821],[40.1938,-1.9905],[40.208,-1.9919],[40.2081,-1.9768],[40.2107,-1.9694],[40.212,-1.9815],[40.2107,-1.9931],[40.2284,-2.0259],[40.2317,-2.0365],[40.2325,-2.0743],[40.2251,-2.0763],[40.2141,-2.0761],[40.2075,-2.0737],[40.202,-2.0689],[40.1957,-2.0696],[40.1911,-2.0752],[40.1852,-2.0787],[40.1837,-2.083],[40.1837,-2.1029],[40.1881,-2.1128],[40.1842,-2.1212],[40.1784,-2.1237],[40.1723,-2.1224],[40.163,-2.1104],[40.1621,-2.0812],[40.1636,-2.0751],[40.1551,-2.0656],[40.1538,-2.0593],[40.1564,-2.0532],[40.1482,-2.0442],[40.1441,-2.0347],[40.1439,-2.0177],[40.1413,-2.0021],[40.1436,-1.9895],[40.1402,-1.9793],[40.1286,-1.9745],[40.1225,-1.9643],[40.1222,-1.9499],[40.1252,-1.9326],[40.1228,-1.9044],[40.1239,-1.8807],[40.1226,-1.8766],[40.1132,-1.8689],[40.1035,-1.8485],[40.099,-1.8289],[40.0982,-1.8078],[40.0949,-1.7853],[40.094,-1.756],[40.101,-1.7293],[40.096,-1.7138],[40.0936,-1.6968],[40.0957,-1.6584],[40.094,-1.6337],[40.092,-1.6264],[40.0739,-1.6081],[40.0587,-1.5838],[40.0487,-1.556],[40.0434,-1.5291],[40.0347,-1.5164],[40.025,-1.4906],[40.0201,-1.4543],[39.9989,-1.3603],[39.9893,-1.3383],[39.986,-1.3247],[39.9851,-1.2986],[39.9923,-1.2636],[39.9847,-1.2368],[39.9801,-1.2275],[39.9628,-1.2049],[39.9526,-1.1882],[39.9389,-1.1502],[39.9288,-1.144],[39.9217,-1.1364],[39.9205,-1.1312],[39.921,-1.1155],[39.9101,-1.0961],[39.8909,-1.055],[39.88,-1.0381],[39.8741,-1.0254],[39.8703,-1.0071],[39.8705,-0.9936],[39.8735,-0.9793],[39.8714,-0.9727],[39.8629,-0.9603],[39.861,-0.9463],[39.8535,-0.9378],[39.8453,-0.9233],[39.8401,-0.9057],[39.8388,-0.8888],[39.8415,-0.8769],[39.8392,-0.8676],[39.8399,-0.8577],[39.837,-0.8464],[39.832,-0.8423],[39.8284,-0.8364],[39.8269,-0.8291],[39.8282,-0.8219],[39.8236,-0.811],[39.814,-0.8042],[39.8002,-0.7806],[39.7983,-0.7613],[39.8022,-0.7504],[39.7949,-0.7297],[39.7939,-0.7145],[39.7858,-0.7001],[39.786,-0.6887],[39.7645,-0.6579],[39.7632,-0.6507],[39.7585,-0.642],[39.7561,-0.6249],[39.7331,-0.6103],[39.7105,-0.6079],[39.7052,-0.6087],[39.7003,-0.6069],[39.6758,-0.5848],[39.6685,-0.5734],[39.6614,-0.5577],[39.6543,-0.5571],[39.648,-0.5542],[39.6377,-0.5405],[39.6279,-0.5361],[39.6199,-0.5288],[39.6168,-0.5219],[39.6159,-0.5121],[39.6105,-0.5023],[39.6004,-0.495],[39.5944,-0.4757],[39.5826,-0.4651],[39.5786,-0.4587],[39.5775,-0.4465],[39.5726,-0.4402],[39.5707,-0.4328],[39.5707,-0.4102],[39.5732,-0.4018],[39.5648,-0.391],[39.5621,-0.3839],[39.5624,-0.3501],[39.5456,-0.3319],[39.5338,-0.3107],[39.5297,-0.3093],[39.5256,-0.3146],[39.5199,-0.317],[39.5113,-0.3141],[39.5041,-0.2961],[39.5049,-0.289],[39.4979,-0.2866],[39.4931,-0.2826],[39.481,-0.2605],[39.4619,-0.2459],[39.4528,-0.2337],[39.4338,-0.2211],[39.4205,-0.21],[39.3954,-0.2081],[39.3756,-0.2003],[39.3647,-0.1932],[39.3507,-0.1792],[39.3441,-0.1789],[39.3338,-0.1738],[39.3082,-0.1552],[39.304,-0.1504],[39.3005,-0.1504],[39.2905,-0.1561],[39.2674,-0.1577],[39.2333,-0.1544],[39.2269,-0.1506],[39.2122,-0.1545],[39.191,-0.155],[39.1736,-0.1523],[39.1482,-0.143],[39.1421,-0.1392],[39.1334,-0.1391],[39.1243,-0.1353],[39.1161,-0.1273],[39.1051,-0.1227],[39.089,-0.1062],[39.0857,-0.0994],[39.0851,-0.0904],[39.0767,-0.0834],[39.0635,-0.0604],[39.0358,-0.0671],[39.0296,-0.0654],[39.0244,-0.0593],[39.0132,-0.0668],[39.0034,-0.0654],[38.9994,-0.0706],[38.9905,-0.0771],[38.98,-0.0802],[38.9506,-0.1063],[38.9459,-0.1086],[38.924,-0.1083],[38.9195,-0.1056],[38.9151,-0.0994],[38.8966,-0.1084],[38.8808,-0.1074],[38.8752,-0.1127],[38.8682,-0.1154],[38.8573,-0.1148],[38.8505,-0.1117],[38.843,-0.1139],[38.8299,-0.1138],[38.8196,-0.1121],[38.812,-0.1081],[38.8026,-0.1061],[38.7961,-0.1019],[38.7918,-0.0961],[38.7773,-0.0882],[38.7601,-0.0933],[38.7503,-0.0923],[38.7443,-0.0887],[38.74,-0.0831],[38.7246,-0.0754],[38.7095,-0.0741],[38.6919,-0.0598],[38.688,-0.0647],[38.6821,-0.0671],[38.6578,-0.0599],[38.6468,-0.0667],[38.6395,-0.0662],[38.6118,-0.0431],[38.5961,-0.0461],[38.5911,-0.0439],[38.5851,-0.0379],[38.5785,-0.0375],[38.574,-0.0348],[38.5709,-0.0271],[38.574,-0.0194],[38.5806,-0.0163],[38.5927,-0.0167]],[[38.887,-0.0862],[38.8797,-0.0788],[38.8734,-0.0661],[38.8678,-0.0752],[38.8763,-0.0786],[38.8823,-0.0857],[38.887,-0.0862]]],[[[39.9075,-0.8205],[39.9158,-0.8343],[39.9198,-0.8489],[39.9035,-0.8427],[39.893,-0.8313],[39.8912,-0.8254],[39.8912,-0.8163],[39.8972,-0.8052],[39.8999,-0.8125],[39.9075,-0.8205]]]]}},{"type":"Feature","properties":{"stage_m":7.5,"width_km":8.0,"area_km2":2361.0,"level":"Emergency"},"geometry":{"type":"MultiPolygon","coordinates":[[[[40.0838,-1.2451],[40.0863,-1.2588],[40.0852,-1.2776],[40.0772,-1.2747],[40.0719,-1.2704],[40.0629,-1.2531],[40.0623,-1.2434],[40.0637,-1.2361],[40.067,-1.23],[40.0742,-1.2228],[40.0838,-1.2451]]],[[[38.5917,-0.0164],[38.6012,-0.0234],[38.613,-0.0205],[38.619,-0.0213],[38.6446,-0.0427],[38.6512,-0.0383],[38.6564,-0.0371],[38.6769,-0.0434],[38.6828,-0.0353],[38.6896,-0.0329],[38.6956,-0.0347],[38.7185,-0.0537],[38.7291,-0.0539],[38.7377,-0.0578],[38.7434,-0.0518],[38.7511,-0.0481],[38.7731,-0.0481],[38.7794,-0.0508],[38.7858,-0.0566],[38.792,-0.0718],[38.8038,-0.0648],[38.8125,-0.0642],[38.8196,-0.0658],[38.818,-0.0582],[38.8196,-0.0455],[38.8183,-0.03],[38.8215,-0.0214],[38.8281,-0.0144],[38.8488,-0.0218],[38.8807,-0.0236],[38.8918,-0.0184],[38.8951,-0.0304],[38.9041,-0.0311],[38.9101,-0.0335],[38.9135,-0.0267],[38.9203,-0.0195],[38.9321,-0.0139],[38.9423,-0.0138],[38.9489,-0.0157],[38.961,-0.0261],[38.9708,-0.021],[38.9833,-0.0206],[38.9955,-0.0266],[39.0085,-0.0442],[39.0215,-0.0345],[39.0263,-0.0329],[39.034,-0.0354],[39.0402,-0.0439],[39.0672,-0.0372],[39.0725,-0.0377],[39.0775,-0.0416],[39.0871,-0.0583],[39.0936,-0.0521],[39.1001,-0.0486],[39.1069,-0.0473],[39.1205,-0.0481],[39.13,-0.0532],[39.1357,-0.0609],[39.1452,-0.0611],[39.1609,-0.0649],[39.1713,-0.0709],[39.1836,-0.0741],[39.1908,-0.0806],[39.195,-0.0911],[39.2052,-0.0933],[39.2126,-0.0987],[39.2204,-0.0951],[39.2306,-0.0945],[39.2429,-0.099],[39.2503,-0.108],[39.2575,-0.108],[39.2682,-0.1047],[39.2818,-0.1053],[39.2954,-0.1115],[39.3049,-0.1205],[39.3165,-0.115],[39.3346,-0.116],[39.3428,-0.121],[39.35,-0.1316],[39.3587,-0.1331],[39.3669,-0.1383],[39.3841,-0.1386],[39.3927,-0.1416],[39.4029,-0.151],[39.4069,-0.1593],[39.4138,-0.1623],[39.4307,-0.1627],[39.4485,-0.1711],[39.4582,-0.179],[39.4648,-0.1809],[39.4773,-0.1881],[39.5005,-0.2174],[39.5212,-0.2286],[39.5313,-0.2391],[39.5356,-0.2498],[39.5424,-0.2518],[39.5549,-0.2589],[39.5617,-0.2661],[39.5652,-0.2734],[39.5718,-0.2796],[39.576,-0.2903],[39.5849,-0.2933],[39.5917,-0.2994],[39.5972,-0.3129],[39.6055,-0.32],[39.6154,-0.3397],[39.6282,-0.3498],[39.6357,-0.3633],[39.6423,-0.3702],[39.6499,-0.3825],[39.6538,-0.394],[39.6571,-0.4225],[39.6616,-0.4401],[39.6615,-0.4532],[39.667,-0.4654],[39.6779,-0.474],[39.6882,-0.4865],[39.703,-0.4983],[39.7069,-0.5063],[39.7245,-0.5306],[39.7279,-0.5398],[39.7318,-0.5451],[39.7461,-0.5532],[39.7558,-0.5661],[39.7636,-0.5712],[39.7684,-0.5769],[39.7791,-0.5811],[39.7963,-0.5947],[39.8044,-0.6126],[39.8049,-0.6326],[39.812,-0.6374],[39.8227,-0.6398],[39.8296,-0.6449],[39.8351,-0.6549],[39.8359,-0.6666],[39.8419,-0.6706],[39.847,-0.6776],[39.8492,-0.6847],[39.8494,-0.696],[39.8561,-0.7236],[39.8555,-0.7338],[39.8517,-0.742],[39.8604,-0.7498],[39.865,-0.7578],[39.8662,-0.7894],[39.8706,-0.7956],[39.8727,-0.8022],[39.8728,-0.8158],[39.87,-0.8252],[39.8756,-0.8291],[39.8807,-0.8361],[39.8829,-0.8432],[39.8842,-0.8609],[39.891,-0.8665],[39.8952,-0.8744],[39.8965,-0.8827],[39.8939,-0.8954],[39.895,-0.9035],[39.9093,-0.9134],[39.916,-0.9247],[39.916,-0.94],[39.9133,-0.9464],[39.9083,-0.9521],[39.9158,-0.9655],[39.9159,-0.9798],[39.9192,-0.9873],[39.9197,-0.9967],[39.9278,-1.0122],[39.9303,-1.0277],[39.9414,-1.0488],[39.9526,-1.0793],[39.959,-1.087],[39.962,-1.0971],[39.9667,-1.1041],[39.969,-1.1168],[39.9738,-1.1237],[39.9758,-1.1306],[39.9807,-1.1375],[39.9911,-1.1401],[39.9997,-1.148],[40.0033,-1.1569],[40.0048,-1.1754],[40.0151,-1.1844],[40.0191,-1.1904],[40.0275,-1.1912],[40.0357,-1.1952],[40.0435,-1.2057],[40.0449,-1.213],[40.0443,-1.233],[40.0538,-1.2467],[40.0554,-1.2757],[40.0637,-1.2867],[40.0649,-1.3051],[40.0696,-1.3115],[40.0716,-1.3181],[40.0713,-1.334],[40.0664,-1.3437],[40.0706,-1.3512],[40.0719,-1.3636],[40.0784,-1.3788],[40.0786,-1.4003],[40.0771,-1.4078],[40.0812,-1.4221],[40.079,-1.4334],[40.0912,-1.4549],[40.0917,-1.4624],[40.0894,-1.4706],[40.0909,-1.4828],[40.0981,-1.4946],[40.0984,-1.5089],[40.1027,-1.5156],[40.105,-1.5246],[40.1123,-1.5321],[40.1156,-1.5417],[40.1215,-1.5496],[40.1257,-1.5681],[40.1372,-1.5885],[40.1458,-1.6148],[40.1451,-1.6287],[40.1479,-1.6365],[40.1483,-1.6452],[40.1453,-1.6565],[40.1459,-1.6757],[40.1426,-1.6849],[40.1487,-1.689],[40.1539,-1.6959],[40.1588,-1.707],[40.1611,-1.7204],[40.1555,-1.756],[40.1491,-1.7676],[40.1571,-1.7718],[40.165,-1.7797],[40.1716,-1.7925],[40.1731,-1.7998],[40.1729,-1.8106],[40.1707,-1.8177],[40.1652,-1.825],[40.1551,-1.8318],[40.1544,-1.8349],[40.1584,-1.8433],[40.1652,-1.8393],[40.1719,-1.8379],[40.1804,-1.8381],[40.1885,-1.841],[40.2021,-1.8539],[40.2065,-1.8644],[40.2055,-1.8791],[40.1989,-1.8891],[40.1843,-1.8971],[40.1691,-1.8983],[40.1692,-1.9012],[40.1785,-1.9025],[40.1865,-1.9071],[40.1928,-1.9152],[40.1956,-1.9238],[40.1933,-1.9374],[40.188,-1.9445],[40.1804,-1.9491],[40.1786,-1.9583],[40.1849,-1.97],[40.186,-1.9798],[40.1953,-1.9863],[40.2039,-1.9865],[40.2042,-1.9756],[40.2074,-1.967],[40.215,-1.9593],[40.2236,-1.9561],[40.2279,-1.9746],[40.2276,-1.9901],[40.2433,-2.0196],[40.2475,-2.0332],[40.2488,-2.073],[40.2428,-2.0707],[40.2341,-2.0781],[40.2239,-2.0804],[40.2112,-2.0797],[40.2005,-2.0734],[40.1979,-2.0737],[40.1917,-2.0798],[40.1837,-2.0836],[40.1837,-2.1029],[40.1881,-2.1128],[40.185,-2.1205],[40.1794,-2.1235],[40.1732,-2.1229],[40.169,-2.1198],[40.163,-2.1104],[40.1623,-2.0794],[40.1548,-2.0703],[40.152,-2.0551],[40.1444,-2.0457],[40.1404,-2.0369],[40.1385,-2.0109],[40.1401,-1.9915],[40.1366,-1.9829],[40.1292,-1.98],[40.1227,-1.9742],[40.1182,-1.9636],[40.1181,-1.9496],[40.1212,-1.9327],[40.1188,-1.9045],[40.1197,-1.8809],[40.1108,-1.8725],[40.1028,-1.8578],[40.095,-1.8294],[40.0896,-1.7599],[40.0918,-1.7449],[40.0967,-1.7292],[40.0921,-1.7147],[40.0895,-1.6971],[40.0916,-1.6583],[40.09,-1.6344],[40.0885,-1.6287],[40.0707,-1.6106],[40.055,-1.5854],[40.0448,-1.557],[40.0395,-1.5311],[40.0276,-1.5108],[40.0211,-1.4917],[40.0162,-1.4551],[39.9948,-1.359],[39.9872,-1.3442],[39.982,-1.3254],[39.981,-1.2981],[39.988,-1.2638],[39.9807,-1.2383],[39.9764,-1.2294],[39.9594,-1.2071],[39.949,-1.1901],[39.9346,-1.1492],[39.9217,-1.1364],[39.9205,-1.1233],[39.9185,-1.1191],[39.9091,-1.1032],[39.8873,-1.0568],[39.8765,-1.0401],[39.8704,-1.0268],[39.8663,-1.0073],[39.8664,-0.9939],[39.8692,-0.9796],[39.8633,-0.9675],[39.8572,-0.9483],[39.8501,-0.9399],[39.8416,-0.9248],[39.8363,-0.9073],[39.8348,-0.8894],[39.8373,-0.8773],[39.8352,-0.8679],[39.8358,-0.8586],[39.833,-0.8486],[39.8275,-0.8431],[39.8241,-0.8364],[39.8237,-0.8227],[39.82,-0.8139],[39.8105,-0.8062],[39.7984,-0.7839],[39.7943,-0.7636],[39.7976,-0.7501],[39.791,-0.7308],[39.7896,-0.7157],[39.7819,-0.7011],[39.7815,-0.6899],[39.7607,-0.6594],[39.7547,-0.6435],[39.7521,-0.6275],[39.7319,-0.6145],[39.7088,-0.6116],[39.6881,-0.6018],[39.6713,-0.5856],[39.6646,-0.5747],[39.6596,-0.5617],[39.6517,-0.5605],[39.6457,-0.5575],[39.64,-0.5519],[39.6355,-0.5441],[39.6253,-0.5392],[39.6167,-0.5312],[39.613,-0.5234],[39.6121,-0.5139],[39.6073,-0.5054],[39.5972,-0.4974],[39.594,-0.4913],[39.5911,-0.4786],[39.5792,-0.4674],[39.5748,-0.46],[39.5734,-0.4481],[39.569,-0.4419],[39.5668,-0.4348],[39.5666,-0.4105],[39.5684,-0.4025],[39.561,-0.3926],[39.5581,-0.3845],[39.558,-0.3518],[39.5423,-0.3343],[39.5308,-0.3139],[39.5274,-0.3127],[39.5239,-0.3158],[39.5189,-0.3171],[39.5113,-0.3141],[39.5085,-0.3097],[39.5035,-0.2929],[39.4958,-0.2901],[39.4901,-0.2853],[39.478,-0.2635],[39.4591,-0.2488],[39.4502,-0.237],[39.4188,-0.2141],[39.3945,-0.212],[39.3737,-0.2039],[39.362,-0.1963],[39.3476,-0.1819],[39.34,-0.18],[39.325,-0.1721],[39.302,-0.1546],[39.2914,-0.16],[39.2676,-0.1617],[39.245,-0.1604],[39.2309,-0.1536],[39.218,-0.1567],[39.2104,-0.1562],[39.202,-0.1591],[39.1907,-0.1591],[39.1726,-0.1562],[39.1409,-0.1436],[39.1323,-0.143],[39.1225,-0.139],[39.1137,-0.1311],[39.1025,-0.1258],[39.0858,-0.1086],[39.0817,-0.0999],[39.0813,-0.0875],[39.0767,-0.0834],[39.0635,-0.0604],[39.0347,-0.0671],[39.0287,-0.0647],[39.0244,-0.0593],[39.0151,-0.066],[39.0073,-0.0666],[39.002,-0.0737],[38.9906,-0.0817],[38.9769,-0.0842],[38.9668,-0.0963],[38.9459,-0.1086],[38.924,-0.1083],[38.9195,-0.1056],[38.9151,-0.0994],[38.8966,-0.1084],[38.8852,-0.1079],[38.8792,-0.1149],[38.8705,-0.119],[38.8585,-0.1192],[38.8502,-0.1163],[38.8428,-0.118],[38.8294,-0.1178],[38.8169,-0.1155],[38.7975,-0.108],[38.7907,-0.102],[38.7867,-0.0938],[38.7811,-0.0905],[38.7746,-0.0939],[38.7602,-0.0974],[38.7473,-0.0954],[38.7396,-0.0897],[38.7346,-0.0805],[38.7246,-0.0754],[38.7095,-0.0741],[38.6919,-0.0598],[38.688,-0.0647],[38.6821,-0.0671],[38.6578,-0.0599],[38.6468,-0.0667],[38.6395,-0.0662],[38.6118,-0.0431],[38.5961,-0.0461],[38.5911,-0.0439],[38.5851,-0.0379],[38.5785,-0.0375],[38.574,-0.0348],[38.5709,-0.0271],[38.574,-0.0194],[38.5795,-0.0164],[38.5917,-0.0164]]],[[[39.9241,-0.8156],[39.9331,-0.8344],[39.9361,-0.8495],[39.934,-0.8507],[39.9247,-0.853],[39.9123,-0.8516],[39.8996,-0.8449],[39.8893,-0.8331],[39.887,-0.8237],[39.8884,-0.8112],[39.8932,-0.8034],[39.9035,-0.7949],[39.9098,-0.7928],[39.9138,-0.8035],[39.9241,-0.8156]]]]}}]}