{"type":"FeatureCollection","features":[{"type":"Feature","properties":{"layer":"flood_2023_town","label":"UNOSAT Sentinel-2 26 Nov 2023 – Garissa City (El Niño)","date":"2023-11-26","area_ha":4570,"pop_exposed_worldpop":19001},"geometry":{"type":"MultiPolygon","coordinates":[[[[39.6291,-0.4765],[39.6302,-0.4753],[39.6311,-0.4767],[39.6331,-0.4753],[39.6326,-0.475],[39.6316,-0.4752],[39.6319,-0.4756],[39.6314,-0.4762],[39.6306,-0.475],[39.6323,-0.4739],[39.6333,-0.4746],[39.6326,-0.4737],[39.6363,-0.4701],[39.6374,-0.4668],[39.6368,-0.4671],[39.6373,-0.4658],[39.6371,-0.4641],[39.6381,-0.4638],[39.639,-0.4645],[39.6395,-0.4661],[39.6401,-0.4651],[39.6416,-0.4655],[39.6405,-0.4681],[39.6422,-0.473],[39.6417,-0.4738],[39.64,-0.4737],[39.6392,-0.4752],[39.6395,-0.4764],[39.6415,-0.477],[39.642,-0.478],[39.6429,-0.4777],[39.6433,-0.4795],[39.6465,-0.48],[39.6483,-0.4817],[39.6497,-0.4812],[39.6491,-0.484],[39.6513,-0.4861],[39.6504,-0.4886],[39.6528,-0.4915],[39.6545,-0.4915],[39.6556,-0.4892],[39.6557,-0.4901],[39.6571,-0.4896],[39.6568,-0.4915],[39.6585,-0.4901],[39.6615,-0.4906],[39.6615,-0.4917],[39.6623,-0.4916],[39.663,-0.4932],[39.6623,-0.4961],[39.6644,-0.4975],[39.6625,-0.4996],[39.6634,-0.5008],[39.6631,-0.5013],[39.6641,-0.5009],[39.6651,-0.5024],[39.6652,-0.4994],[39.6673,-0.4992],[39.6701,-0.5013],[39.6727,-0.5049],[39.6805,-0.5094],[39.6829,-0.5133],[39.6839,-0.5181],[39.6858,-0.5198],[39.6856,-0.5219],[39.6862,-0.5214],[39.6901,-0.5226],[39.6917,-0.5265],[39.6637,-0.5265],[39.6612,-0.5228],[39.6586,-0.5239],[39.6571,-0.5264],[39.6552,-0.5264],[39.6525,-0.524],[39.6518,-0.5158],[39.6493,-0.5139],[39.6467,-0.5148],[39.6458,-0.5184],[39.6444,-0.5198],[39.6385,-0.5189],[39.6366,-0.5158],[39.6367,-0.5138],[39.6399,-0.5127],[39.6409,-0.5139],[39.6413,-0.5133],[39.6424,-0.5151],[39.642,-0.5136],[39.6429,-0.5141],[39.6427,-0.5125],[39.6413,-0.5108],[39.6443,-0.5079],[39.6446,-0.508],[39.645,-0.5098],[39.6429,-0.5113],[39.6448,-0.5129],[39.6447,-0.5111],[39.647,-0.5108],[39.6472,-0.5084],[39.6491,-0.5064],[39.6477,-0.506],[39.6473,-0.5048],[39.6482,-0.5047],[39.6466,-0.5039],[39.647,-0.501],[39.6458,-0.501],[39.6453,-0.5001],[39.6444,-0.501],[39.6436,-0.4996],[39.6451,-0.4996],[39.6452,-0.4975],[39.6437,-0.4975],[39.6435,-0.4993],[39.6402,-0.4988],[39.636,-0.4998],[39.6329,-0.4986],[39.6332,-0.4974],[39.6309,-0.4974],[39.6303,-0.4945],[39.6308,-0.4927],[39.6314,-0.4923],[39.6309,-0.4919],[39.631,-0.4908],[39.6322,-0.4884],[39.6325,-0.4848],[39.6277,-0.4811],[39.6291,-0.4765]],[[39.6293,-0.4763],[39.6296,-0.4769],[39.6298,-0.4763],[39.6293,-0.4763]],[[39.6422,-0.5103],[39.6419,-0.5106],[39.6422,-0.5105],[39.6422,-0.5103]],[[39.6419,-0.5107],[39.6418,-0.5106],[39.6418,-0.5107],[39.6419,-0.5107]],[[39.6472,-0.5097],[39.6473,-0.51],[39.6474,-0.5097],[39.6472,-0.5097]],[[39.6471,-0.503],[39.6471,-0.5038],[39.6482,-0.5035],[39.6481,-0.5028],[39.6471,-0.503]],[[39.6459,-0.4999],[39.6477,-0.5006],[39.6477,-0.4995],[39.6459,-0.4999]],[[39.6897,-0.5246],[39.69,-0.5251],[39.69,-0.5244],[39.6897,-0.5246]],[[39.6897,-0.5256],[39.6896,-0.5252],[39.6894,-0.5256],[39.6897,-0.5256]],[[39.6887,-0.5243],[39.6888,-0.5238],[39.6884,-0.524],[39.6887,-0.5243]],[[39.6887,-0.5227],[39.6884,-0.5231],[39.6888,-0.523],[39.6887,-0.5227]],[[39.6863,-0.5243],[39.6867,-0.5237],[39.6864,-0.5235],[39.6863,-0.5243]],[[39.6866,-0.5231],[39.686,-0.5234],[39.6866,-0.5232],[39.6866,-0.5231]],[[39.6799,-0.5118],[39.6814,-0.5153],[39.681,-0.5163],[39.6832,-0.5187],[39.6815,-0.5205],[39.6824,-0.5203],[39.6835,-0.5184],[39.6799,-0.5118]],[[39.6796,-0.5117],[39.6798,-0.5116],[39.6796,-0.5115],[39.6796,-0.5117]],[[39.6822,-0.5153],[39.6825,-0.515],[39.6822,-0.515],[39.6822,-0.5153]],[[39.6812,-0.5208],[39.6801,-0.5214],[39.6801,-0.5216],[39.6812,-0.5208]],[[39.6812,-0.5206],[39.6813,-0.5207],[39.6813,-0.5206],[39.6812,-0.5206]],[[39.6813,-0.5205],[39.6814,-0.5206],[39.6814,-0.5205],[39.6813,-0.5205]],[[39.6803,-0.516],[39.6802,-0.5161],[39.6803,-0.5161],[39.6803,-0.516]],[[39.68,-0.5101],[39.68,-0.5102],[39.68,-0.5102],[39.68,-0.5101]],[[39.6796,-0.5131],[39.6795,-0.5132],[39.6796,-0.5132],[39.6796,-0.5131]],[[39.6794,-0.522],[39.6795,-0.5221],[39.6795,-0.522],[39.6794,-0.522]],[[39.6794,-0.5222],[39.6793,-0.5221],[39.6793,-0.5222],[39.6794,-0.5222]],[[39.6792,-0.5111],[39.6793,-0.5108],[39.6791,-0.5108],[39.6792,-0.5111]],[[39.6791,-0.5103],[39.6744,-0.5134],[39.6732,-0.5152],[39.6791,-0.5103]],[[39.6785,-0.513],[39.6785,-0.5126],[39.6783,-0.513],[39.6785,-0.513]],[[39.6762,-0.5159],[39.6763,-0.5168],[39.6773,-0.5142],[39.6776,-0.5152],[39.6787,-0.5145],[39.6773,-0.5127],[39.6755,-0.5141],[39.6762,-0.5159]],[[39.6762,-0.516],[39.6761,-0.5159],[39.6761,-0.516],[39.6762,-0.516]],[[39.678,-0.519],[39.6778,-0.5189],[39.6777,-0.5191],[39.678,-0.519]],[[39.6771,-0.5233],[39.6762,-0.5215],[39.677,-0.5212],[39.6755,-0.5203],[39.676,-0.5195],[39.6766,-0.5197],[39.6767,-0.5184],[39.6753,-0.5176],[39.674,-0.5179],[39.6726,-0.5158],[39.6724,-0.5165],[39.6771,-0.5233]],[[39.6775,-0.5234],[39.6773,-0.5236],[39.6776,-0.5236],[39.6779,-0.5232],[39.6775,-0.5234]],[[39.6773,-0.5153],[39.6773,-0.5154],[39.6773,-0.5154],[39.6773,-0.5153]],[[39.6762,-0.5171],[39.6761,-0.5172],[39.6762,-0.5172],[39.6762,-0.5171]],[[39.6751,-0.5156],[39.6758,-0.5153],[39.6753,-0.5144],[39.6746,-0.5147],[39.6751,-0.5156]],[[39.6753,-0.5085],[39.6755,-0.5086],[39.6755,-0.5085],[39.6753,-0.5085]],[[39.6746,-0.5088],[39.6749,-0.509],[39.6749,-0.5088],[39.6746,-0.5088]],[[39.674,-0.5155],[39.6749,-0.516],[39.674,-0.5152],[39.674,-0.5155]],[[39.6744,-0.5108],[39.6745,-0.5107],[39.6744,-0.5107],[39.6744,-0.5108]],[[39.6744,-0.5171],[39.6739,-0.5173],[39.6744,-0.5172],[39.6744,-0.5171]],[[39.6733,-0.5159],[39.6742,-0.5166],[39.6734,-0.5156],[39.6733,-0.5159]],[[39.673,-0.5194],[39.6738,-0.5186],[39.6732,-0.5188],[39.6726,-0.5188],[39.6729,-0.5176],[39.672,-0.5168],[39.6711,-0.5178],[39.6714,-0.5201],[39.672,-0.5202],[39.673,-0.5194]],[[39.6731,-0.5081],[39.6737,-0.5077],[39.6732,-0.5076],[39.6731,-0.5081]],[[39.6734,-0.5108],[39.6736,-0.5108],[39.6734,-0.5108],[39.6734,-0.5108]],[[39.673,-0.5154],[39.6731,-0.5153],[39.673,-0.5153],[39.673,-0.5154]],[[39.6728,-0.5082],[39.6729,-0.5081],[39.6728,-0.5081],[39.6728,-0.5082]],[[39.6726,-0.5125],[39.6723,-0.5127],[39.6726,-0.5128],[39.6726,-0.5125]],[[39.6711,-0.5117],[39.6712,-0.5119],[39.6713,-0.5117],[39.6711,-0.5117]],[[39.6706,-0.5106],[39.671,-0.5102],[39.6706,-0.5102],[39.6706,-0.5106]],[[39.6705,-0.5073],[39.6708,-0.5072],[39.6706,-0.5072],[39.6705,-0.5073]],[[39.6707,-0.5177],[39.6704,-0.5179],[39.6707,-0.5179],[39.6707,-0.5177]],[[39.6703,-0.5108],[39.6705,-0.5091],[39.6698,-0.509],[39.6694,-0.5106],[39.6703,-0.5108]],[[39.6704,-0.511],[39.67,-0.5114],[39.6705,-0.5113],[39.6704,-0.511]],[[39.6703,-0.5177],[39.6699,-0.5182],[39.6703,-0.5181],[39.6703,-0.5177]],[[39.6696,-0.5186],[39.6697,-0.5182],[39.6696,-0.5182],[39.6696,-0.5186]],[[39.6686,-0.518],[39.6687,-0.5178],[39.6686,-0.5178],[39.6686,-0.518]],[[39.6679,-0.5034],[39.6673,-0.504],[39.6673,-0.5044],[39.6679,-0.5034]],[[39.6675,-0.5026],[39.6677,-0.5024],[39.6675,-0.5024],[39.6675,-0.5026]],[[39.6674,-0.5018],[39.6676,-0.5016],[39.6674,-0.5016],[39.6674,-0.5018]],[[39.6665,-0.5011],[39.6669,-0.5006],[39.6673,-0.5009],[39.6668,-0.5001],[39.6659,-0.5005],[39.6665,-0.5011]],[[39.6662,-0.5111],[39.6665,-0.5109],[39.6662,-0.5109],[39.6662,-0.5111]],[[39.6661,-0.5179],[39.6665,-0.5177],[39.6662,-0.5176],[39.6661,-0.5179]],[[39.6659,-0.5119],[39.6662,-0.5116],[39.6658,-0.5117],[39.6659,-0.5119]],[[39.6654,-0.5149],[39.6661,-0.5143],[39.6654,-0.5146],[39.6654,-0.5149]],[[39.6658,-0.5017],[39.6654,-0.5016],[39.6655,-0.5018],[39.6658,-0.5017]],[[39.6654,-0.5191],[39.665,-0.5195],[39.6654,-0.5194],[39.6654,-0.5191]],[[39.6649,-0.5201],[39.6653,-0.5198],[39.6649,-0.5198],[39.6649,-0.5201]],[[39.665,-0.5125],[39.6649,-0.5126],[39.665,-0.5125],[39.665,-0.5125]],[[39.6644,-0.5166],[39.6636,-0.5173],[39.6645,-0.5169],[39.6644,-0.5166]],[[39.6635,-0.5216],[39.6644,-0.5213],[39.6636,-0.521],[39.6635,-0.5216]],[[39.664,-0.502],[39.6636,-0.5024],[39.6639,-0.5026],[39.664,-0.502]],[[39.6637,-0.4978],[39.6636,-0.4981],[39.6637,-0.4981],[39.6637,-0.4978]],[[39.6637,-0.5018],[39.6633,-0.5019],[39.6637,-0.5019],[39.6637,-0.5018]],[[39.6636,-0.5098],[39.6634,-0.51],[39.6636,-0.51],[39.6636,-0.5098]],[[39.6632,-0.5218],[39.6626,-0.5224],[39.663,-0.5227],[39.6632,-0.5218]],[[39.663,-0.5141],[39.6631,-0.514],[39.663,-0.514],[39.663,-0.5141]],[[39.6625,-0.4976],[39.6624,-0.4975],[39.6623,-0.4978],[39.6625,-0.4976]],[[39.662,-0.498],[39.6623,-0.4984],[39.6623,-0.4989],[39.6624,-0.4979],[39.662,-0.498]],[[39.6623,-0.494],[39.6624,-0.494],[39.6623,-0.4939],[39.6623,-0.494]],[[39.6622,-0.5158],[39.6623,-0.5157],[39.6622,-0.5157],[39.6622,-0.5158]],[[39.662,-0.5222],[39.6623,-0.5219],[39.662,-0.5221],[39.662,-0.5222]],[[39.6622,-0.4963],[39.662,-0.4964],[39.6622,-0.4964],[39.6622,-0.4963]],[[39.6609,-0.4964],[39.6613,-0.4965],[39.6613,-0.4963],[39.6609,-0.4964]],[[39.66,-0.5128],[39.6605,-0.5125],[39.6605,-0.5117],[39.66,-0.5128]],[[39.6604,-0.4939],[39.66,-0.4941],[39.6604,-0.4942],[39.6604,-0.4939]],[[39.6574,-0.4974],[39.6584,-0.4986],[39.6592,-0.4986],[39.6586,-0.4975],[39.6574,-0.4974]],[[39.6582,-0.4932],[39.6584,-0.4934],[39.6584,-0.4932],[39.6582,-0.4932]],[[39.6581,-0.515],[39.6578,-0.5152],[39.658,-0.5152],[39.6581,-0.515]],[[39.6577,-0.4947],[39.6579,-0.4944],[39.6576,-0.4945],[39.6577,-0.4947]],[[39.6579,-0.4939],[39.6579,-0.4944],[39.658,-0.4939],[39.6579,-0.4939]],[[39.6573,-0.4942],[39.6574,-0.4943],[39.6575,-0.4942],[39.6573,-0.4942]],[[39.6571,-0.4951],[39.6573,-0.4946],[39.6572,-0.4946],[39.6571,-0.4951]],[[39.6553,-0.4908],[39.6555,-0.4911],[39.6555,-0.4907],[39.6553,-0.4908]],[[39.6553,-0.4949],[39.6544,-0.4954],[39.6553,-0.4953],[39.6553,-0.4949]],[[39.6544,-0.4958],[39.655,-0.4966],[39.6553,-0.4958],[39.6544,-0.4958]],[[39.6551,-0.4914],[39.6553,-0.4913],[39.6551,-0.4913],[39.6551,-0.4914]],[[39.6551,-0.4984],[39.6547,-0.4997],[39.6549,-0.4997],[39.6551,-0.4984]],[[39.6541,-0.5051],[39.6543,-0.5049],[39.6541,-0.5049],[39.6541,-0.5051]],[[39.6544,-0.5113],[39.654,-0.5115],[39.654,-0.5117],[39.6544,-0.5113]],[[39.6542,-0.5152],[39.6534,-0.5146],[39.6535,-0.5152],[39.6542,-0.5152]],[[39.6534,-0.4937],[39.6537,-0.4935],[39.6534,-0.4935],[39.6534,-0.4937]],[[39.6536,-0.5103],[39.6535,-0.5105],[39.6536,-0.5105],[39.6536,-0.5103]],[[39.6534,-0.5086],[39.6529,-0.5091],[39.6531,-0.5096],[39.6534,-0.5086]],[[39.6534,-0.4967],[39.6532,-0.4968],[39.6534,-0.4968],[39.6534,-0.4967]],[[39.6521,-0.495],[39.6531,-0.4945],[39.6521,-0.4946],[39.6521,-0.495]],[[39.6527,-0.4967],[39.653,-0.4964],[39.6527,-0.4964],[39.6527,-0.4967]],[[39.6526,-0.5155],[39.6529,-0.5153],[39.6526,-0.5152],[39.6526,-0.5155]],[[39.6527,-0.4986],[39.6528,-0.4985],[39.6527,-0.4985],[39.6527,-0.4986]],[[39.6528,-0.5078],[39.6526,-0.5083],[39.6528,-0.5083],[39.6528,-0.5078]],[[39.6524,-0.4955],[39.6523,-0.4961],[39.6525,-0.4961],[39.6524,-0.4955]],[[39.652,-0.4997],[39.6522,-0.4983],[39.6515,-0.4971],[39.6518,-0.4984],[39.6514,-0.4982],[39.651,-0.4999],[39.652,-0.4997]],[[39.6519,-0.4939],[39.6517,-0.4943],[39.6521,-0.4943],[39.6519,-0.4939]],[[39.6518,-0.4963],[39.6521,-0.4965],[39.6521,-0.4963],[39.6518,-0.4963]],[[39.6517,-0.4963],[39.6518,-0.4962],[39.6517,-0.4962],[39.6517,-0.4963]],[[39.6517,-0.4952],[39.6509,-0.4954],[39.6511,-0.4961],[39.6517,-0.4952]],[[39.6508,-0.5001],[39.6511,-0.5008],[39.6511,-0.5002],[39.6508,-0.5001]],[[39.6506,-0.4958],[39.6505,-0.4958],[39.6504,-0.4958],[39.6506,-0.4958]],[[39.6502,-0.5109],[39.6502,-0.5114],[39.6504,-0.5109],[39.6502,-0.5109]],[[39.6503,-0.4931],[39.6501,-0.4933],[39.6503,-0.4933],[39.6503,-0.4931]],[[39.65,-0.5137],[39.6499,-0.5139],[39.65,-0.5139],[39.65,-0.5137]],[[39.6494,-0.5121],[39.6495,-0.5119],[39.6493,-0.5119],[39.6494,-0.5121]],[[39.6494,-0.5137],[39.6496,-0.5136],[39.6494,-0.5135],[39.6494,-0.5137]],[[39.649,-0.4951],[39.6485,-0.4956],[39.6491,-0.4955],[39.649,-0.4951]],[[39.6491,-0.502],[39.6484,-0.5025],[39.6491,-0.5022],[39.6491,-0.502]],[[39.6482,-0.495],[39.648,-0.4943],[39.6491,-0.494],[39.6467,-0.4939],[39.6482,-0.495]],[[39.6489,-0.5029],[39.6487,-0.5031],[39.6488,-0.5031],[39.6489,-0.5029]],[[39.6489,-0.5029],[39.649,-0.5029],[39.649,-0.5028],[39.6489,-0.5028],[39.6489,-0.5029]],[[39.6482,-0.5138],[39.6483,-0.5133],[39.6481,-0.5133],[39.6482,-0.5138]],[[39.6478,-0.5095],[39.648,-0.5093],[39.6478,-0.5093],[39.6478,-0.5095]],[[39.648,-0.5139],[39.6476,-0.5135],[39.6476,-0.5139],[39.648,-0.5139]],[[39.648,-0.5014],[39.6475,-0.502],[39.6478,-0.502],[39.648,-0.5014]],[[39.6474,-0.4937],[39.6475,-0.4936],[39.6474,-0.4936],[39.6474,-0.4937]],[[39.6465,-0.4934],[39.6468,-0.4932],[39.6466,-0.4931],[39.6465,-0.4934]],[[39.6463,-0.4988],[39.6466,-0.4991],[39.6467,-0.4988],[39.6463,-0.4988]],[[39.6465,-0.4937],[39.6457,-0.4939],[39.6456,-0.4943],[39.6463,-0.4943],[39.6465,-0.4937]],[[39.646,-0.4994],[39.6463,-0.4991],[39.646,-0.4991],[39.646,-0.4994]],[[39.6451,-0.5152],[39.6449,-0.5153],[39.6451,-0.5154],[39.6451,-0.5152]],[[39.6463,-0.515],[39.6448,-0.5163],[39.6435,-0.5167],[39.6439,-0.5178],[39.6452,-0.5169],[39.6463,-0.515]],[[39.6454,-0.5131],[39.6454,-0.5126],[39.6451,-0.5129],[39.6454,-0.5131]],[[39.6454,-0.514],[39.6454,-0.5133],[39.6452,-0.5134],[39.6454,-0.514]],[[39.6449,-0.4957],[39.6456,-0.4955],[39.6454,-0.4951],[39.6449,-0.4957]],[[39.645,-0.4836],[39.6449,-0.4837],[39.645,-0.4837],[39.645,-0.4836]],[[39.645,-0.4836],[39.6452,-0.4836],[39.6452,-0.4834],[39.6451,-0.4834],[39.645,-0.4836]],[[39.6448,-0.516],[39.6447,-0.5159],[39.6446,-0.516],[39.6448,-0.516]],[[39.6448,-0.5157],[39.6449,-0.5158],[39.6449,-0.5157],[39.6448,-0.5157]],[[39.6445,-0.4947],[39.6442,-0.495],[39.6445,-0.4951],[39.6445,-0.4947]],[[39.6441,-0.5084],[39.6445,-0.5084],[39.6444,-0.5082],[39.6441,-0.5084]],[[39.6441,-0.5132],[39.6437,-0.5133],[39.6441,-0.5134],[39.6441,-0.5132]],[[39.6437,-0.5153],[39.644,-0.5151],[39.6437,-0.515],[39.6437,-0.5153]],[[39.6434,-0.514],[39.6436,-0.514],[39.6437,-0.5138],[39.6434,-0.514]],[[39.6436,-0.4954],[39.6435,-0.4957],[39.6436,-0.4957],[39.6436,-0.4954]],[[39.6435,-0.4969],[39.639,-0.4973],[39.6373,-0.4969],[39.6374,-0.4959],[39.6361,-0.496],[39.6361,-0.4967],[39.6341,-0.4959],[39.634,-0.4966],[39.636,-0.4977],[39.6354,-0.4982],[39.6343,-0.4972],[39.6334,-0.498],[39.6384,-0.4987],[39.642,-0.4986],[39.6434,-0.4979],[39.6435,-0.4969]],[[39.6433,-0.4946],[39.6434,-0.4945],[39.6433,-0.4945],[39.6433,-0.4946]],[[39.6431,-0.5134],[39.6429,-0.5135],[39.6431,-0.5135],[39.6431,-0.5134]],[[39.6431,-0.5134],[39.6433,-0.5134],[39.6433,-0.5134],[39.6431,-0.5134],[39.6431,-0.5134]],[[39.6427,-0.5116],[39.6426,-0.5121],[39.6428,-0.5121],[39.6427,-0.5116]],[[39.6429,-0.5121],[39.6428,-0.5122],[39.6429,-0.5122],[39.6429,-0.5121]],[[39.6424,-0.4964],[39.6425,-0.4962],[39.6424,-0.4962],[39.6424,-0.4964]],[[39.6417,-0.4784],[39.6416,-0.4785],[39.6417,-0.4785],[39.6417,-0.4784]],[[39.6413,-0.514],[39.6414,-0.5142],[39.6415,-0.5142],[39.6415,-0.514],[39.6413,-0.514]],[[39.6395,-0.5143],[39.641,-0.5143],[39.6397,-0.5134],[39.6395,-0.5143]],[[39.6392,-0.4793],[39.6403,-0.479],[39.6393,-0.4789],[39.6392,-0.4793]],[[39.6384,-0.4688],[39.6385,-0.4686],[39.6384,-0.4686],[39.6384,-0.4688]],[[39.6382,-0.4802],[39.6381,-0.4804],[39.6382,-0.4804],[39.6382,-0.4802]],[[39.6378,-0.4771],[39.638,-0.4768],[39.6379,-0.4768],[39.6378,-0.4771]],[[39.6381,-0.4771],[39.638,-0.4772],[39.6381,-0.4772],[39.6381,-0.4771]],[[39.6375,-0.4802],[39.6375,-0.4812],[39.6377,-0.4801],[39.6375,-0.4802]],[[39.6377,-0.4687],[39.6378,-0.4686],[39.6377,-0.4686],[39.6377,-0.4687]],[[39.6373,-0.4958],[39.6375,-0.4956],[39.6372,-0.4956],[39.6373,-0.4958]],[[39.637,-0.4775],[39.6375,-0.4774],[39.637,-0.4772],[39.637,-0.4775]],[[39.6371,-0.4777],[39.637,-0.4776],[39.637,-0.4777],[39.6371,-0.4777]],[[39.6365,-0.48],[39.6362,-0.4808],[39.637,-0.4802],[39.6365,-0.48]],[[39.637,-0.4763],[39.6367,-0.4765],[39.637,-0.4764],[39.637,-0.4763]],[[39.6368,-0.4708],[39.6367,-0.4709],[39.6368,-0.4709],[39.6368,-0.4708]],[[39.6365,-0.4718],[39.6365,-0.4722],[39.6367,-0.4722],[39.6365,-0.4718]],[[39.6363,-0.4949],[39.6364,-0.4949],[39.6363,-0.4949],[39.6363,-0.4949]],[[39.6363,-0.4813],[39.6361,-0.4814],[39.6363,-0.4814],[39.6363,-0.4813]],[[39.6359,-0.4709],[39.6361,-0.4708],[39.6359,-0.4708],[39.6359,-0.4709]],[[39.636,-0.4732],[39.6359,-0.4733],[39.636,-0.4733],[39.636,-0.4732]],[[39.636,-0.4738],[39.6358,-0.4741],[39.636,-0.4741],[39.636,-0.4738]],[[39.6355,-0.4754],[39.6358,-0.4753],[39.6355,-0.4753],[39.6355,-0.4754]],[[39.6353,-0.4764],[39.6356,-0.4759],[39.6348,-0.4763],[39.6353,-0.4764]],[[39.6353,-0.4821],[39.6349,-0.481],[39.6341,-0.4812],[39.6342,-0.4825],[39.6353,-0.4821]],[[39.6349,-0.4853],[39.6352,-0.4852],[39.6349,-0.4852],[39.6349,-0.4853]],[[39.6351,-0.4828],[39.6342,-0.4832],[39.6351,-0.4831],[39.6351,-0.4828]],[[39.6348,-0.4754],[39.6344,-0.4759],[39.6349,-0.4759],[39.6348,-0.4754]],[[39.6342,-0.4772],[39.6348,-0.4771],[39.6342,-0.477],[39.6342,-0.4772]],[[39.6346,-0.4845],[39.6342,-0.4839],[39.634,-0.4847],[39.6346,-0.4845]],[[39.6343,-0.4905],[39.6346,-0.4904],[39.6343,-0.4904],[39.6343,-0.4905]],[[39.6343,-0.4737],[39.6335,-0.4732],[39.6338,-0.4738],[39.6343,-0.4737]],[[39.6343,-0.4762],[39.6341,-0.4767],[39.6343,-0.4767],[39.6343,-0.4762]],[[39.6343,-0.4748],[39.6341,-0.4751],[39.6343,-0.475],[39.6343,-0.4748]],[[39.6336,-0.475],[39.6334,-0.4753],[39.6337,-0.4753],[39.6336,-0.475]],[[39.6333,-0.4972],[39.6336,-0.4972],[39.6336,-0.497],[39.6333,-0.4972]],[[39.633,-0.4857],[39.6331,-0.4852],[39.6328,-0.4854],[39.633,-0.4857]],[[39.6332,-0.4765],[39.6334,-0.4763],[39.6332,-0.4762],[39.6332,-0.4765]],[[39.6332,-0.4957],[39.633,-0.4954],[39.633,-0.4957],[39.6332,-0.4957]],[[39.6331,-0.4768],[39.633,-0.4769],[39.6331,-0.4769],[39.6331,-0.4768]],[[39.6331,-0.4964],[39.6329,-0.4966],[39.6331,-0.4966],[39.6331,-0.4964]],[[39.6327,-0.4796],[39.6329,-0.4794],[39.6327,-0.4794],[39.6327,-0.4796]],[[39.6313,-0.494],[39.6327,-0.4933],[39.6311,-0.4928],[39.6313,-0.494]],[[39.6326,-0.4847],[39.6327,-0.4844],[39.6326,-0.4844],[39.6326,-0.4847]],[[39.6327,-0.4816],[39.6323,-0.4813],[39.6323,-0.4817],[39.6327,-0.4816]],[[39.6326,-0.4784],[39.6317,-0.4798],[39.6323,-0.4797],[39.6326,-0.4784]],[[39.6325,-0.4769],[39.6326,-0.4768],[39.6325,-0.4768],[39.6325,-0.4769]],[[39.6324,-0.4898],[39.6325,-0.4897],[39.6324,-0.4897],[39.6324,-0.4898]],[[39.6325,-0.4964],[39.6323,-0.4966],[39.6325,-0.4966],[39.6325,-0.4964]],[[39.6323,-0.4899],[39.6319,-0.4904],[39.6325,-0.4906],[39.6323,-0.4899]],[[39.6322,-0.4842],[39.6325,-0.4841],[39.6322,-0.4841],[39.6322,-0.4842]],[[39.6323,-0.4763],[39.6325,-0.4762],[39.6323,-0.4762],[39.6323,-0.4763]],[[39.6316,-0.4964],[39.6324,-0.4953],[39.6313,-0.4957],[39.6316,-0.4964]],[[39.6317,-0.4772],[39.632,-0.477],[39.6317,-0.4771],[39.6317,-0.4772]],[[39.6317,-0.48],[39.6305,-0.4794],[39.6304,-0.4805],[39.6315,-0.4811],[39.6317,-0.48]],[[39.6313,-0.4967],[39.6317,-0.4965],[39.6313,-0.4966],[39.6313,-0.4967]],[[39.6317,-0.4778],[39.6314,-0.4775],[39.6314,-0.4778],[39.6317,-0.4778]],[[39.6316,-0.4772],[39.6314,-0.477],[39.6312,-0.477],[39.6316,-0.4772]],[[39.6314,-0.4782],[39.631,-0.4783],[39.6314,-0.4783],[39.6314,-0.4782]],[[39.6313,-0.4914],[39.6311,-0.4916],[39.6313,-0.4915],[39.6313,-0.4914]],[[39.6313,-0.4815],[39.631,-0.4812],[39.6311,-0.4815],[39.6313,-0.4815]],[[39.6306,-0.4771],[39.6309,-0.477],[39.6306,-0.477],[39.6306,-0.4771]],[[39.6304,-0.4824],[39.6304,-0.4829],[39.6306,-0.4827],[39.6304,-0.4824]],[[39.63,-0.4772],[39.6302,-0.4771],[39.63,-0.4771],[39.63,-0.4772]],[[39.63,-0.4796],[39.6296,-0.4804],[39.6301,-0.4807],[39.63,-0.4796]],[[39.63,-0.4789],[39.6299,-0.4787],[39.6298,-0.4789],[39.63,-0.4789]],[[39.6297,-0.482],[39.6293,-0.4813],[39.6289,-0.4811],[39.6297,-0.482]],[[39.6294,-0.4775],[39.6296,-0.4777],[39.6296,-0.4774],[39.6294,-0.4775]],[[39.6291,-0.4781],[39.6293,-0.4778],[39.6291,-0.4778],[39.6291,-0.4781]],[[39.6283,-0.4794],[39.6291,-0.4797],[39.6291,-0.4794],[39.6283,-0.4794]],[[39.6284,-0.4802],[39.6288,-0.4806],[39.6287,-0.4802],[39.6284,-0.4802]],[[39.6284,-0.479],[39.6287,-0.4789],[39.6284,-0.4789],[39.6284,-0.479]]],[[[39.676,-0.5191],[39.6755,-0.5198],[39.6752,-0.5197],[39.6755,-0.5188],[39.676,-0.5191]]],[[[39.6726,-0.5195],[39.6726,-0.5188],[39.673,-0.5194],[39.6726,-0.5195]]],[[[39.672,-0.5188],[39.6723,-0.5185],[39.6723,-0.5187],[39.672,-0.5188]]],[[[39.6617,-0.5239],[39.6629,-0.5265],[39.6592,-0.5263],[39.6596,-0.5241],[39.6605,-0.5235],[39.6617,-0.5239]]],[[[39.6589,-0.5265],[39.6586,-0.5263],[39.6589,-0.5263],[39.6589,-0.5265]]],[[[39.6523,-0.525],[39.654,-0.5256],[39.6546,-0.5265],[39.6525,-0.5265],[39.6523,-0.525]]],[[[39.6458,-0.5204],[39.6467,-0.517],[39.6474,-0.5172],[39.6475,-0.5178],[39.6486,-0.5172],[39.6479,-0.5165],[39.6478,-0.5157],[39.6471,-0.5161],[39.6477,-0.5149],[39.6502,-0.5147],[39.6518,-0.5184],[39.6518,-0.5265],[39.6516,-0.5255],[39.6489,-0.5245],[39.6454,-0.5217],[39.645,-0.5206],[39.6458,-0.5204]],[[39.6474,-0.5179],[39.647,-0.5177],[39.647,-0.5179],[39.6474,-0.5179]],[[39.6502,-0.5178],[39.6504,-0.5175],[39.6501,-0.5175],[39.6502,-0.5178]],[[39.65,-0.5158],[39.6501,-0.5157],[39.65,-0.5157],[39.65,-0.5158]],[[39.6494,-0.5194],[39.6485,-0.5193],[39.6488,-0.5198],[39.6494,-0.5194]],[[39.6487,-0.5156],[39.6489,-0.5155],[39.6487,-0.5155],[39.6487,-0.5156]],[[39.648,-0.5161],[39.6482,-0.5158],[39.648,-0.5158],[39.648,-0.5161]],[[39.6464,-0.5212],[39.6469,-0.5207],[39.6467,-0.5206],[39.6464,-0.5212]]],[[[39.6456,-0.5024],[39.6456,-0.5051],[39.6472,-0.5063],[39.646,-0.5065],[39.6452,-0.5056],[39.6452,-0.5064],[39.6449,-0.5065],[39.6448,-0.502],[39.6456,-0.5024]],[[39.6463,-0.5059],[39.6462,-0.5062],[39.6463,-0.5061],[39.6463,-0.5059]]],[[[39.6472,-0.5075],[39.6467,-0.5072],[39.647,-0.5071],[39.6472,-0.5075]]],[[[39.6453,-0.5082],[39.6453,-0.5079],[39.6457,-0.5081],[39.6453,-0.5082]]],[[[39.6321,-0.4999],[39.6336,-0.5007],[39.6364,-0.5008],[39.6398,-0.4999],[39.6415,-0.4998],[39.6432,-0.5001],[39.644,-0.5013],[39.6444,-0.5046],[39.6429,-0.5087],[39.6377,-0.512],[39.6361,-0.5144],[39.6365,-0.5104],[39.6342,-0.5052],[39.6353,-0.5048],[39.6333,-0.5036],[39.6334,-0.5007],[39.6321,-0.4999]],[[39.6404,-0.4999],[39.6384,-0.5009],[39.6381,-0.5028],[39.639,-0.5016],[39.639,-0.5023],[39.6402,-0.5026],[39.6397,-0.5018],[39.6401,-0.5009],[39.6409,-0.5013],[39.6404,-0.4999]],[[39.642,-0.5049],[39.6426,-0.5056],[39.6435,-0.5057],[39.6429,-0.5048],[39.642,-0.5049]],[[39.6432,-0.5067],[39.6429,-0.5069],[39.6433,-0.507],[39.6432,-0.5067]],[[39.6421,-0.5068],[39.6424,-0.5065],[39.6421,-0.5066],[39.6421,-0.5068]],[[39.642,-0.5017],[39.6421,-0.5016],[39.642,-0.5016],[39.642,-0.5017]],[[39.6421,-0.509],[39.642,-0.5091],[39.6421,-0.5091],[39.6421,-0.509]],[[39.6421,-0.5075],[39.6404,-0.5083],[39.641,-0.509],[39.6421,-0.5084],[39.6421,-0.5075]],[[39.6416,-0.5091],[39.6415,-0.5093],[39.6416,-0.5093],[39.6416,-0.5091]],[[39.6413,-0.5061],[39.6411,-0.5063],[39.6413,-0.5063],[39.6413,-0.5061]],[[39.6407,-0.5065],[39.641,-0.5061],[39.6406,-0.5061],[39.6407,-0.5065]],[[39.6393,-0.5098],[39.6392,-0.5099],[39.6392,-0.51],[39.6393,-0.5098]],[[39.6388,-0.5091],[39.6391,-0.5092],[39.6391,-0.509],[39.6388,-0.5091]],[[39.6383,-0.5031],[39.6391,-0.5035],[39.6389,-0.5029],[39.6383,-0.5031]],[[39.6376,-0.5031],[39.6378,-0.5026],[39.6375,-0.5027],[39.6376,-0.5031]],[[39.6367,-0.5032],[39.6371,-0.5029],[39.637,-0.5021],[39.6367,-0.5026],[39.6367,-0.5032]],[[39.637,-0.5021],[39.6376,-0.501],[39.6351,-0.501],[39.6366,-0.5012],[39.637,-0.5021]],[[39.6375,-0.5091],[39.6367,-0.5099],[39.6375,-0.5095],[39.6375,-0.5091]],[[39.6368,-0.5037],[39.6371,-0.5035],[39.6368,-0.5036],[39.6368,-0.5037]],[[39.6368,-0.5065],[39.6371,-0.5063],[39.6368,-0.5063],[39.6368,-0.5065]],[[39.6358,-0.5052],[39.6353,-0.5055],[39.6357,-0.5058],[39.6358,-0.5052]],[[39.6347,-0.5037],[39.6349,-0.5035],[39.6347,-0.5036],[39.6347,-0.5037]]],[[[39.6318,-0.4998],[39.632,-0.4997],[39.6321,-0.4999],[39.6318,-0.4998]]],[[[39.643,-0.521],[39.6433,-0.521],[39.6443,-0.5211],[39.643,-0.521]]],[[[39.6418,-0.5214],[39.6418,-0.5208],[39.6427,-0.5208],[39.6425,-0.5213],[39.6418,-0.5214]]],[[[39.6401,-0.5115],[39.6411,-0.5109],[39.6412,-0.5122],[39.6404,-0.5125],[39.6401,-0.5115]]],[[[39.6404,-0.4981],[39.6407,-0.4983],[39.6404,-0.4983],[39.6404,-0.4981]]],[[[39.6399,-0.4985],[39.6402,-0.4982],[39.6402,-0.4984],[39.6399,-0.4985]]],[[[39.6395,-0.5009],[39.6397,-0.5006],[39.6398,-0.5008],[39.6395,-0.5009]]],[[[39.639,-0.4975],[39.639,-0.4984],[39.6386,-0.4975],[39.639,-0.4975]]],[[[39.6139,-0.4294],[39.6111,-0.4286],[39.609,-0.4263],[39.6096,-0.4228],[39.6115,-0.4227],[39.6107,-0.4248],[39.6135,-0.4243],[39.6142,-0.4235],[39.6134,-0.4215],[39.6157,-0.4213],[39.6158,-0.4222],[39.6173,-0.4217],[39.6172,-0.4207],[39.6182,-0.4203],[39.6209,-0.4207],[39.6195,-0.4209],[39.6194,-0.4215],[39.6183,-0.421],[39.6186,-0.4223],[39.6196,-0.4223],[39.6199,-0.4214],[39.6202,-0.4216],[39.6197,-0.4226],[39.6184,-0.4225],[39.6178,-0.4243],[39.6163,-0.4249],[39.6147,-0.424],[39.6152,-0.4244],[39.6148,-0.4261],[39.6148,-0.4249],[39.6135,-0.4245],[39.6141,-0.4277],[39.6145,-0.4266],[39.6151,-0.4283],[39.6138,-0.4284],[39.6139,-0.4294]],[[39.6109,-0.428],[39.6124,-0.4284],[39.6107,-0.4274],[39.6109,-0.428]],[[39.6135,-0.4283],[39.6136,-0.4277],[39.6134,-0.4283],[39.6135,-0.4283]],[[39.6175,-0.4237],[39.6173,-0.424],[39.6176,-0.4239],[39.6175,-0.4237]],[[39.6167,-0.424],[39.617,-0.4241],[39.617,-0.4239],[39.6167,-0.424]],[[39.6161,-0.4228],[39.6163,-0.4227],[39.6161,-0.4226],[39.6161,-0.4228]],[[39.6155,-0.423],[39.6145,-0.4227],[39.6143,-0.4236],[39.6153,-0.4238],[39.6155,-0.423]],[[39.6127,-0.4275],[39.6129,-0.4273],[39.6127,-0.4273],[39.6127,-0.4275]],[[39.6113,-0.4266],[39.6127,-0.4269],[39.6128,-0.4259],[39.6112,-0.4257],[39.6113,-0.4266]],[[39.6118,-0.4257],[39.612,-0.4252],[39.6117,-0.4252],[39.6118,-0.4257]],[[39.6114,-0.4269],[39.6117,-0.4268],[39.6114,-0.4268],[39.6114,-0.4269]],[[39.611,-0.4271],[39.6112,-0.4269],[39.611,-0.4268],[39.611,-0.4271]],[[39.6105,-0.4273],[39.6104,-0.4265],[39.6101,-0.4265],[39.6105,-0.4273]],[[39.6105,-0.4255],[39.6101,-0.4253],[39.6101,-0.4257],[39.6105,-0.4255]]],[[[39.6151,-0.4298],[39.6168,-0.4303],[39.617,-0.429],[39.618,-0.4295],[39.6192,-0.4292],[39.6201,-0.4311],[39.621,-0.4306],[39.622,-0.4317],[39.6287,-0.432],[39.6295,-0.431],[39.6284,-0.4307],[39.6272,-0.4297],[39.6277,-0.4282],[39.6263,-0.4274],[39.6246,-0.4275],[39.6259,-0.4287],[39.6265,-0.4279],[39.6273,-0.4293],[39.626,-0.4289],[39.6251,-0.4295],[39.6244,-0.4288],[39.6246,-0.4299],[39.6236,-0.4304],[39.624,-0.4296],[39.6231,-0.429],[39.6237,-0.4284],[39.6215,-0.4275],[39.6227,-0.4277],[39.622,-0.4266],[39.623,-0.4263],[39.6217,-0.4245],[39.6232,-0.424],[39.6237,-0.4246],[39.6237,-0.4235],[39.6239,-0.4235],[39.6258,-0.4249],[39.6257,-0.4222],[39.6264,-0.4217],[39.6259,-0.4211],[39.6287,-0.4207],[39.6287,-0.4197],[39.6273,-0.4195],[39.6276,-0.4187],[39.6253,-0.4195],[39.6261,-0.4181],[39.6277,-0.4184],[39.6284,-0.4176],[39.6243,-0.4172],[39.6248,-0.4166],[39.6236,-0.4161],[39.6237,-0.4149],[39.6224,-0.4157],[39.6226,-0.414],[39.6215,-0.4125],[39.6225,-0.413],[39.6232,-0.4121],[39.6226,-0.4114],[39.6163,-0.412],[39.6095,-0.4147],[39.6044,-0.4133],[39.6035,-0.4116],[39.6041,-0.4096],[39.6111,-0.4081],[39.6135,-0.4045],[39.6129,-0.4025],[39.6114,-0.401],[39.6052,-0.4002],[39.6095,-0.4002],[39.6071,-0.3984],[39.6288,-0.3986],[39.6295,-0.3996],[39.6285,-0.399],[39.628,-0.3994],[39.628,-0.3987],[39.627,-0.3994],[39.6279,-0.3998],[39.6273,-0.4011],[39.6265,-0.4011],[39.626,-0.4001],[39.6268,-0.3992],[39.6253,-0.3991],[39.6247,-0.3992],[39.6254,-0.3995],[39.6253,-0.4002],[39.6248,-0.4004],[39.6252,-0.3999],[39.6246,-0.3992],[39.6237,-0.3995],[39.6224,-0.4013],[39.6243,-0.4018],[39.6235,-0.4024],[39.6253,-0.4024],[39.6247,-0.4046],[39.6274,-0.4046],[39.6274,-0.4035],[39.6281,-0.404],[39.6281,-0.4025],[39.6291,-0.4044],[39.6316,-0.4035],[39.6322,-0.4075],[39.6309,-0.4094],[39.631,-0.4087],[39.6298,-0.4089],[39.6308,-0.4104],[39.6304,-0.4132],[39.6313,-0.4143],[39.6294,-0.4142],[39.6296,-0.4162],[39.6311,-0.4171],[39.6297,-0.4182],[39.6312,-0.4184],[39.6323,-0.4199],[39.633,-0.4266],[39.6357,-0.4319],[39.6357,-0.4354],[39.634,-0.4384],[39.6367,-0.4403],[39.6363,-0.4428],[39.6384,-0.4433],[39.6365,-0.4459],[39.6372,-0.4504],[39.6382,-0.451],[39.6364,-0.4527],[39.6375,-0.4565],[39.6364,-0.4581],[39.6384,-0.4593],[39.6386,-0.4601],[39.6366,-0.4617],[39.6346,-0.4612],[39.6361,-0.4626],[39.6334,-0.4615],[39.6329,-0.4563],[39.6303,-0.4564],[39.6266,-0.458],[39.6241,-0.4567],[39.6237,-0.4559],[39.6271,-0.4574],[39.63,-0.4561],[39.6282,-0.4559],[39.6288,-0.4556],[39.6289,-0.4549],[39.6287,-0.4543],[39.6271,-0.4548],[39.627,-0.454],[39.6236,-0.4525],[39.6239,-0.4515],[39.6267,-0.4523],[39.6283,-0.45],[39.6277,-0.4514],[39.6281,-0.4517],[39.6294,-0.4503],[39.6283,-0.4493],[39.627,-0.4503],[39.6264,-0.4496],[39.6269,-0.449],[39.6261,-0.4486],[39.6256,-0.4501],[39.6266,-0.4513],[39.6258,-0.4514],[39.6251,-0.45],[39.6243,-0.4499],[39.6243,-0.4464],[39.6228,-0.4455],[39.6189,-0.4458],[39.6167,-0.4488],[39.6139,-0.45],[39.6118,-0.4488],[39.6116,-0.4471],[39.6136,-0.4483],[39.6157,-0.4482],[39.6172,-0.4471],[39.616,-0.447],[39.6161,-0.4455],[39.6153,-0.4459],[39.6149,-0.444],[39.616,-0.444],[39.6161,-0.4424],[39.615,-0.4422],[39.6149,-0.4431],[39.6138,-0.4419],[39.6152,-0.4404],[39.6131,-0.4402],[39.6132,-0.4425],[39.614,-0.4426],[39.613,-0.4429],[39.6124,-0.4423],[39.6113,-0.443],[39.6118,-0.4391],[39.6127,-0.4386],[39.612,-0.4408],[39.6127,-0.44],[39.6137,-0.44],[39.6131,-0.4378],[39.6161,-0.4399],[39.6151,-0.4374],[39.6143,-0.437],[39.6133,-0.4377],[39.6158,-0.4357],[39.6163,-0.4368],[39.6172,-0.4359],[39.6169,-0.4327],[39.616,-0.4301],[39.6151,-0.4298]],[[39.6248,-0.4284],[39.6246,-0.4281],[39.6243,-0.4285],[39.6248,-0.4284]],[[39.623,-0.4261],[39.6231,-0.4262],[39.6231,-0.4261],[39.623,-0.4261]],[[39.6231,-0.426],[39.6232,-0.4261],[39.6232,-0.426],[39.6231,-0.426]],[[39.6226,-0.4247],[39.6228,-0.4254],[39.6235,-0.4255],[39.6233,-0.4246],[39.6226,-0.4247]],[[39.6125,-0.407],[39.6124,-0.4072],[39.6125,-0.4072],[39.6125,-0.407]],[[39.631,-0.4086],[39.6311,-0.4087],[39.6311,-0.4086],[39.631,-0.4086]],[[39.6356,-0.4543],[39.6355,-0.4545],[39.6356,-0.4545],[39.6356,-0.4543]],[[39.6352,-0.4577],[39.6349,-0.4575],[39.635,-0.458],[39.6352,-0.4577]],[[39.6349,-0.4516],[39.6349,-0.4519],[39.635,-0.4517],[39.6349,-0.4516]],[[39.6334,-0.4608],[39.6347,-0.4619],[39.6336,-0.4596],[39.6334,-0.4608]],[[39.6337,-0.4515],[39.6343,-0.4511],[39.6337,-0.4511],[39.6337,-0.4515]],[[39.6344,-0.4525],[39.6342,-0.4526],[39.6344,-0.4526],[39.6344,-0.4525]],[[39.6343,-0.4505],[39.6337,-0.4503],[39.6337,-0.4506],[39.6343,-0.4505]],[[39.6274,-0.4467],[39.6282,-0.4473],[39.6269,-0.4481],[39.6288,-0.448],[39.6294,-0.449],[39.6298,-0.4471],[39.6305,-0.4482],[39.6312,-0.4464],[39.6337,-0.4474],[39.6341,-0.4468],[39.6334,-0.4444],[39.6327,-0.4435],[39.6315,-0.4436],[39.6322,-0.4441],[39.6307,-0.4456],[39.6271,-0.4454],[39.6261,-0.4481],[39.6274,-0.4467]],[[39.6338,-0.4566],[39.6334,-0.4569],[39.6339,-0.457],[39.6338,-0.4566]],[[39.6339,-0.4587],[39.6334,-0.4585],[39.6334,-0.4589],[39.6339,-0.4587]],[[39.6321,-0.4515],[39.6323,-0.4525],[39.6338,-0.4522],[39.6338,-0.4517],[39.6321,-0.4515]],[[39.6331,-0.4505],[39.6329,-0.4502],[39.6329,-0.4505],[39.6331,-0.4505]],[[39.6314,-0.425],[39.6306,-0.4258],[39.6316,-0.4251],[39.6314,-0.425]],[[39.6314,-0.4554],[39.6313,-0.4555],[39.6314,-0.4555],[39.6314,-0.4554]],[[39.6314,-0.4532],[39.631,-0.4526],[39.6311,-0.4532],[39.6314,-0.4532]],[[39.6312,-0.4304],[39.6305,-0.4318],[39.631,-0.432],[39.6312,-0.4304]],[[39.6313,-0.4439],[39.6311,-0.4435],[39.6309,-0.4435],[39.6313,-0.4439]],[[39.6313,-0.4523],[39.6308,-0.4519],[39.6303,-0.4528],[39.6313,-0.4523]],[[39.6305,-0.4234],[39.6305,-0.4231],[39.6302,-0.4233],[39.6305,-0.4234]],[[39.6298,-0.4442],[39.6305,-0.4435],[39.6296,-0.4435],[39.6298,-0.4442]],[[39.6302,-0.4076],[39.6307,-0.4074],[39.6303,-0.4072],[39.6302,-0.4076]],[[39.6306,-0.4539],[39.6305,-0.4535],[39.6302,-0.4535],[39.6306,-0.4539]],[[39.6263,-0.4396],[39.625,-0.44],[39.6263,-0.4408],[39.6298,-0.4414],[39.6287,-0.4396],[39.6277,-0.44],[39.6262,-0.4386],[39.6248,-0.4385],[39.6249,-0.4393],[39.6263,-0.4396]],[[39.6291,-0.4179],[39.6296,-0.4176],[39.6293,-0.4176],[39.6291,-0.4179]],[[39.6282,-0.4429],[39.6292,-0.4432],[39.6287,-0.4426],[39.6282,-0.4429]],[[39.6282,-0.4337],[39.6286,-0.4331],[39.6283,-0.433],[39.6282,-0.4337]],[[39.6283,-0.4303],[39.6286,-0.4298],[39.6282,-0.4299],[39.6283,-0.4303]],[[39.6285,-0.4517],[39.6286,-0.4518],[39.6286,-0.4517],[39.6285,-0.4517]],[[39.6284,-0.4517],[39.6285,-0.4516],[39.6284,-0.4516],[39.6284,-0.4517]],[[39.6247,-0.4067],[39.6253,-0.4054],[39.6266,-0.4066],[39.6284,-0.4056],[39.6277,-0.4053],[39.6265,-0.4063],[39.6271,-0.4047],[39.6235,-0.4047],[39.6234,-0.4062],[39.6247,-0.4067]],[[39.6276,-0.4094],[39.6281,-0.409],[39.6276,-0.4092],[39.6276,-0.4094]],[[39.6283,-0.4053],[39.6279,-0.4051],[39.628,-0.4054],[39.6283,-0.4053]],[[39.628,-0.4285],[39.6282,-0.4283],[39.628,-0.4282],[39.628,-0.4285]],[[39.6281,-0.429],[39.628,-0.4291],[39.6281,-0.4291],[39.6281,-0.429]],[[39.6275,-0.4519],[39.6275,-0.4524],[39.6277,-0.452],[39.6275,-0.4519]],[[39.6274,-0.4332],[39.6269,-0.434],[39.6276,-0.4337],[39.6274,-0.4332]],[[39.6269,-0.4072],[39.6272,-0.4079],[39.6271,-0.4072],[39.6269,-0.4072]],[[39.6268,-0.4415],[39.627,-0.4412],[39.6268,-0.4412],[39.6268,-0.4415]],[[39.6263,-0.4373],[39.6268,-0.438],[39.6268,-0.4371],[39.6263,-0.4373]],[[39.6256,-0.4091],[39.6268,-0.4089],[39.6254,-0.4088],[39.6256,-0.4091]],[[39.6253,-0.4359],[39.6258,-0.4364],[39.6251,-0.4369],[39.6265,-0.4367],[39.6258,-0.4357],[39.6262,-0.4349],[39.6253,-0.4359]],[[39.6254,-0.4111],[39.6265,-0.4111],[39.6253,-0.4108],[39.6254,-0.4111]],[[39.6259,-0.4144],[39.6262,-0.414],[39.6254,-0.414],[39.6259,-0.4144]],[[39.6263,-0.4075],[39.6258,-0.407],[39.6255,-0.4074],[39.6263,-0.4075]],[[39.6246,-0.4161],[39.6252,-0.4163],[39.626,-0.4157],[39.6255,-0.4156],[39.6246,-0.4161]],[[39.626,-0.4136],[39.6257,-0.4138],[39.626,-0.4138],[39.626,-0.4136]],[[39.6259,-0.4409],[39.626,-0.4408],[39.6259,-0.4408],[39.6259,-0.4409]],[[39.6259,-0.4169],[39.6257,-0.417],[39.6259,-0.417],[39.6259,-0.4169]],[[39.6249,-0.4101],[39.6258,-0.41],[39.6252,-0.4095],[39.6249,-0.4101]],[[39.6242,-0.4267],[39.6247,-0.4272],[39.6258,-0.4265],[39.625,-0.4264],[39.6242,-0.4267]],[[39.625,-0.4249],[39.6247,-0.4261],[39.6257,-0.4261],[39.625,-0.4249]],[[39.6257,-0.4164],[39.6255,-0.4165],[39.6257,-0.4165],[39.6257,-0.4164]],[[39.6255,-0.4467],[39.6253,-0.447],[39.6256,-0.4471],[39.6255,-0.4467]],[[39.6251,-0.4495],[39.6254,-0.4492],[39.6248,-0.4491],[39.6251,-0.4495]],[[39.6255,-0.4082],[39.6241,-0.4081],[39.6242,-0.4094],[39.6255,-0.4082]],[[39.6246,-0.4333],[39.6255,-0.4328],[39.6255,-0.4325],[39.6246,-0.4322],[39.6246,-0.4333]],[[39.6251,-0.4289],[39.6253,-0.4293],[39.6253,-0.4289],[39.6251,-0.4289]],[[39.6252,-0.4137],[39.6251,-0.4138],[39.6252,-0.4139],[39.6252,-0.4137]],[[39.6251,-0.4152],[39.6248,-0.4151],[39.6248,-0.4152],[39.6251,-0.4152]],[[39.625,-0.4433],[39.6251,-0.4432],[39.625,-0.4432],[39.625,-0.4433]],[[39.6246,-0.4075],[39.625,-0.4073],[39.6246,-0.4073],[39.6246,-0.4075]],[[39.6246,-0.404],[39.6248,-0.4037],[39.6246,-0.4037],[39.6246,-0.404]],[[39.6243,-0.4147],[39.6247,-0.4145],[39.6243,-0.4146],[39.6243,-0.4147]],[[39.6246,-0.4158],[39.6243,-0.4156],[39.6243,-0.4158],[39.6246,-0.4158]],[[39.6244,-0.4244],[39.6245,-0.4243],[39.6244,-0.4243],[39.6244,-0.4244]],[[39.6244,-0.4461],[39.6245,-0.4461],[39.6244,-0.4461],[39.6244,-0.4461]],[[39.6243,-0.4105],[39.6242,-0.4104],[39.6243,-0.4107],[39.6243,-0.4105]],[[39.6243,-0.4279],[39.6243,-0.4281],[39.6243,-0.4281],[39.6243,-0.4279]],[[39.6243,-0.4519],[39.6243,-0.4518],[39.6243,-0.4518],[39.6243,-0.4519]],[[39.6243,-0.4406],[39.6243,-0.4405],[39.6243,-0.4405],[39.6243,-0.4406]],[[39.6243,-0.4139],[39.6243,-0.4138],[39.6243,-0.4138],[39.6243,-0.4139]],[[39.6243,-0.4275],[39.6241,-0.4277],[39.6243,-0.4277],[39.6243,-0.4275]],[[39.6242,-0.4428],[39.6237,-0.4432],[39.6243,-0.4431],[39.6242,-0.4428]],[[39.6241,-0.4523],[39.6242,-0.4522],[39.6241,-0.4522],[39.6241,-0.4523]],[[39.6242,-0.4446],[39.6241,-0.4448],[39.6242,-0.4448],[39.6242,-0.4446]],[[39.6235,-0.4091],[39.6239,-0.4086],[39.6234,-0.4087],[39.6235,-0.4091]],[[39.6239,-0.4442],[39.6237,-0.4444],[39.6239,-0.4444],[39.6239,-0.4442]],[[39.6238,-0.4027],[39.6236,-0.4029],[39.6238,-0.4029],[39.6238,-0.4027]],[[39.6237,-0.4109],[39.6236,-0.411],[39.6237,-0.411],[39.6237,-0.4109]],[[39.6237,-0.4451],[39.6235,-0.4452],[39.6237,-0.4452],[39.6237,-0.4451]],[[39.6234,-0.4455],[39.6237,-0.4459],[39.6236,-0.4454],[39.6234,-0.4455]],[[39.6237,-0.4364],[39.6236,-0.4365],[39.6237,-0.4365],[39.6237,-0.4364]],[[39.6232,-0.427],[39.6231,-0.4271],[39.6232,-0.4271],[39.6232,-0.427]],[[39.6232,-0.427],[39.6233,-0.427],[39.6234,-0.4269],[39.6234,-0.4266],[39.6232,-0.427]],[[39.6231,-0.4371],[39.6222,-0.437],[39.6225,-0.4376],[39.6231,-0.4371]],[[39.6225,-0.4441],[39.622,-0.4445],[39.6222,-0.4451],[39.623,-0.4448],[39.6225,-0.4441]],[[39.6229,-0.4099],[39.6228,-0.4106],[39.623,-0.4106],[39.6229,-0.4099]],[[39.6206,-0.399],[39.6208,-0.3999],[39.6223,-0.399],[39.6206,-0.399]],[[39.6222,-0.4321],[39.6221,-0.4324],[39.6222,-0.4324],[39.6222,-0.4321]],[[39.6221,-0.41],[39.6222,-0.4098],[39.6221,-0.4098],[39.6221,-0.41]],[[39.6211,-0.4451],[39.6209,-0.4444],[39.6219,-0.4444],[39.6219,-0.4435],[39.6198,-0.4449],[39.6211,-0.4451]],[[39.6217,-0.4098],[39.6219,-0.4097],[39.6217,-0.4097],[39.6217,-0.4098]],[[39.6211,-0.4054],[39.621,-0.4055],[39.6211,-0.4055],[39.6211,-0.4054]],[[39.6199,-0.4438],[39.6206,-0.4434],[39.6199,-0.4432],[39.6199,-0.4438]],[[39.6205,-0.4057],[39.6203,-0.406],[39.6205,-0.406],[39.6205,-0.4057]],[[39.62,-0.4006],[39.6199,-0.4007],[39.62,-0.4007],[39.62,-0.4006]],[[39.6198,-0.4087],[39.6195,-0.4091],[39.6197,-0.4094],[39.62,-0.4094],[39.6198,-0.4087]],[[39.6198,-0.4001],[39.6195,-0.4003],[39.6198,-0.4004],[39.6198,-0.4001]],[[39.6193,-0.4322],[39.6195,-0.4319],[39.6193,-0.432],[39.6193,-0.4322]],[[39.6195,-0.4058],[39.6188,-0.4062],[39.6195,-0.4062],[39.6195,-0.4058]],[[39.6194,-0.4363],[39.6189,-0.4366],[39.6194,-0.4365],[39.6194,-0.4363]],[[39.6192,-0.4307],[39.6194,-0.4306],[39.6192,-0.4306],[39.6192,-0.4307]],[[39.6189,-0.4321],[39.6192,-0.4318],[39.6189,-0.4319],[39.6189,-0.4321]],[[39.6191,-0.4309],[39.6189,-0.4311],[39.6191,-0.4311],[39.6191,-0.4309]],[[39.619,-0.4298],[39.6189,-0.4297],[39.6189,-0.4298],[39.619,-0.4298]],[[39.619,-0.4396],[39.6181,-0.4388],[39.6176,-0.4386],[39.6179,-0.4398],[39.619,-0.4396]],[[39.6188,-0.4459],[39.6187,-0.4456],[39.6185,-0.4459],[39.6188,-0.4459]],[[39.6186,-0.4364],[39.618,-0.4356],[39.6179,-0.4363],[39.6186,-0.4364]],[[39.6187,-0.4413],[39.6172,-0.4418],[39.6172,-0.4433],[39.618,-0.4429],[39.6187,-0.4413]],[[39.6173,-0.4049],[39.6167,-0.4058],[39.6159,-0.4053],[39.6142,-0.4063],[39.6183,-0.4061],[39.6186,-0.4054],[39.6173,-0.4049]],[[39.6183,-0.4339],[39.6186,-0.434],[39.6183,-0.4335],[39.6183,-0.4339]],[[39.6182,-0.4334],[39.6185,-0.4331],[39.6183,-0.433],[39.6182,-0.4334]],[[39.6183,-0.4461],[39.6178,-0.4461],[39.6178,-0.4461],[39.6183,-0.4461]],[[39.6183,-0.4077],[39.618,-0.4074],[39.618,-0.4081],[39.6183,-0.4077]],[[39.6179,-0.4452],[39.6181,-0.4448],[39.6179,-0.4448],[39.6179,-0.4452]],[[39.6178,-0.4371],[39.6179,-0.437],[39.6178,-0.437],[39.6178,-0.4371]],[[39.6166,-0.4023],[39.617,-0.4027],[39.6178,-0.4021],[39.6166,-0.4023]],[[39.6176,-0.4063],[39.6178,-0.4062],[39.6176,-0.4062],[39.6176,-0.4063]],[[39.6172,-0.4463],[39.6174,-0.4461],[39.6172,-0.4461],[39.6172,-0.4463]],[[39.6173,-0.4114],[39.6171,-0.4116],[39.6174,-0.4116],[39.6173,-0.4114]],[[39.617,-0.4326],[39.6172,-0.4329],[39.6174,-0.4326],[39.617,-0.4326]],[[39.6172,-0.432],[39.6173,-0.4319],[39.6172,-0.4319],[39.6172,-0.432]],[[39.6172,-0.4018],[39.6173,-0.4018],[39.6172,-0.4018],[39.6172,-0.4018]],[[39.6172,-0.4363],[39.617,-0.4366],[39.6173,-0.4367],[39.6172,-0.4363]],[[39.6168,-0.4456],[39.617,-0.4453],[39.6169,-0.4453],[39.6168,-0.4456]],[[39.6163,-0.4459],[39.6168,-0.4457],[39.6163,-0.4458],[39.6163,-0.4459]],[[39.6163,-0.4002],[39.6159,-0.4005],[39.6168,-0.4005],[39.6163,-0.4002]],[[39.6163,-0.4014],[39.6166,-0.4012],[39.6163,-0.4012],[39.6163,-0.4014]],[[39.6162,-0.4415],[39.6163,-0.4423],[39.6165,-0.4416],[39.6162,-0.4415]],[[39.6163,-0.4446],[39.6161,-0.4449],[39.6163,-0.445],[39.6163,-0.4446]],[[39.616,-0.3994],[39.6153,-0.3998],[39.6163,-0.4001],[39.616,-0.3994]],[[39.6157,-0.3986],[39.6151,-0.3986],[39.6151,-0.3992],[39.6154,-0.3992],[39.6157,-0.3986]],[[39.6152,-0.4084],[39.6154,-0.4081],[39.6152,-0.4082],[39.6152,-0.4084]],[[39.615,-0.4004],[39.6153,-0.4002],[39.6151,-0.4002],[39.615,-0.4004]],[[39.6152,-0.4038],[39.6146,-0.4033],[39.6144,-0.4037],[39.6152,-0.4038]],[[39.615,-0.4398],[39.6152,-0.44],[39.6153,-0.4397],[39.615,-0.4398]],[[39.6147,-0.4],[39.6145,-0.4002],[39.6146,-0.4002],[39.6147,-0.4]],[[39.6145,-0.4114],[39.6143,-0.4111],[39.6143,-0.4114],[39.6145,-0.4114]],[[39.6143,-0.4018],[39.6142,-0.4027],[39.6145,-0.4026],[39.6143,-0.4018]],[[39.6142,-0.4032],[39.6144,-0.403],[39.6142,-0.4029],[39.6142,-0.4032]],[[39.6143,-0.4068],[39.6141,-0.4073],[39.6144,-0.4072],[39.6143,-0.4068]],[[39.6143,-0.4074],[39.6135,-0.4079],[39.6143,-0.4078],[39.6143,-0.4074]],[[39.6142,-0.4108],[39.6139,-0.411],[39.6142,-0.4111],[39.6142,-0.4108]],[[39.6137,-0.4045],[39.614,-0.4046],[39.614,-0.4044],[39.6137,-0.4045]],[[39.6137,-0.4063],[39.614,-0.4061],[39.6137,-0.4061],[39.6137,-0.4063]],[[39.6136,-0.4093],[39.6135,-0.4105],[39.6138,-0.4108],[39.6136,-0.4093]],[[39.6136,-0.4034],[39.6138,-0.4031],[39.6136,-0.4031],[39.6136,-0.4034]],[[39.6124,-0.4009],[39.6128,-0.4001],[39.6122,-0.3997],[39.6131,-0.4002],[39.6136,-0.3987],[39.6099,-0.4002],[39.6124,-0.4009]],[[39.6132,-0.4009],[39.6134,-0.4007],[39.6132,-0.4007],[39.6132,-0.4009]],[[39.6131,-0.4067],[39.6135,-0.4071],[39.6135,-0.4066],[39.6131,-0.4067]],[[39.6131,-0.4019],[39.6132,-0.4018],[39.6131,-0.4018],[39.6131,-0.4019]],[[39.6128,-0.4079],[39.6127,-0.4077],[39.6127,-0.4079],[39.6128,-0.4079]],[[39.612,-0.4097],[39.6126,-0.4089],[39.6119,-0.4091],[39.612,-0.4097]],[[39.6125,-0.3991],[39.6124,-0.399],[39.6123,-0.3991],[39.6125,-0.3991]],[[39.6116,-0.4094],[39.6115,-0.4098],[39.6117,-0.4098],[39.6116,-0.4094]],[[39.6112,-0.4094],[39.6113,-0.4093],[39.6112,-0.4093],[39.6112,-0.4094]],[[39.6092,-0.4107],[39.609,-0.4112],[39.6092,-0.4111],[39.6092,-0.4107]],[[39.6095,-0.4112],[39.6092,-0.4114],[39.6096,-0.4116],[39.6095,-0.4112]],[[39.6094,-0.4099],[39.6095,-0.4098],[39.6094,-0.4098],[39.6094,-0.4099]],[[39.6092,-0.4093],[39.6091,-0.4094],[39.6092,-0.4094],[39.6092,-0.4093]],[[39.6088,-0.4105],[39.6079,-0.4105],[39.6079,-0.4108],[39.6088,-0.4105]],[[39.6077,-0.4092],[39.6082,-0.4096],[39.6082,-0.4092],[39.6077,-0.4092]],[[39.6071,-0.4093],[39.6068,-0.4095],[39.6071,-0.4094],[39.6071,-0.4093]],[[39.6054,-0.4107],[39.6055,-0.4106],[39.6054,-0.4106],[39.6054,-0.4107]],[[39.6049,-0.4125],[39.6047,-0.4126],[39.6049,-0.4131],[39.6049,-0.4125]]],[[[39.6139,-0.4294],[39.615,-0.4295],[39.6149,-0.4303],[39.6143,-0.4299],[39.6139,-0.4294]]],[[[39.6144,-0.4408],[39.6139,-0.4417],[39.6136,-0.4415],[39.6144,-0.4408]]],[[[39.6202,-0.4118],[39.6217,-0.412],[39.6217,-0.4122],[39.6215,-0.4125],[39.6202,-0.4118]]],[[[39.6223,-0.4136],[39.6223,-0.4155],[39.621,-0.4169],[39.6201,-0.4124],[39.6223,-0.4136]]],[[[39.6215,-0.424],[39.621,-0.425],[39.6207,-0.424],[39.6215,-0.424]]],[[[39.6217,-0.4269],[39.6214,-0.4273],[39.6215,-0.4268],[39.6217,-0.4269]]],[[[39.6372,-0.4631],[39.637,-0.4634],[39.6367,-0.4627],[39.6372,-0.4631]]],[[[39.6371,-0.4974],[39.6373,-0.4975],[39.6371,-0.4975],[39.6371,-0.4974]]],[[[39.637,-0.4649],[39.6369,-0.4655],[39.6369,-0.4649],[39.637,-0.4649]]],[[[39.6367,-0.4639],[39.6368,-0.4638],[39.6368,-0.4641],[39.6367,-0.4639]]],[[[39.6367,-0.4631],[39.6366,-0.4636],[39.6366,-0.4631],[39.6367,-0.4631]]],[[[39.6361,-0.517],[39.6365,-0.5168],[39.6365,-0.517],[39.6361,-0.517]]],[[[39.5941,-0.4286],[39.5949,-0.4269],[39.5966,-0.4288],[39.5978,-0.4283],[39.5974,-0.427],[39.5958,-0.4269],[39.5954,-0.4258],[39.5933,-0.426],[39.5925,-0.4248],[39.5924,-0.4227],[39.5936,-0.4219],[39.593,-0.4215],[39.5938,-0.419],[39.5928,-0.4161],[39.5948,-0.4102],[39.5944,-0.4083],[39.5955,-0.4055],[39.5949,-0.4036],[39.5953,-0.3989],[39.5958,-0.3984],[39.596,-0.4001],[39.597,-0.3996],[39.5974,-0.4002],[39.5999,-0.3997],[39.5989,-0.3985],[39.5992,-0.3984],[39.6012,-0.4003],[39.6003,-0.4008],[39.6014,-0.4004],[39.6047,-0.4024],[39.604,-0.4043],[39.6031,-0.4044],[39.6012,-0.407],[39.6033,-0.406],[39.603,-0.4052],[39.604,-0.4047],[39.604,-0.406],[39.6054,-0.4062],[39.6048,-0.4073],[39.6053,-0.4075],[39.6042,-0.4082],[39.6029,-0.4076],[39.6028,-0.4085],[39.6006,-0.4081],[39.6003,-0.4089],[39.6009,-0.41],[39.6011,-0.409],[39.6039,-0.409],[39.6028,-0.4117],[39.6041,-0.4139],[39.6072,-0.4155],[39.6139,-0.4143],[39.6135,-0.416],[39.6133,-0.4149],[39.6124,-0.416],[39.6105,-0.416],[39.6115,-0.4168],[39.6124,-0.4165],[39.6121,-0.4175],[39.6127,-0.417],[39.6134,-0.4183],[39.6121,-0.4196],[39.6115,-0.4193],[39.6113,-0.4207],[39.6093,-0.4211],[39.6093,-0.422],[39.6095,-0.4214],[39.6106,-0.4215],[39.6087,-0.4228],[39.6076,-0.4256],[39.6103,-0.4294],[39.6125,-0.4302],[39.6106,-0.4299],[39.6101,-0.4328],[39.6116,-0.4338],[39.6118,-0.4327],[39.6109,-0.4317],[39.6119,-0.4314],[39.6129,-0.4347],[39.6137,-0.433],[39.6144,-0.4336],[39.6139,-0.4347],[39.6149,-0.4337],[39.6142,-0.4348],[39.6143,-0.4355],[39.6151,-0.4345],[39.6152,-0.4329],[39.6126,-0.4303],[39.6132,-0.4303],[39.6159,-0.4324],[39.6163,-0.4337],[39.6153,-0.4355],[39.6129,-0.4367],[39.6115,-0.4387],[39.6112,-0.4381],[39.6105,-0.44],[39.6093,-0.44],[39.6102,-0.441],[39.6101,-0.4455],[39.6113,-0.4494],[39.6137,-0.4514],[39.6158,-0.4512],[39.6181,-0.4494],[39.6186,-0.447],[39.6206,-0.4458],[39.6222,-0.4462],[39.6237,-0.4478],[39.6234,-0.4497],[39.622,-0.4523],[39.6232,-0.4569],[39.626,-0.4585],[39.632,-0.4573],[39.633,-0.4583],[39.6323,-0.4606],[39.6328,-0.4625],[39.6343,-0.4625],[39.6357,-0.4647],[39.6358,-0.4634],[39.6363,-0.4638],[39.6359,-0.4671],[39.6342,-0.4711],[39.6323,-0.4731],[39.6287,-0.4749],[39.6284,-0.476],[39.6268,-0.4764],[39.626,-0.4781],[39.626,-0.4797],[39.6278,-0.4821],[39.6313,-0.4847],[39.6319,-0.4855],[39.6302,-0.4914],[39.6287,-0.489],[39.6247,-0.4854],[39.6161,-0.4836],[39.6161,-0.4744],[39.6174,-0.4742],[39.6177,-0.4719],[39.6173,-0.4712],[39.6167,-0.4716],[39.6166,-0.4706],[39.6161,-0.471],[39.6161,-0.4702],[39.6152,-0.4703],[39.6152,-0.4694],[39.6136,-0.47],[39.6138,-0.4681],[39.6124,-0.4677],[39.6111,-0.466],[39.6106,-0.464],[39.6112,-0.4624],[39.6105,-0.4613],[39.6115,-0.4603],[39.6113,-0.4587],[39.6092,-0.459],[39.609,-0.4579],[39.6079,-0.458],[39.6082,-0.4573],[39.6058,-0.4557],[39.606,-0.4551],[39.6047,-0.4549],[39.6012,-0.4515],[39.6003,-0.447],[39.6014,-0.4457],[39.6009,-0.443],[39.5988,-0.4386],[39.5989,-0.437],[39.5966,-0.4342],[39.5958,-0.4316],[39.5948,-0.4307],[39.5949,-0.4299],[39.5943,-0.4294],[39.5941,-0.4286]],[[39.5942,-0.4283],[39.5946,-0.4286],[39.5947,-0.4283],[39.5942,-0.4283]],[[39.5948,-0.4085],[39.5949,-0.4089],[39.595,-0.4086],[39.5948,-0.4085]],[[39.6133,-0.4148],[39.6134,-0.4149],[39.6134,-0.4148],[39.6133,-0.4148]],[[39.6108,-0.4484],[39.6089,-0.4485],[39.6086,-0.4494],[39.6105,-0.4494],[39.6108,-0.4484]],[[39.636,-0.4655],[39.6356,-0.4648],[39.6353,-0.4654],[39.636,-0.4655]],[[39.6353,-0.4662],[39.6352,-0.4663],[39.6353,-0.4663],[39.6353,-0.4662]],[[39.6337,-0.4669],[39.634,-0.4692],[39.6349,-0.4695],[39.635,-0.4681],[39.6337,-0.4669]],[[39.6336,-0.4706],[39.6339,-0.4709],[39.6339,-0.4706],[39.6336,-0.4706]],[[39.6339,-0.4689],[39.6336,-0.4693],[39.6339,-0.4692],[39.6339,-0.4689]],[[39.6332,-0.471],[39.6326,-0.4722],[39.6336,-0.4711],[39.6332,-0.471]],[[39.6328,-0.4697],[39.6329,-0.4695],[39.6328,-0.4695],[39.6328,-0.4697]],[[39.6334,-0.4695],[39.6331,-0.4703],[39.6335,-0.4702],[39.6334,-0.4695]],[[39.6329,-0.4693],[39.632,-0.4682],[39.6317,-0.4689],[39.6329,-0.4693]],[[39.633,-0.4675],[39.633,-0.4677],[39.633,-0.4677],[39.633,-0.4675]],[[39.6329,-0.4663],[39.633,-0.4661],[39.6329,-0.466],[39.6329,-0.4663]],[[39.6327,-0.4666],[39.6325,-0.4667],[39.6327,-0.4667],[39.6327,-0.4666]],[[39.632,-0.4577],[39.6319,-0.458],[39.6321,-0.4579],[39.632,-0.4577]],[[39.6319,-0.4681],[39.6314,-0.4678],[39.6313,-0.4681],[39.6319,-0.4681]],[[39.6311,-0.4852],[39.6316,-0.486],[39.6313,-0.485],[39.6311,-0.4852]],[[39.6306,-0.4587],[39.6313,-0.4585],[39.6312,-0.4579],[39.6309,-0.458],[39.6306,-0.4587]],[[39.6306,-0.459],[39.6305,-0.4587],[39.6305,-0.459],[39.6306,-0.459]],[[39.6309,-0.4682],[39.631,-0.4683],[39.6311,-0.4683],[39.6311,-0.4682],[39.6309,-0.4682]],[[39.6305,-0.4636],[39.6308,-0.4643],[39.6309,-0.4638],[39.6305,-0.4636]],[[39.6306,-0.4698],[39.6308,-0.4697],[39.6306,-0.4697],[39.6306,-0.4698]],[[39.6305,-0.486],[39.6305,-0.4861],[39.6308,-0.4858],[39.6305,-0.486]],[[39.6307,-0.467],[39.6306,-0.4665],[39.6301,-0.4663],[39.63,-0.4666],[39.6307,-0.467]],[[39.63,-0.4682],[39.6307,-0.4676],[39.6301,-0.4676],[39.63,-0.4682]],[[39.6305,-0.4735],[39.6305,-0.4734],[39.6305,-0.4734],[39.6305,-0.4735]],[[39.6306,-0.4735],[39.6305,-0.4736],[39.6306,-0.4736],[39.6306,-0.4735]],[[39.6294,-0.466],[39.6302,-0.4661],[39.6296,-0.4647],[39.6292,-0.465],[39.6294,-0.466]],[[39.6299,-0.46],[39.6298,-0.4601],[39.6299,-0.4601],[39.6299,-0.46]],[[39.6289,-0.4834],[39.6297,-0.4849],[39.6297,-0.4839],[39.6289,-0.4834]],[[39.6294,-0.4602],[39.6296,-0.4597],[39.6293,-0.4598],[39.6294,-0.4602]],[[39.6292,-0.4734],[39.6283,-0.4746],[39.6284,-0.4749],[39.6294,-0.4744],[39.6292,-0.4734]],[[39.6268,-0.4624],[39.6253,-0.4639],[39.6277,-0.4635],[39.6287,-0.4648],[39.6294,-0.4643],[39.6268,-0.4624]],[[39.6282,-0.4833],[39.6284,-0.4829],[39.6281,-0.4828],[39.6282,-0.4833]],[[39.6276,-0.4686],[39.6282,-0.4682],[39.6275,-0.4682],[39.6276,-0.4686]],[[39.6277,-0.4822],[39.6277,-0.482],[39.6277,-0.482],[39.6277,-0.4822]],[[39.6278,-0.4822],[39.6277,-0.4823],[39.6278,-0.4823],[39.6278,-0.4822]],[[39.6268,-0.4823],[39.6268,-0.4817],[39.6264,-0.4823],[39.6268,-0.4823]],[[39.6268,-0.4676],[39.6265,-0.4675],[39.6265,-0.4677],[39.6268,-0.4676]],[[39.6268,-0.4674],[39.6268,-0.4674],[39.6268,-0.4674],[39.6268,-0.4674]],[[39.6254,-0.4821],[39.6249,-0.4829],[39.6257,-0.4826],[39.6254,-0.4821]],[[39.6255,-0.4665],[39.6256,-0.4662],[39.6254,-0.4662],[39.6255,-0.4665]],[[39.6252,-0.4642],[39.6254,-0.4648],[39.6256,-0.4642],[39.6252,-0.4642]],[[39.6253,-0.4693],[39.6251,-0.4696],[39.6254,-0.4696],[39.6253,-0.4693]],[[39.6234,-0.4585],[39.6233,-0.4591],[39.6234,-0.4585],[39.6234,-0.4585]],[[39.6213,-0.4467],[39.6217,-0.448],[39.6232,-0.4492],[39.6225,-0.4472],[39.6213,-0.4467]],[[39.6223,-0.4511],[39.6218,-0.4497],[39.6212,-0.4499],[39.6215,-0.451],[39.6223,-0.4511]],[[39.6219,-0.4551],[39.6221,-0.4552],[39.6221,-0.4551],[39.6219,-0.4551]],[[39.6217,-0.4495],[39.6219,-0.4484],[39.6211,-0.4477],[39.6204,-0.4486],[39.6217,-0.4495]],[[39.6218,-0.4525],[39.6217,-0.4527],[39.6218,-0.4527],[39.6218,-0.4525]],[[39.6202,-0.4519],[39.6205,-0.4523],[39.6215,-0.4526],[39.6213,-0.4519],[39.6202,-0.4519]],[[39.6213,-0.4514],[39.6212,-0.4512],[39.6209,-0.4515],[39.6213,-0.4514]],[[39.6206,-0.4836],[39.6209,-0.4834],[39.6206,-0.4834],[39.6206,-0.4836]],[[39.6192,-0.448],[39.6207,-0.4466],[39.6186,-0.4472],[39.6192,-0.448]],[[39.6206,-0.4514],[39.6208,-0.4515],[39.6208,-0.4514],[39.6206,-0.4514]],[[39.6201,-0.4539],[39.6203,-0.4532],[39.6197,-0.4532],[39.6201,-0.4539]],[[39.6204,-0.4497],[39.6198,-0.45],[39.6204,-0.4499],[39.6204,-0.4497]],[[39.6198,-0.4487],[39.6199,-0.4483],[39.6198,-0.4483],[39.6198,-0.4487]],[[39.6192,-0.4576],[39.6199,-0.4572],[39.6191,-0.4572],[39.6192,-0.4576]],[[39.619,-0.453],[39.6196,-0.4531],[39.6191,-0.4527],[39.619,-0.453]],[[39.6193,-0.4534],[39.6191,-0.4532],[39.6191,-0.4533],[39.6193,-0.4534]],[[39.6194,-0.4539],[39.6196,-0.4536],[39.6194,-0.4537],[39.6194,-0.4539]],[[39.6189,-0.4545],[39.6191,-0.4542],[39.6189,-0.4542],[39.6189,-0.4545]],[[39.6189,-0.449],[39.6183,-0.4496],[39.6191,-0.4497],[39.6189,-0.449]],[[39.6188,-0.4499],[39.6185,-0.4503],[39.6188,-0.4503],[39.6188,-0.4499]],[[39.6188,-0.4734],[39.6184,-0.473],[39.618,-0.4732],[39.618,-0.4736],[39.6188,-0.4734]],[[39.618,-0.4838],[39.6182,-0.4835],[39.618,-0.4836],[39.618,-0.4838]],[[39.618,-0.4743],[39.6179,-0.4744],[39.618,-0.4744],[39.618,-0.4743]],[[39.618,-0.4743],[39.618,-0.4743],[39.618,-0.4742],[39.618,-0.4742],[39.618,-0.4743]],[[39.6167,-0.4512],[39.617,-0.4509],[39.6168,-0.4508],[39.6167,-0.4512]],[[39.6166,-0.4524],[39.6163,-0.4522],[39.6163,-0.4526],[39.6166,-0.4524]],[[39.6158,-0.4514],[39.6156,-0.4516],[39.6158,-0.4516],[39.6158,-0.4514]],[[39.6155,-0.4518],[39.6147,-0.4519],[39.615,-0.4528],[39.6155,-0.4526],[39.6155,-0.4518]],[[39.6138,-0.4355],[39.614,-0.4356],[39.614,-0.4355],[39.6138,-0.4355]],[[39.6135,-0.4359],[39.6135,-0.436],[39.6135,-0.436],[39.6135,-0.4359]],[[39.6131,-0.4515],[39.6128,-0.4516],[39.6131,-0.4516],[39.6131,-0.4515]],[[39.6127,-0.4515],[39.6124,-0.4517],[39.6127,-0.4517],[39.6127,-0.4515]],[[39.6125,-0.4348],[39.6126,-0.4349],[39.6127,-0.4348],[39.6125,-0.4348]],[[39.6121,-0.4357],[39.6125,-0.4363],[39.6124,-0.4355],[39.6121,-0.4357]],[[39.6118,-0.453],[39.6119,-0.4533],[39.612,-0.453],[39.6118,-0.453]],[[39.6117,-0.4599],[39.6118,-0.4597],[39.6117,-0.4596],[39.6117,-0.4599]],[[39.6118,-0.45],[39.6117,-0.4502],[39.6118,-0.4502],[39.6118,-0.45]],[[39.6114,-0.4586],[39.6116,-0.4583],[39.6113,-0.4585],[39.6114,-0.4586]],[[39.6117,-0.4171],[39.6112,-0.4174],[39.6117,-0.4173],[39.6117,-0.4171]],[[39.6114,-0.4515],[39.6113,-0.4515],[39.6114,-0.4515],[39.6114,-0.4515]],[[39.6114,-0.4198],[39.6112,-0.4199],[39.6114,-0.4199],[39.6114,-0.4198]],[[39.6112,-0.4523],[39.6108,-0.4527],[39.6113,-0.4529],[39.6112,-0.4523]],[[39.6109,-0.4152],[39.611,-0.4151],[39.6108,-0.4151],[39.6109,-0.4152]],[[39.6107,-0.4349],[39.6102,-0.4355],[39.611,-0.4355],[39.6107,-0.4349]],[[39.611,-0.4182],[39.6108,-0.4183],[39.611,-0.4183],[39.611,-0.4182]],[[39.611,-0.4515],[39.6108,-0.4517],[39.611,-0.4518],[39.611,-0.4515]],[[39.611,-0.4197],[39.6106,-0.4201],[39.6109,-0.4201],[39.611,-0.4197]],[[39.6108,-0.4503],[39.6106,-0.45],[39.6106,-0.4504],[39.6108,-0.4503]],[[39.6106,-0.4517],[39.6102,-0.4518],[39.61,-0.452],[39.6106,-0.4517]],[[39.6103,-0.434],[39.6101,-0.4334],[39.6101,-0.434],[39.6103,-0.434]],[[39.6105,-0.4381],[39.61,-0.4384],[39.6105,-0.4382],[39.6105,-0.4381]],[[39.6101,-0.4152],[39.6103,-0.4152],[39.6101,-0.4152],[39.6101,-0.4152]],[[39.61,-0.4195],[39.6103,-0.4191],[39.6099,-0.4193],[39.61,-0.4195]],[[39.6099,-0.4172],[39.6097,-0.4169],[39.6096,-0.4172],[39.6099,-0.4172]],[[39.6102,-0.42],[39.6101,-0.4202],[39.6102,-0.4203],[39.6102,-0.42]],[[39.6101,-0.4506],[39.6101,-0.4507],[39.6101,-0.4507],[39.6101,-0.4506]],[[39.6095,-0.4472],[39.6099,-0.4467],[39.6095,-0.4469],[39.6095,-0.4472]],[[39.6098,-0.4307],[39.61,-0.4303],[39.6096,-0.431],[39.6098,-0.4307]],[[39.6099,-0.4303],[39.6101,-0.4298],[39.6097,-0.4299],[39.6099,-0.4303]],[[39.61,-0.4311],[39.6099,-0.4311],[39.61,-0.4311],[39.61,-0.4311]],[[39.61,-0.4433],[39.6099,-0.4437],[39.61,-0.4437],[39.61,-0.4433]],[[39.61,-0.4475],[39.6097,-0.4478],[39.61,-0.4477],[39.61,-0.4475]],[[39.6097,-0.4292],[39.6095,-0.4294],[39.6096,-0.4294],[39.6097,-0.4292]],[[39.609,-0.4353],[39.6094,-0.4358],[39.6097,-0.4356],[39.6095,-0.4352],[39.609,-0.4353]],[[39.6096,-0.4176],[39.6088,-0.4181],[39.6091,-0.4183],[39.6096,-0.4176]],[[39.6091,-0.4505],[39.6095,-0.4513],[39.6095,-0.4504],[39.6091,-0.4505]],[[39.6088,-0.4156],[39.6096,-0.4163],[39.6093,-0.4155],[39.6088,-0.4156]],[[39.6095,-0.4444],[39.6093,-0.4447],[39.6095,-0.4447],[39.6095,-0.4444]],[[39.609,-0.4322],[39.6068,-0.4327],[39.6048,-0.434],[39.6067,-0.4337],[39.6071,-0.4356],[39.6082,-0.4346],[39.6079,-0.4336],[39.6089,-0.4342],[39.6094,-0.4334],[39.609,-0.4322]],[[39.6091,-0.4195],[39.6094,-0.4193],[39.6091,-0.4192],[39.6091,-0.4195]],[[39.6091,-0.4465],[39.6092,-0.4466],[39.6093,-0.4465],[39.6091,-0.4465]],[[39.6091,-0.4215],[39.6091,-0.4216],[39.6091,-0.4216],[39.6091,-0.4215]],[[39.6091,-0.4285],[39.6091,-0.4286],[39.6091,-0.4286],[39.6091,-0.4285]],[[39.6086,-0.4438],[39.6088,-0.4441],[39.6088,-0.4438],[39.6086,-0.4438]],[[39.6086,-0.4435],[39.6087,-0.4433],[39.6086,-0.4433],[39.6086,-0.4435]],[[39.6084,-0.4157],[39.6086,-0.4159],[39.6086,-0.4157],[39.6084,-0.4157]],[[39.6082,-0.4354],[39.6085,-0.4355],[39.6085,-0.4353],[39.6082,-0.4354]],[[39.608,-0.4391],[39.6083,-0.4394],[39.6083,-0.4391],[39.608,-0.4391]],[[39.607,-0.4158],[39.6078,-0.4162],[39.6082,-0.416],[39.6082,-0.4157],[39.607,-0.4158]],[[39.6073,-0.4181],[39.6081,-0.4178],[39.6078,-0.4167],[39.6073,-0.4172],[39.6073,-0.4181]],[[39.608,-0.4202],[39.6079,-0.4201],[39.6078,-0.4202],[39.608,-0.4202]],[[39.6076,-0.4236],[39.6074,-0.4239],[39.6077,-0.4239],[39.6076,-0.4236]],[[39.6074,-0.4229],[39.6071,-0.4232],[39.6073,-0.4233],[39.6074,-0.4229]],[[39.6073,-0.4258],[39.6072,-0.4259],[39.6073,-0.4259],[39.6073,-0.4258]],[[39.6071,-0.4163],[39.6058,-0.4173],[39.6057,-0.4178],[39.6071,-0.4163]],[[39.6065,-0.4263],[39.607,-0.426],[39.6065,-0.426],[39.6065,-0.4263]],[[39.6066,-0.4157],[39.6068,-0.416],[39.6068,-0.4157],[39.6066,-0.4157]],[[39.6059,-0.442],[39.6061,-0.4422],[39.6063,-0.4422],[39.6059,-0.442]],[[39.6024,-0.415],[39.6019,-0.4168],[39.6028,-0.4177],[39.6025,-0.4161],[39.6039,-0.4156],[39.6044,-0.4164],[39.6043,-0.4155],[39.6058,-0.4154],[39.6043,-0.4143],[39.6024,-0.415]],[[39.6056,-0.416],[39.6052,-0.4163],[39.6056,-0.4162],[39.6056,-0.416]],[[39.6054,-0.435],[39.6056,-0.4346],[39.6054,-0.4346],[39.6054,-0.435]],[[39.6051,-0.4178],[39.6048,-0.4179],[39.6051,-0.4179],[39.6051,-0.4178]],[[39.6046,-0.417],[39.6041,-0.4176],[39.6048,-0.4174],[39.6046,-0.417]],[[39.6043,-0.4344],[39.6038,-0.4339],[39.6035,-0.4344],[39.6043,-0.4344]],[[39.6042,-0.407],[39.6041,-0.4072],[39.6042,-0.4072],[39.6042,-0.407]],[[39.6037,-0.4185],[39.6039,-0.4183],[39.6038,-0.4181],[39.6037,-0.4185]],[[39.6038,-0.4037],[39.6036,-0.4039],[39.6038,-0.4038],[39.6038,-0.4037]],[[39.6034,-0.4142],[39.6037,-0.4138],[39.6034,-0.414],[39.6034,-0.4142]],[[39.6034,-0.4023],[39.6033,-0.4024],[39.6034,-0.4024],[39.6034,-0.4023]],[[39.6034,-0.4023],[39.6035,-0.4023],[39.6035,-0.4022],[39.6034,-0.4022],[39.6034,-0.4023]],[[39.6035,-0.4021],[39.6037,-0.4022],[39.6037,-0.402],[39.6035,-0.4021]],[[39.6029,-0.4344],[39.6029,-0.4349],[39.6035,-0.435],[39.6035,-0.4347],[39.6029,-0.4344]],[[39.6032,-0.4188],[39.6034,-0.4184],[39.6032,-0.4184],[39.6032,-0.4188]],[[39.6027,-0.4027],[39.6018,-0.4035],[39.6032,-0.4025],[39.6027,-0.4027]],[[39.6029,-0.4098],[39.6029,-0.4098],[39.6029,-0.4098],[39.6029,-0.4098]],[[39.6025,-0.4176],[39.6025,-0.4182],[39.6028,-0.4182],[39.6025,-0.4176]],[[39.6026,-0.4206],[39.6005,-0.4224],[39.6001,-0.4233],[39.6024,-0.4228],[39.6026,-0.4206]],[[39.6024,-0.4096],[39.6023,-0.4097],[39.6024,-0.4097],[39.6024,-0.4096]],[[39.6023,-0.4147],[39.6021,-0.4145],[39.6021,-0.4147],[39.6023,-0.4147]],[[39.6014,-0.4187],[39.6023,-0.4173],[39.6011,-0.4172],[39.6014,-0.4187]],[[39.602,-0.4097],[39.6021,-0.4098],[39.6021,-0.4097],[39.602,-0.4097]],[[39.6016,-0.4112],[39.6019,-0.4108],[39.6015,-0.4108],[39.6016,-0.4112]],[[39.6018,-0.4081],[39.6019,-0.408],[39.6018,-0.408],[39.6018,-0.4081]],[[39.6019,-0.4098],[39.6015,-0.4101],[39.6019,-0.4101],[39.6019,-0.4098]],[[39.6012,-0.4287],[39.6016,-0.4288],[39.6016,-0.4283],[39.6012,-0.4287]],[[39.6012,-0.4161],[39.6013,-0.416],[39.6012,-0.416],[39.6012,-0.4161]],[[39.6011,-0.4297],[39.601,-0.4299],[39.6011,-0.4299],[39.6011,-0.4297]],[[39.601,-0.4118],[39.6006,-0.4121],[39.601,-0.4121],[39.601,-0.4118]],[[39.6008,-0.4283],[39.6007,-0.4279],[39.6005,-0.4283],[39.6008,-0.4283]],[[39.6005,-0.4175],[39.6009,-0.4177],[39.6008,-0.4174],[39.6005,-0.4175]],[[39.5999,-0.4094],[39.5999,-0.4105],[39.6005,-0.4102],[39.5999,-0.4094]],[[39.6003,-0.4063],[39.5999,-0.405],[39.5994,-0.4047],[39.5996,-0.4065],[39.6003,-0.4063]],[[39.5999,-0.4174],[39.5995,-0.4176],[39.5999,-0.4176],[39.5999,-0.4174]],[[39.5989,-0.4035],[39.5996,-0.4025],[39.5987,-0.4018],[39.5989,-0.4035]],[[39.5994,-0.4088],[39.5994,-0.409],[39.5996,-0.409],[39.5994,-0.4088]],[[39.5994,-0.4075],[39.5992,-0.4084],[39.5994,-0.4084],[39.5994,-0.4075]],[[39.599,-0.4172],[39.5994,-0.4171],[39.599,-0.4171],[39.599,-0.4172]],[[39.598,-0.4266],[39.5988,-0.4275],[39.599,-0.4267],[39.598,-0.4266]],[[39.5988,-0.4063],[39.598,-0.4056],[39.5979,-0.4061],[39.5988,-0.4063]],[[39.5986,-0.4053],[39.5986,-0.4052],[39.5986,-0.4052],[39.5986,-0.4053]],[[39.596,-0.4253],[39.5958,-0.4256],[39.5961,-0.4255],[39.596,-0.4253]],[[39.5958,-0.4283],[39.5956,-0.4287],[39.5958,-0.4286],[39.5958,-0.4283]],[[39.5958,-0.4245],[39.5957,-0.4246],[39.5958,-0.4246],[39.5958,-0.4245]],[[39.5942,-0.4232],[39.5948,-0.4238],[39.595,-0.4256],[39.5953,-0.4237],[39.5942,-0.4232]],[[39.5954,-0.407],[39.595,-0.4075],[39.5952,-0.4075],[39.5954,-0.407]],[[39.5954,-0.4107],[39.5953,-0.411],[39.5954,-0.411],[39.5954,-0.4107]],[[39.5953,-0.4083],[39.5954,-0.4082],[39.5953,-0.4082],[39.5953,-0.4083]],[[39.595,-0.4299],[39.5953,-0.4298],[39.595,-0.4298],[39.595,-0.4299]],[[39.5953,-0.4103],[39.5952,-0.4102],[39.5951,-0.4103],[39.5953,-0.4103]],[[39.5949,-0.4097],[39.5952,-0.4095],[39.5949,-0.4094],[39.5949,-0.4097]],[[39.595,-0.4092],[39.5951,-0.4091],[39.595,-0.4091],[39.595,-0.4092]],[[39.5949,-0.4223],[39.5942,-0.4227],[39.5948,-0.4231],[39.5949,-0.4223]],[[39.5938,-0.4207],[39.5935,-0.4209],[39.5938,-0.4208],[39.5938,-0.4207]],[[39.5929,-0.4247],[39.593,-0.4246],[39.5929,-0.4246],[39.5929,-0.4247]]],[[[39.6092,-0.4493],[39.6093,-0.4488],[39.6097,-0.4488],[39.6092,-0.4493]]],[[[39.6359,-0.5146],[39.6356,-0.5174],[39.6357,-0.5146],[39.6359,-0.5146]]],[[[39.6357,-0.4692],[39.6351,-0.4697],[39.6356,-0.4689],[39.6357,-0.4692]]],[[[39.6353,-0.4629],[39.6351,-0.4631],[39.6351,-0.4629],[39.6353,-0.4629]]],[[[39.6343,-0.5043],[39.6342,-0.5047],[39.634,-0.5047],[39.6343,-0.5043]]],[[[39.6269,-0.4468],[39.6272,-0.4464],[39.6274,-0.4467],[39.6269,-0.4468]]],[[[39.6296,-0.4467],[39.6291,-0.4471],[39.6289,-0.4472],[39.6296,-0.4467]]],[[[39.6339,-0.5041],[39.6338,-0.5044],[39.6338,-0.5041],[39.6339,-0.5041]]],[[[39.6339,-0.5002],[39.6336,-0.5004],[39.6336,-0.5002],[39.6339,-0.5002]]],[[[39.6326,-0.4999],[39.633,-0.5001],[39.6326,-0.5001],[39.6326,-0.4999]]],[[[39.6329,-0.4444],[39.6328,-0.4441],[39.633,-0.4441],[39.6329,-0.4444]]],[[[39.6325,-0.4753],[39.6323,-0.4755],[39.6323,-0.4753],[39.6325,-0.4753]]],[[[39.6308,-0.4003],[39.631,-0.3993],[39.6311,-0.4002],[39.6308,-0.4003]]],[[[39.6292,-0.4934],[39.6298,-0.497],[39.6308,-0.4986],[39.6299,-0.4987],[39.63,-0.4977],[39.629,-0.4968],[39.6292,-0.4934]]],[[[39.63,-0.4003],[39.6302,-0.4006],[39.63,-0.4006],[39.63,-0.4003]]],[[[39.6295,-0.4035],[39.6299,-0.4034],[39.6295,-0.4037],[39.6295,-0.4035]]],[[[39.6263,-0.4396],[39.6264,-0.4393],[39.6266,-0.4393],[39.6266,-0.4395],[39.6265,-0.4396],[39.6263,-0.4396]]],[[[39.6296,-0.4003],[39.6293,-0.4006],[39.6294,-0.4003],[39.6296,-0.4003]]],[[[39.6295,-0.4023],[39.6291,-0.4027],[39.6288,-0.4024],[39.6295,-0.4023]]],[[[39.629,-0.4011],[39.6292,-0.4014],[39.629,-0.4014],[39.629,-0.4011]]],[[[39.6289,-0.4014],[39.6282,-0.4024],[39.6281,-0.4014],[39.6289,-0.4014]]],[[[39.6284,-0.4551],[39.6287,-0.4554],[39.6285,-0.4554],[39.6284,-0.4551]]],[[[39.6281,-0.4782],[39.6273,-0.4798],[39.628,-0.4775],[39.6281,-0.4782]]],[[[39.6268,-0.4507],[39.6271,-0.4506],[39.6271,-0.4508],[39.6268,-0.4507]]],[[[39.6266,-0.4024],[39.6269,-0.4036],[39.6263,-0.4029],[39.6266,-0.4024]]],[[[39.6268,-0.43],[39.6266,-0.4303],[39.6266,-0.4302],[39.6268,-0.43]]],[[[39.6265,-0.4193],[39.6268,-0.4195],[39.6264,-0.4195],[39.6265,-0.4193]]],[[[39.6261,-0.431],[39.6264,-0.4303],[39.6266,-0.431],[39.6261,-0.431]]],[[[39.6262,-0.4022],[39.625,-0.4023],[39.625,-0.402],[39.6259,-0.4018],[39.6262,-0.4022]]],[[[39.6264,-0.404],[39.6258,-0.4039],[39.6263,-0.4036],[39.6264,-0.404]]],[[[39.626,-0.3995],[39.6259,-0.3999],[39.6257,-0.3995],[39.626,-0.3995]]],[[[39.6253,-0.4311],[39.6257,-0.4313],[39.6253,-0.4313],[39.6253,-0.4311]]],[[[39.6239,-0.417],[39.623,-0.4177],[39.6254,-0.4184],[39.6248,-0.4195],[39.621,-0.4193],[39.6215,-0.4173],[39.6239,-0.417]]],[[[39.6249,-0.4017],[39.6249,-0.4012],[39.6251,-0.4017],[39.6249,-0.4017]]],[[[39.6248,-0.4204],[39.625,-0.4208],[39.6246,-0.4207],[39.6248,-0.4204]]],[[[39.6249,-0.4231],[39.6251,-0.4234],[39.6248,-0.4233],[39.6249,-0.4231]]],[[[39.6247,-0.421],[39.6229,-0.4214],[39.6219,-0.421],[39.6219,-0.4208],[39.6247,-0.421]]],[[[39.6244,-0.4013],[39.6236,-0.4009],[39.6244,-0.4009],[39.6244,-0.4013]]],[[[39.6234,-0.4313],[39.6236,-0.431],[39.6235,-0.4313],[39.6234,-0.4313]]],[[[39.6232,-0.4547],[39.6231,-0.4552],[39.6231,-0.4547],[39.6232,-0.4547]]],[[[39.6233,-0.4537],[39.6226,-0.4544],[39.6228,-0.4534],[39.6233,-0.4537]]],[[[39.6225,-0.43],[39.6219,-0.4295],[39.6225,-0.4293],[39.6225,-0.43]]],[[[39.622,-0.4227],[39.6224,-0.4223],[39.6224,-0.4226],[39.622,-0.4227]]],[[[39.6215,-0.417],[39.6219,-0.4167],[39.6215,-0.4172],[39.6215,-0.417]]],[[[39.6224,-0.4163],[39.6219,-0.4165],[39.6224,-0.4159],[39.6224,-0.4163]]],[[[39.622,-0.4299],[39.6215,-0.4302],[39.6212,-0.4298],[39.622,-0.4299]]],[[[39.6217,-0.4207],[39.6213,-0.4208],[39.6213,-0.4207],[39.6217,-0.4207]]],[[[39.621,-0.4277],[39.6208,-0.4281],[39.6208,-0.4277],[39.621,-0.4277]]],[[[39.6199,-0.4243],[39.6201,-0.4236],[39.6205,-0.4233],[39.6199,-0.4243]]],[[[39.6197,-0.4258],[39.6205,-0.4258],[39.6203,-0.4265],[39.6189,-0.4258],[39.6189,-0.425],[39.6198,-0.4249],[39.6197,-0.4258]]],[[[39.6201,-0.417],[39.6201,-0.4165],[39.6202,-0.416],[39.6201,-0.417]]],[[[39.6193,-0.4153],[39.6188,-0.4136],[39.6174,-0.413],[39.619,-0.4133],[39.6189,-0.4135],[39.6196,-0.4141],[39.62,-0.4155],[39.6193,-0.4153]],[[39.6197,-0.4147],[39.6195,-0.4149],[39.6197,-0.415],[39.6197,-0.4147]]],[[[39.6196,-0.4266],[39.6199,-0.4269],[39.6195,-0.4268],[39.6196,-0.4266]]],[[[39.6198,-0.4162],[39.6196,-0.4159],[39.6198,-0.4159],[39.6198,-0.4162]]],[[[39.6196,-0.4281],[39.619,-0.4275],[39.6196,-0.4277],[39.6196,-0.4281]]],[[[39.6191,-0.4183],[39.6166,-0.4202],[39.6131,-0.4203],[39.6141,-0.42],[39.6131,-0.4197],[39.6136,-0.4184],[39.6141,-0.419],[39.6155,-0.4185],[39.6146,-0.4181],[39.6151,-0.4169],[39.6154,-0.4179],[39.6163,-0.4176],[39.6154,-0.4149],[39.6166,-0.4153],[39.6172,-0.4162],[39.6164,-0.4178],[39.6191,-0.4169],[39.6183,-0.4183],[39.6191,-0.4183]],[[39.618,-0.4183],[39.6181,-0.4181],[39.618,-0.4181],[39.618,-0.4183]],[[39.6173,-0.4192],[39.6175,-0.4187],[39.6172,-0.4188],[39.6173,-0.4192]],[[39.6171,-0.4193],[39.6163,-0.4195],[39.6171,-0.4194],[39.6171,-0.4193]],[[39.616,-0.4157],[39.6162,-0.4154],[39.616,-0.4154],[39.616,-0.4157]],[[39.6158,-0.418],[39.6161,-0.4179],[39.6158,-0.4179],[39.6158,-0.418]],[[39.6155,-0.4197],[39.6157,-0.4195],[39.6154,-0.4195],[39.6155,-0.4197]]],[[[39.6191,-0.4183],[39.6191,-0.4181],[39.6196,-0.4178],[39.6194,-0.4182],[39.6193,-0.4183],[39.6191,-0.4183]]],[[[39.619,-0.416],[39.6187,-0.4165],[39.6189,-0.416],[39.619,-0.416]]],[[[39.6183,-0.4249],[39.6187,-0.4252],[39.6184,-0.4253],[39.6183,-0.4249]]],[[[39.6178,-0.4053],[39.618,-0.4054],[39.6178,-0.4054],[39.6178,-0.4053]]],[[[39.6181,-0.4276],[39.6185,-0.4279],[39.6181,-0.4279],[39.6181,-0.4276]]],[[[39.6185,-0.4145],[39.618,-0.415],[39.6181,-0.4143],[39.6185,-0.4145]]],[[[39.6183,-0.4283],[39.6176,-0.4291],[39.618,-0.4279],[39.6183,-0.4283]]],[[[39.618,-0.4254],[39.6174,-0.427],[39.6172,-0.4253],[39.618,-0.4254]]],[[[39.6173,-0.4486],[39.6176,-0.4481],[39.618,-0.4482],[39.6165,-0.4506],[39.6153,-0.4511],[39.6134,-0.4507],[39.6135,-0.4502],[39.6173,-0.4486]],[[39.6174,-0.4485],[39.6176,-0.4487],[39.6176,-0.4485],[39.6174,-0.4485]],[[39.6156,-0.4497],[39.6159,-0.4503],[39.6163,-0.4494],[39.6156,-0.4497]],[[39.6148,-0.45],[39.6153,-0.4498],[39.6155,-0.4497],[39.6148,-0.45]],[[39.6144,-0.4501],[39.6144,-0.4504],[39.6146,-0.4501],[39.6144,-0.4501]]],[[[39.6164,-0.4143],[39.6168,-0.4152],[39.6179,-0.4151],[39.6175,-0.4161],[39.6165,-0.4151],[39.6164,-0.4143]]],[[[39.6168,-0.4141],[39.6163,-0.4137],[39.6166,-0.4135],[39.6168,-0.4141]]],[[[39.6172,-0.4137],[39.6168,-0.4129],[39.6175,-0.4134],[39.6172,-0.4137]]],[[[39.6164,-0.4271],[39.6157,-0.4263],[39.6166,-0.4258],[39.6164,-0.4271]]],[[[39.6161,-0.4279],[39.6154,-0.4279],[39.616,-0.4273],[39.6161,-0.4279]]],[[[39.6152,-0.4284],[39.6158,-0.4294],[39.6149,-0.4286],[39.6152,-0.4284]]],[[[39.6153,-0.4471],[39.6151,-0.448],[39.6145,-0.4472],[39.6153,-0.4471]]],[[[39.6155,-0.4306],[39.6156,-0.4309],[39.6153,-0.4306],[39.6155,-0.4306]]],[[[39.6153,-0.4269],[39.6155,-0.4266],[39.6155,-0.427],[39.6153,-0.4269]]],[[[39.6153,-0.4436],[39.6155,-0.4435],[39.6155,-0.4437],[39.6153,-0.4436]]],[[[39.6148,-0.4381],[39.6151,-0.4379],[39.6151,-0.4381],[39.6148,-0.4381]]],[[[39.6149,-0.4161],[39.6144,-0.416],[39.6148,-0.4159],[39.6149,-0.4161]]],[[[39.6148,-0.4466],[39.6146,-0.4468],[39.6146,-0.4466],[39.6148,-0.4466]]],[[[39.6144,-0.4454],[39.6147,-0.4456],[39.6144,-0.4456],[39.6144,-0.4454]]],[[[39.6142,-0.444],[39.6137,-0.4432],[39.6143,-0.4427],[39.6142,-0.444]]],[[[39.611,-0.4212],[39.6119,-0.4201],[39.6129,-0.4197],[39.6128,-0.4204],[39.611,-0.4212]]],[[[39.6127,-0.4221],[39.6124,-0.422],[39.6127,-0.4219],[39.6127,-0.4221]]],[[[39.6116,-0.4037],[39.6092,-0.4015],[39.6124,-0.4029],[39.6127,-0.4046],[39.6118,-0.4063],[39.6107,-0.4052],[39.6117,-0.4048],[39.6116,-0.4037]],[[39.6105,-0.4022],[39.6105,-0.4024],[39.6107,-0.4025],[39.6105,-0.4022]],[[39.6109,-0.4026],[39.6108,-0.4025],[39.6108,-0.4026],[39.6109,-0.4026]]],[[[39.6113,-0.4063],[39.6108,-0.407],[39.609,-0.4074],[39.6097,-0.4062],[39.6094,-0.406],[39.6086,-0.4063],[39.6089,-0.4075],[39.6058,-0.4079],[39.6054,-0.4067],[39.6062,-0.4059],[39.6052,-0.4043],[39.6069,-0.4054],[39.607,-0.4068],[39.6072,-0.4061],[39.6083,-0.4063],[39.6091,-0.4047],[39.6101,-0.4049],[39.6099,-0.4059],[39.611,-0.4056],[39.6102,-0.4068],[39.6113,-0.4063]],[[39.6098,-0.4071],[39.6096,-0.4069],[39.6095,-0.4071],[39.6098,-0.4071]],[[39.607,-0.4073],[39.6076,-0.4075],[39.6076,-0.4074],[39.607,-0.4073]]],[[[39.6119,-0.4225],[39.6126,-0.4225],[39.612,-0.4229],[39.6119,-0.4225]]],[[[39.6124,-0.4314],[39.6122,-0.4317],[39.6122,-0.4314],[39.6124,-0.4314]]],[[[39.6118,-0.4306],[39.6115,-0.431],[39.6117,-0.4306],[39.6118,-0.4306]]],[[[39.6111,-0.4448],[39.611,-0.4453],[39.611,-0.4448],[39.6111,-0.4448]]],[[[39.611,-0.4402],[39.6109,-0.4398],[39.611,-0.4398],[39.611,-0.4402]]],[[[39.6101,-0.4401],[39.6103,-0.4404],[39.6101,-0.4404],[39.6101,-0.4401]]],[[[39.6091,-0.4328],[39.6086,-0.4332],[39.6086,-0.4326],[39.6091,-0.4328]]],[[[39.6086,-0.4333],[39.6089,-0.4335],[39.6086,-0.4335],[39.6086,-0.4333]]],[[[39.6064,-0.4015],[39.6076,-0.4012],[39.6082,-0.4015],[39.6064,-0.4015]]],[[[39.601,-0.3992],[39.6002,-0.3984],[39.6065,-0.3984],[39.6056,-0.3999],[39.6031,-0.3996],[39.6026,-0.3999],[39.601,-0.3992]],[[39.6022,-0.3993],[39.6022,-0.3995],[39.6023,-0.3996],[39.6022,-0.3993]]],[[[39.6063,-0.4015],[39.6052,-0.4017],[39.6049,-0.4015],[39.6063,-0.4015]]],[[[39.6049,-0.4002],[39.6039,-0.4003],[39.6039,-0.4002],[39.6049,-0.4002]]],[[[39.6041,-0.4084],[39.6049,-0.4083],[39.604,-0.4089],[39.6041,-0.4084]]],[[[39.6049,-0.4035],[39.6047,-0.4037],[39.6047,-0.4035],[39.6049,-0.4035]]],[[[39.6044,-0.4015],[39.6039,-0.4016],[39.6039,-0.4015],[39.6044,-0.4015]]],[[[39.6037,-0.4007],[39.6031,-0.4008],[39.603,-0.4005],[39.6037,-0.4007]]],[[[39.6033,-0.3999],[39.6032,-0.4001],[39.603,-0.3999],[39.6033,-0.3999]]],[[[39.6012,-0.4089],[39.6008,-0.4086],[39.6013,-0.4086],[39.6012,-0.4089]]],[[[39.5972,-0.3988],[39.5974,-0.3991],[39.5971,-0.3991],[39.5972,-0.3988]]],[[[39.5968,-0.4278],[39.5969,-0.4281],[39.5968,-0.4282],[39.5968,-0.4278]]],[[[39.5961,-0.4275],[39.5965,-0.4271],[39.5964,-0.4276],[39.5961,-0.4275]]]]}}]}