{"type":"FeatureCollection","features":[{"type":"Feature","properties":{"site_id":"NBS-001","nbs_type":"Flood detention & retention basin (hafir)","priority":"Very High","system":"Lagh Dera system","lagha_class":"III – Medium lagha (100–500 km²)","ff_hazard":"Very High","near_town":"Hagadera","upstream_km2":448.8,"relief_m":"4.2","elev_m":128.0,"lulc":"Savannah","dist_settlement_km":0.87,"protects_txt":"248 structures, 2 schools, 1 health, 1 town","runoff_normal_m3":5386000.0,"runoff_elnino_m3":12566000.0,"design_storage_m3":"50,000–150,000","indicative_cost":"KES 12–40 M","lon":40.34972,"lat":-0.01256,"dist_tana_km":92.08,"in_county":true},"geometry":{"type":"Point","coordinates":[40.34972,-0.01256]}},{"type":"Feature","properties":{"site_id":"NBS-002","nbs_type":"Flood detention & retention basin (hafir)","priority":"Very High","system":"North-East coastal drainage","lagha_class":"I – Major lagha (≥2,000 km²)","ff_hazard":"Moderate","near_town":"Ijara","upstream_km2":2233.8,"relief_m":"2.5","elev_m":56.5,"lulc":"Shrubland","dist_settlement_km":1.11,"protects_txt":"1 town","runoff_normal_m3":26806000.0,"runoff_elnino_m3":62546000.0,"design_storage_m3":"50,000–150,000","indicative_cost":"KES 12–40 M","lon":40.51682,"lat":-1.56598,"dist_tana_km":45.3,"in_county":true},"geometry":{"type":"Point","coordinates":[40.51682,-1.56598]}},{"type":"Feature","properties":{"site_id":"NBS-003","nbs_type":"Flood detention & retention basin (hafir)","priority":"Very High","system":"Lagh Dera system","lagha_class":"III – Medium lagha (100–500 km²)","ff_hazard":"Very High","near_town":"Hagadera","upstream_km2":419.4,"relief_m":"3.5","elev_m":134.3,"lulc":"Savannah","dist_settlement_km":6.05,"protects_txt":"248 structures, 2 schools, 1 health, 1 town","runoff_normal_m3":5033000.0,"runoff_elnino_m3":11743000.0,"design_storage_m3":"50,000–150,000","indicative_cost":"KES 12–40 M","lon":40.32972,"lat":-0.05679,"dist_tana_km":87.42,"in_county":true},"geometry":{"type":"Point","coordinates":[40.32972,-0.05679]}},{"type":"Feature","properties":{"site_id":"NBS-004","nbs_type":"Flood detention & retention basin (hafir)","priority":"Very High","system":"North-East coastal drainage","lagha_class":"I – Major lagha (≥2,000 km²)","ff_hazard":"Moderate","near_town":"Ijara","upstream_km2":2089.9,"relief_m":"1.7","elev_m":61.0,"lulc":"Shrubland","dist_settlement_km":8.86,"protects_txt":"1 town","runoff_normal_m3":25079000.0,"runoff_elnino_m3":58517000.0,"design_storage_m3":"50,000–150,000","indicative_cost":"KES 12–40 M","lon":40.4603,"lat":-1.5228,"dist_tana_km":40.35,"in_county":true},"geometry":{"type":"Point","coordinates":[40.4603,-1.5228]}},{"type":"Feature","properties":{"site_id":"NBS-005","nbs_type":"Flood detention & retention basin (hafir)","priority":"Very High","system":"Lagh Dera system","lagha_class":"III – Medium lagha (100–500 km²)","ff_hazard":"Low","near_town":"Hagadera","upstream_km2":240.7,"relief_m":"3.7","elev_m":139.5,"lulc":"Savannah","dist_settlement_km":10.34,"protects_txt":"248 structures, 2 schools, 1 health, 1 town","runoff_normal_m3":2888000.0,"runoff_elnino_m3":6740000.0,"design_storage_m3":"50,000–150,000","indicative_cost":"KES 12–40 M","lon":40.35535,"lat":-0.11118,"dist_tana_km":85.38,"in_county":true},"geometry":{"type":"Point","coordinates":[40.35535,-0.11118]}},{"type":"Feature","properties":{"site_id":"NBS-006","nbs_type":"Flood detention & retention basin (hafir)","priority":"Very High","system":"North-East coastal drainage","lagha_class":"II – Large lagha (500–2,000 km²)","ff_hazard":"High","near_town":"Ijara","upstream_km2":1732.1,"relief_m":"2.0","elev_m":63.0,"lulc":"Shrubland","dist_settlement_km":14.7,"protects_txt":"1 town","runoff_normal_m3":20785000.0,"runoff_elnino_m3":48499000.0,"design_storage_m3":"50,000–150,000","indicative_cost":"KES 12–40 M","lon":40.44056,"lat":-1.46972,"dist_tana_km":40.26,"in_county":true},"geometry":{"type":"Point","coordinates":[40.44056,-1.46972]}},{"type":"Feature","properties":{"site_id":"NBS-007","nbs_type":"Flood detention & retention basin (hafir)","priority":"High","system":"Lagh Dera system","lagha_class":"I – Major lagha (≥2,000 km²)","ff_hazard":"Very High","near_town":"Dadaab","upstream_km2":53.2,"relief_m":"2.5","elev_m":126.5,"lulc":"Savannah","dist_settlement_km":1.48,"protects_txt":"9 schools, 341 structures","runoff_normal_m3":638000.0,"runoff_elnino_m3":1490000.0,"design_storage_m3":"50,000–150,000","indicative_cost":"KES 12–40 M","lon":40.25861,"lat":0.17296,"dist_tana_km":94.25,"in_county":true},"geometry":{"type":"Point","coordinates":[40.25861,0.17296]}},{"type":"Feature","properties":{"site_id":"NBS-008","nbs_type":"Flood detention & retention basin (hafir)","priority":"High","system":"Lagh Dera system","lagha_class":"III – Medium lagha (100–500 km²)","ff_hazard":"Low","near_town":"Hagadera","upstream_km2":118.9,"relief_m":"2.7","elev_m":140.5,"lulc":"Savannah","dist_settlement_km":11.89,"protects_txt":"248 structures, 2 schools, 1 health, 1 town","runoff_normal_m3":1427000.0,"runoff_elnino_m3":3329000.0,"design_storage_m3":"50,000–150,000","indicative_cost":"KES 12–40 M","lon":40.27194,"lat":-0.07871,"dist_tana_km":81.22,"in_county":true},"geometry":{"type":"Point","coordinates":[40.27194,-0.07871]}},{"type":"Feature","properties":{"site_id":"NBS-009","nbs_type":"Flood detention & retention basin (hafir)","priority":"High","system":"Lagh Dera system","lagha_class":"I – Major lagha (≥2,000 km²)","ff_hazard":"Very High","near_town":"Liboi","upstream_km2":69.1,"relief_m":"2.0","elev_m":86.5,"lulc":"Savannah","dist_settlement_km":1.22,"protects_txt":"1 town, 1 health","runoff_normal_m3":829000.0,"runoff_elnino_m3":1935000.0,"design_storage_m3":"50,000–150,000","indicative_cost":"KES 12–40 M","lon":40.84966,"lat":0.33778,"dist_tana_km":159.28,"in_county":true},"geometry":{"type":"Point","coordinates":[40.84966,0.33778]}},{"type":"Feature","properties":{"site_id":"NBS-010","nbs_type":"Flood detention & retention basin (hafir)","priority":"Very High","system":"North-East coastal drainage","lagha_class":"II – Large lagha (500–2,000 km²)","ff_hazard":"Moderate","near_town":"Ijara","upstream_km2":827.1,"relief_m":"2.0","elev_m":66.8,"lulc":"Shrubland","dist_settlement_km":19.72,"protects_txt":"1 town","runoff_normal_m3":9925000.0,"runoff_elnino_m3":23159000.0,"design_storage_m3":"50,000–150,000","indicative_cost":"KES 12–40 M","lon":40.40403,"lat":-1.44111,"dist_tana_km":38.12,"in_county":true},"geometry":{"type":"Point","coordinates":[40.40403,-1.44111]}},{"type":"Feature","properties":{"site_id":"NBS-011","nbs_type":"Flood detention & retention basin (hafir)","priority":"High","system":"Lagh Dera system","lagha_class":"I – Major lagha (≥2,000 km²)","ff_hazard":"Very High","near_town":"Dadaab","upstream_km2":34.6,"relief_m":"1.7","elev_m":128.8,"lulc":"Savannah","dist_settlement_km":7.67,"protects_txt":"9 schools, 341 structures","runoff_normal_m3":415000.0,"runoff_elnino_m3":969000.0,"design_storage_m3":"50,000–150,000","indicative_cost":"KES 12–40 M","lon":40.19861,"lat":0.17903,"dist_tana_km":89.47,"in_county":true},"geometry":{"type":"Point","coordinates":[40.19861,0.17903]}},{"type":"Feature","properties":{"site_id":"NBS-012","nbs_type":"Flood detention & retention basin (hafir)","priority":"High","system":"Lagh Dera system","lagha_class":"II – Large lagha (500–2,000 km²)","ff_hazard":"Moderate","near_town":"Mado Gashi","upstream_km2":118.4,"relief_m":"3.0","elev_m":276.3,"lulc":"Shrubland","dist_settlement_km":6.01,"protects_txt":"1 town, 1 school","runoff_normal_m3":1421000.0,"runoff_elnino_m3":3315000.0,"design_storage_m3":"50,000–150,000","indicative_cost":"KES 12–40 M","lon":39.11734,"lat":0.68333,"dist_tana_km":80.99,"in_county":true},"geometry":{"type":"Point","coordinates":[39.11734,0.68333]}},{"type":"Feature","properties":{"site_id":"NBS-013","nbs_type":"Flood detention & retention basin (hafir)","priority":"High","system":"Lagh Dera system","lagha_class":"III – Medium lagha (100–500 km²)","ff_hazard":"Very High","near_town":"Benane","upstream_km2":288.5,"relief_m":"6.7","elev_m":409.8,"lulc":"Shrubland","dist_settlement_km":3.67,"protects_txt":"3 schools, 1 health","runoff_normal_m3":3462000.0,"runoff_elnino_m3":8078000.0,"design_storage_m3":"50,000–150,000","indicative_cost":"KES 12–40 M","lon":38.71127,"lat":0.50956,"dist_tana_km":60.74,"in_county":true},"geometry":{"type":"Point","coordinates":[38.71127,0.50956]}},{"type":"Feature","properties":{"site_id":"NBS-014","nbs_type":"Flood detention & retention basin (hafir)","priority":"High","system":"Lagh Dera system","lagha_class":"IV – Minor lagha / gully (15–100 km²)","ff_hazard":"Low","near_town":"Dadaab","upstream_km2":28.5,"relief_m":"2.7","elev_m":137.3,"lulc":"Shrubland","dist_settlement_km":7.85,"protects_txt":"248 structures, 2 schools, 1 health, 1 town","runoff_normal_m3":342000.0,"runoff_elnino_m3":798000.0,"design_storage_m3":"50,000–150,000","indicative_cost":"KES 12–40 M","lon":40.25573,"lat":0.01556,"dist_tana_km":84.18,"in_county":true},"geometry":{"type":"Point","coordinates":[40.25573,0.01556]}},{"type":"Feature","properties":{"site_id":"NBS-015","nbs_type":"Sand dam / sub-surface dam","priority":"Medium","system":"Tana basin","lagha_class":"III – Medium lagha (100–500 km²)","ff_hazard":"High","near_town":"Kora Wells","upstream_km2":41.9,"relief_m":"25.2","elev_m":318.5,"lulc":"Shrubland","dist_settlement_km":1.28,"protects_txt":"—","runoff_normal_m3":503000.0,"runoff_elnino_m3":1173000.0,"design_storage_m3":"3,000–15,000","indicative_cost":"KES 3–8 M","lon":38.75083,"lat":-0.00126,"dist_tana_km":7.48,"in_county":true},"geometry":{"type":"Point","coordinates":[38.75083,-0.00126]}},{"type":"Feature","properties":{"site_id":"NBS-016","nbs_type":"Sand dam / sub-surface dam","priority":"Medium","system":"Tana basin","lagha_class":"IV – Minor lagha / gully (15–100 km²)","ff_hazard":"Low","near_town":"Kora Wells","upstream_km2":62.3,"relief_m":"17.2","elev_m":319.5,"lulc":"Shrubland","dist_settlement_km":10.17,"protects_txt":"—","runoff_normal_m3":748000.0,"runoff_elnino_m3":1744000.0,"design_storage_m3":"3,000–15,000","indicative_cost":"KES 3–8 M","lon":38.83241,"lat":-0.00158,"dist_tana_km":9.48,"in_county":true},"geometry":{"type":"Point","coordinates":[38.83241,-0.00158]}},{"type":"Feature","properties":{"site_id":"NBS-017","nbs_type":"Sand dam / sub-surface dam","priority":"High","system":"Tana basin","lagha_class":"II – Large lagha (500–2,000 km²)","ff_hazard":"High","near_town":"Kora Wells","upstream_km2":120.8,"relief_m":"17.5","elev_m":316.3,"lulc":"Savannah","dist_settlement_km":14.84,"protects_txt":"1 school","runoff_normal_m3":1450000.0,"runoff_elnino_m3":3382000.0,"design_storage_m3":"3,000–15,000","indicative_cost":"KES 3–8 M","lon":38.8633,"lat":0.06642,"dist_tana_km":17.64,"in_county":true},"geometry":{"type":"Point","coordinates":[38.8633,0.06642]}},{"type":"Feature","properties":{"site_id":"NBS-018","nbs_type":"Sand dam / sub-surface dam","priority":"High","system":"Tana basin","lagha_class":"III – Medium lagha (100–500 km²)","ff_hazard":"Low","near_town":"Kora Wells","upstream_km2":89.9,"relief_m":"16.2","elev_m":401.2,"lulc":"Shrubland","dist_settlement_km":22.04,"protects_txt":"1 school","runoff_normal_m3":1079000.0,"runoff_elnino_m3":2517000.0,"design_storage_m3":"3,000–15,000","indicative_cost":"KES 3–8 M","lon":38.80804,"lat":0.20613,"dist_tana_km":30.6,"in_county":true},"geometry":{"type":"Point","coordinates":[38.80804,0.20613]}},{"type":"Feature","properties":{"site_id":"NBS-019","nbs_type":"Sand dam / sub-surface dam","priority":"High","system":"Tana basin","lagha_class":"III – Medium lagha (100–500 km²)","ff_hazard":"Moderate","near_town":"Kora Wells","upstream_km2":137.1,"relief_m":"14.2","elev_m":337.3,"lulc":"Shrubland","dist_settlement_km":20.59,"protects_txt":"1 school","runoff_normal_m3":1645000.0,"runoff_elnino_m3":3839000.0,"design_storage_m3":"3,000–15,000","indicative_cost":"KES 3–8 M","lon":38.86195,"lat":0.15657,"dist_tana_km":27.23,"in_county":true},"geometry":{"type":"Point","coordinates":[38.86195,0.15657]}},{"type":"Feature","properties":{"site_id":"NBS-020","nbs_type":"Sand dam / sub-surface dam","priority":"High","system":"Tana basin","lagha_class":"II – Large lagha (500–2,000 km²)","ff_hazard":"High","near_town":"Kora Wells","upstream_km2":65.4,"relief_m":"10.8","elev_m":406.5,"lulc":"Savannah","dist_settlement_km":13.88,"protects_txt":"1 school","runoff_normal_m3":785000.0,"runoff_elnino_m3":1831000.0,"design_storage_m3":"3,000–15,000","indicative_cost":"KES 3–8 M","lon":38.78304,"lat":0.13667,"dist_tana_km":22.49,"in_county":true},"geometry":{"type":"Point","coordinates":[38.78304,0.13667]}},{"type":"Feature","properties":{"site_id":"NBS-021","nbs_type":"Sand dam / sub-surface dam","priority":"High","system":"Tana basin","lagha_class":"III – Medium lagha (100–500 km²)","ff_hazard":"Moderate","near_town":"Korokora","upstream_km2":26.4,"relief_m":"10.8","elev_m":171.8,"lulc":"Savannah","dist_settlement_km":18.62,"protects_txt":"1 school, 1 health","runoff_normal_m3":317000.0,"runoff_elnino_m3":739000.0,"design_storage_m3":"3,000–15,000","indicative_cost":"KES 3–8 M","lon":39.79083,"lat":-0.56274,"dist_tana_km":5.8,"in_county":true},"geometry":{"type":"Point","coordinates":[39.79083,-0.56274]}},{"type":"Feature","properties":{"site_id":"NBS-022","nbs_type":"Sand dam / sub-surface dam","priority":"High","system":"Tana basin","lagha_class":"IV – Minor lagha / gully (15–100 km²)","ff_hazard":"Moderate","near_town":"Mbalambala","upstream_km2":25.7,"relief_m":"9.8","elev_m":267.3,"lulc":"Savannah","dist_settlement_km":19.06,"protects_txt":"2 healths","runoff_normal_m3":308000.0,"runoff_elnino_m3":720000.0,"design_storage_m3":"3,000–15,000","indicative_cost":"KES 3–8 M","lon":38.91163,"lat":-0.01191,"dist_tana_km":8.16,"in_county":true},"geometry":{"type":"Point","coordinates":[38.91163,-0.01191]}},{"type":"Feature","properties":{"site_id":"NBS-023","nbs_type":"Sand dam / sub-surface dam","priority":"High","system":"Lagh Dera system","lagha_class":"III – Medium lagha (100–500 km²)","ff_hazard":"Very High","near_town":"Benane","upstream_km2":316.1,"relief_m":"9.0","elev_m":399.8,"lulc":"Shrubland","dist_settlement_km":6.43,"protects_txt":"3 schools, 1 health","runoff_normal_m3":3793000.0,"runoff_elnino_m3":8851000.0,"design_storage_m3":"3,000–15,000","indicative_cost":"KES 3–8 M","lon":38.7352,"lat":0.51778,"dist_tana_km":62.15,"in_county":true},"geometry":{"type":"Point","coordinates":[38.7352,0.51778]}},{"type":"Feature","properties":{"site_id":"NBS-024","nbs_type":"Sand dam / sub-surface dam","priority":"Medium","system":"Lagh Dera system","lagha_class":"III – Medium lagha (100–500 km²)","ff_hazard":"Low","near_town":"Benane","upstream_km2":71.6,"relief_m":"8.2","elev_m":444.5,"lulc":"Shrubland","dist_settlement_km":17.73,"protects_txt":"—","runoff_normal_m3":859000.0,"runoff_elnino_m3":2005000.0,"design_storage_m3":"3,000–15,000","indicative_cost":"KES 3–8 M","lon":38.75399,"lat":0.35667,"dist_tana_km":44.84,"in_county":true},"geometry":{"type":"Point","coordinates":[38.75399,0.35667]}},{"type":"Feature","properties":{"site_id":"NBS-025","nbs_type":"Sand dam / sub-surface dam","priority":"High","system":"Lagh Dera system","lagha_class":"III – Medium lagha (100–500 km²)","ff_hazard":"Moderate","near_town":"Hagadera","upstream_km2":174.3,"relief_m":"7.7","elev_m":119.3,"lulc":"Shrubland","dist_settlement_km":7.56,"protects_txt":"1 school","runoff_normal_m3":2092000.0,"runoff_elnino_m3":4880000.0,"design_storage_m3":"3,000–15,000","indicative_cost":"KES 3–8 M","lon":40.45194,"lat":0.05365,"dist_tana_km":105.5,"in_county":true},"geometry":{"type":"Point","coordinates":[40.45194,0.05365]}},{"type":"Feature","properties":{"site_id":"NBS-026","nbs_type":"Sand dam / sub-surface dam","priority":"Medium","system":"North-East coastal drainage","lagha_class":"II – Large lagha (500–2,000 km²)","ff_hazard":"High","near_town":"Mararani No10","upstream_km2":162.9,"relief_m":"8.5","elev_m":29.0,"lulc":"Forest","dist_settlement_km":19.96,"protects_txt":"—","runoff_normal_m3":1955000.0,"runoff_elnino_m3":4561000.0,"design_storage_m3":"3,000–15,000","indicative_cost":"KES 3–8 M","lon":41.26101,"lat":-1.39333,"dist_tana_km":130.3,"in_county":true},"geometry":{"type":"Point","coordinates":[41.26101,-1.39333]}},{"type":"Feature","properties":{"site_id":"NBS-027","nbs_type":"Sand dam / sub-surface dam","priority":"High","system":"North-East coastal drainage","lagha_class":"IV – Minor lagha / gully (15–100 km²)","ff_hazard":"Moderate","near_town":"Ijara","upstream_km2":71.9,"relief_m":"6.0","elev_m":46.0,"lulc":"Shrubland","dist_settlement_km":9.62,"protects_txt":"1 health, 1 school","runoff_normal_m3":863000.0,"runoff_elnino_m3":2013000.0,"design_storage_m3":"3,000–15,000","indicative_cost":"KES 3–8 M","lon":40.59194,"lat":-1.66414,"dist_tana_km":52.19,"in_county":true},"geometry":{"type":"Point","coordinates":[40.59194,-1.66414]}},{"type":"Feature","properties":{"site_id":"NBS-028","nbs_type":"Sand dam / sub-surface dam","priority":"High","system":"North-East coastal drainage","lagha_class":"III – Medium lagha (100–500 km²)","ff_hazard":"Low","near_town":"Ijara","upstream_km2":87.4,"relief_m":"8.0","elev_m":37.8,"lulc":"Shrubland","dist_settlement_km":24.51,"protects_txt":"1 health, 1 school","runoff_normal_m3":1049000.0,"runoff_elnino_m3":2447000.0,"design_storage_m3":"3,000–15,000","indicative_cost":"KES 3–8 M","lon":40.5975,"lat":-1.81112,"dist_tana_km":50.94,"in_county":true},"geometry":{"type":"Point","coordinates":[40.5975,-1.81112]}},{"type":"Feature","properties":{"site_id":"NBS-029","nbs_type":"Sand dam / sub-surface dam","priority":"High","system":"Local ephemeral drainage","lagha_class":"IV – Minor lagha / gully (15–100 km²)","ff_hazard":"High","near_town":"Garissa","upstream_km2":19.4,"relief_m":"6.8","elev_m":167.0,"lulc":"Savannah","dist_settlement_km":9.04,"protects_txt":"2587 structures, 1 health","runoff_normal_m3":233000.0,"runoff_elnino_m3":543000.0,"design_storage_m3":"3,000–15,000","indicative_cost":"KES 3–8 M","lon":39.63596,"lat":-0.35445,"dist_tana_km":4.28,"in_county":true},"geometry":{"type":"Point","coordinates":[39.63596,-0.35445]}},{"type":"Feature","properties":{"site_id":"NBS-030","nbs_type":"Sand dam / sub-surface dam","priority":"Medium","system":"Lagh Dera system","lagha_class":"III – Medium lagha (100–500 km²)","ff_hazard":"Low","near_town":"Hagadera","upstream_km2":61.1,"relief_m":"5.2","elev_m":132.3,"lulc":"Savannah","dist_settlement_km":10.52,"protects_txt":"—","runoff_normal_m3":733000.0,"runoff_elnino_m3":1711000.0,"design_storage_m3":"3,000–15,000","indicative_cost":"KES 3–8 M","lon":40.43194,"lat":-0.10206,"dist_tana_km":92.6,"in_county":true},"geometry":{"type":"Point","coordinates":[40.43194,-0.10206]}},{"type":"Feature","properties":{"site_id":"NBS-031","nbs_type":"Off-channel water pan (diversion-fed)","priority":"Medium","system":"Local ephemeral drainage","lagha_class":"IV – Minor lagha / gully (15–100 km²)","ff_hazard":"Low","near_town":"Mararani No10","upstream_km2":61.6,"relief_m":"1.5","elev_m":36.0,"lulc":"Shrubland","dist_settlement_km":22.36,"protects_txt":"—","runoff_normal_m3":739000.0,"runoff_elnino_m3":1725000.0,"design_storage_m3":"10,000–50,000","indicative_cost":"KES 4–15 M","lon":41.05551,"lat":-1.69912,"dist_tana_km":103.25,"in_county":true},"geometry":{"type":"Point","coordinates":[41.05551,-1.69912]}},{"type":"Feature","properties":{"site_id":"NBS-032","nbs_type":"Off-channel water pan (diversion-fed)","priority":"High","system":"North-East coastal drainage","lagha_class":"II – Large lagha (500–2,000 km²)","ff_hazard":"Moderate","near_town":"Kolbio","upstream_km2":1009.6,"relief_m":"1.5","elev_m":98.8,"lulc":"Shrubland","dist_settlement_km":66.77,"protects_txt":"—","runoff_normal_m3":12115000.0,"runoff_elnino_m3":28269000.0,"design_storage_m3":"10,000–50,000","indicative_cost":"KES 4–15 M","lon":40.84936,"lat":-0.64186,"dist_tana_km":112.14,"in_county":true},"geometry":{"type":"Point","coordinates":[40.84936,-0.64186]}},{"type":"Feature","properties":{"site_id":"NBS-033","nbs_type":"Off-channel water pan (diversion-fed)","priority":"High","system":"North-East coastal drainage","lagha_class":"II – Large lagha (500–2,000 km²)","ff_hazard":"Moderate","near_town":"Masabubu","upstream_km2":633.9,"relief_m":"1.7","elev_m":86.5,"lulc":"Shrubland","dist_settlement_km":45.66,"protects_txt":"—","runoff_normal_m3":7607000.0,"runoff_elnino_m3":17749000.0,"design_storage_m3":"10,000–50,000","indicative_cost":"KES 4–15 M","lon":40.29281,"lat":-1.23198,"dist_tana_km":31.17,"in_county":true},"geometry":{"type":"Point","coordinates":[40.29281,-1.23198]}},{"type":"Feature","properties":{"site_id":"NBS-034","nbs_type":"Off-channel water pan (diversion-fed)","priority":"Very High","system":"Lagh Dera system","lagha_class":"II – Large lagha (500–2,000 km²)","ff_hazard":"Very High","near_town":"Mado Gashi","upstream_km2":876.8,"relief_m":"1.5","elev_m":313.5,"lulc":"Shrubland","dist_settlement_km":22.28,"protects_txt":"1 school, 1 town","runoff_normal_m3":10522000.0,"runoff_elnino_m3":24550000.0,"design_storage_m3":"10,000–50,000","indicative_cost":"KES 4–15 M","lon":38.98678,"lat":0.61556,"dist_tana_km":73.01,"in_county":true},"geometry":{"type":"Point","coordinates":[38.98678,0.61556]}},{"type":"Feature","properties":{"site_id":"NBS-035","nbs_type":"Off-channel water pan (diversion-fed)","priority":"High","system":"North-East coastal drainage","lagha_class":"III – Medium lagha (100–500 km²)","ff_hazard":"Low","near_town":"Liboi","upstream_km2":358.3,"relief_m":"1.5","elev_m":90.3,"lulc":"Savannah","dist_settlement_km":54.38,"protects_txt":"—","runoff_normal_m3":4300000.0,"runoff_elnino_m3":10032000.0,"design_storage_m3":"10,000–50,000","indicative_cost":"KES 4–15 M","lon":40.96558,"lat":-0.14475,"dist_tana_km":142.25,"in_county":true},"geometry":{"type":"Point","coordinates":[40.96558,-0.14475]}},{"type":"Feature","properties":{"site_id":"NBS-036","nbs_type":"Off-channel water pan (diversion-fed)","priority":"Medium","system":"North-East coastal drainage","lagha_class":"III – Medium lagha (100–500 km²)","ff_hazard":"Moderate","near_town":"Korokora","upstream_km2":233.0,"relief_m":"1.5","elev_m":140.3,"lulc":"Savannah","dist_settlement_km":61.62,"protects_txt":"—","runoff_normal_m3":2796000.0,"runoff_elnino_m3":6524000.0,"design_storage_m3":"10,000–50,000","indicative_cost":"KES 4–15 M","lon":40.15701,"lat":-0.70445,"dist_tana_km":36.61,"in_county":true},"geometry":{"type":"Point","coordinates":[40.15701,-0.70445]}},{"type":"Feature","properties":{"site_id":"NBS-037","nbs_type":"Off-channel water pan (diversion-fed)","priority":"High","system":"Lagh Dera system","lagha_class":"II – Large lagha (500–2,000 km²)","ff_hazard":"High","near_town":"Habaswein","upstream_km2":1221.5,"relief_m":"1.2","elev_m":193.0,"lulc":"Savannah","dist_settlement_km":29.06,"protects_txt":"—","runoff_normal_m3":14658000.0,"runoff_elnino_m3":34202000.0,"design_storage_m3":"10,000–50,000","indicative_cost":"KES 4–15 M","lon":39.42478,"lat":0.83049,"dist_tana_km":104.86,"in_county":true},"geometry":{"type":"Point","coordinates":[39.42478,0.83049]}},{"type":"Feature","properties":{"site_id":"NBS-038","nbs_type":"Off-channel water pan (diversion-fed)","priority":"High","system":"North-East coastal drainage","lagha_class":"II – Large lagha (500–2,000 km²)","ff_hazard":"Moderate","near_town":"Ijara","upstream_km2":1075.2,"relief_m":"1.5","elev_m":86.0,"lulc":"Shrubland","dist_settlement_km":57.6,"protects_txt":"—","runoff_normal_m3":12902000.0,"runoff_elnino_m3":30106000.0,"design_storage_m3":"10,000–50,000","indicative_cost":"KES 4–15 M","lon":40.66861,"lat":-1.07073,"dist_tana_km":75.87,"in_county":true},"geometry":{"type":"Point","coordinates":[40.66861,-1.07073]}},{"type":"Feature","properties":{"site_id":"NBS-039","nbs_type":"Off-channel water pan (diversion-fed)","priority":"Medium","system":"North-East coastal drainage","lagha_class":"I – Major lagha (≥2,000 km²)","ff_hazard":"High","near_town":"Mararani No10","upstream_km2":47.0,"relief_m":"1.7","elev_m":35.3,"lulc":"Shrubland","dist_settlement_km":17.13,"protects_txt":"—","runoff_normal_m3":564000.0,"runoff_elnino_m3":1316000.0,"design_storage_m3":"10,000–50,000","indicative_cost":"KES 4–15 M","lon":41.07734,"lat":-1.53872,"dist_tana_km":107.4,"in_county":true},"geometry":{"type":"Point","coordinates":[41.07734,-1.53872]}},{"type":"Feature","properties":{"site_id":"NBS-040","nbs_type":"Off-channel water pan (diversion-fed)","priority":"High","system":"Lagh Dera system","lagha_class":"II – Large lagha (500–2,000 km²)","ff_hazard":"High","near_town":"Habaswein","upstream_km2":1356.5,"relief_m":"1.7","elev_m":199.5,"lulc":"Savannah","dist_settlement_km":41.14,"protects_txt":"—","runoff_normal_m3":16278000.0,"runoff_elnino_m3":37982000.0,"design_storage_m3":"10,000–50,000","indicative_cost":"KES 4–15 M","lon":39.45197,"lat":0.98667,"dist_tana_km":122.05,"in_county":true},"geometry":{"type":"Point","coordinates":[39.45197,0.98667]}},{"type":"Feature","properties":{"site_id":"NBS-041","nbs_type":"Off-channel water pan (diversion-fed)","priority":"High","system":"North-East coastal drainage","lagha_class":"II – Large lagha (500–2,000 km²)","ff_hazard":"Moderate","near_town":"Kolbio","upstream_km2":567.4,"relief_m":"1.7","elev_m":112.8,"lulc":"Savannah","dist_settlement_km":76.42,"protects_txt":"—","runoff_normal_m3":6809000.0,"runoff_elnino_m3":15887000.0,"design_storage_m3":"10,000–50,000","indicative_cost":"KES 4–15 M","lon":40.59784,"lat":-0.80256,"dist_tana_km":80.7,"in_county":true},"geometry":{"type":"Point","coordinates":[40.59784,-0.80256]}},{"type":"Feature","properties":{"site_id":"NBS-042","nbs_type":"Off-channel water pan (diversion-fed)","priority":"High","system":"North-East coastal drainage","lagha_class":"II – Large lagha (500–2,000 km²)","ff_hazard":"High","near_town":"Korokora","upstream_km2":671.5,"relief_m":"1.7","elev_m":118.3,"lulc":"Shrubland","dist_settlement_km":71.73,"protects_txt":"—","runoff_normal_m3":8058000.0,"runoff_elnino_m3":18802000.0,"design_storage_m3":"10,000–50,000","indicative_cost":"KES 4–15 M","lon":40.34512,"lat":-0.66762,"dist_tana_km":57.4,"in_county":true},"geometry":{"type":"Point","coordinates":[40.34512,-0.66762]}},{"type":"Feature","properties":{"site_id":"NBS-043","nbs_type":"Off-channel water pan (diversion-fed)","priority":"Medium","system":"North-East coastal drainage","lagha_class":"III – Medium lagha (100–500 km²)","ff_hazard":"High","near_town":"Kolbio","upstream_km2":109.8,"relief_m":"1.7","elev_m":87.5,"lulc":"Shrubland","dist_settlement_km":65.88,"protects_txt":"—","runoff_normal_m3":1318000.0,"runoff_elnino_m3":3074000.0,"design_storage_m3":"10,000–50,000","indicative_cost":"KES 4–15 M","lon":40.98144,"lat":-0.57616,"dist_tana_km":128.11,"in_county":true},"geometry":{"type":"Point","coordinates":[40.98144,-0.57616]}},{"type":"Feature","properties":{"site_id":"NBS-044","nbs_type":"Off-channel water pan (diversion-fed)","priority":"High","system":"North-East coastal drainage","lagha_class":"III – Medium lagha (100–500 km²)","ff_hazard":"Low","near_town":"Bura","upstream_km2":396.8,"relief_m":"1.7","elev_m":104.0,"lulc":"Shrubland","dist_settlement_km":77.72,"protects_txt":"—","runoff_normal_m3":4762000.0,"runoff_elnino_m3":11110000.0,"design_storage_m3":"10,000–50,000","indicative_cost":"KES 4–15 M","lon":40.20194,"lat":-0.90124,"dist_tana_km":35.66,"in_county":true},"geometry":{"type":"Point","coordinates":[40.20194,-0.90124]}},{"type":"Feature","properties":{"site_id":"NBS-045","nbs_type":"Off-channel water pan (diversion-fed)","priority":"High","system":"Lagh Dera system","lagha_class":"III – Medium lagha (100–500 km²)","ff_hazard":"Low","near_town":"Habaswein","upstream_km2":434.6,"relief_m":"1.2","elev_m":171.8,"lulc":"Savannah","dist_settlement_km":53.92,"protects_txt":"—","runoff_normal_m3":5215000.0,"runoff_elnino_m3":12169000.0,"design_storage_m3":"10,000–50,000","indicative_cost":"KES 4–15 M","lon":39.65933,"lat":0.62372,"dist_tana_km":92.49,"in_county":true},"geometry":{"type":"Point","coordinates":[39.65933,0.62372]}},{"type":"Feature","properties":{"site_id":"NBS-046","nbs_type":"Off-channel water pan (diversion-fed)","priority":"High","system":"North-East coastal drainage","lagha_class":"II – Large lagha (500–2,000 km²)","ff_hazard":"Moderate","near_town":"Garissa","upstream_km2":782.5,"relief_m":"1.7","elev_m":189.8,"lulc":"Shrubland","dist_settlement_km":45.3,"protects_txt":"—","runoff_normal_m3":9390000.0,"runoff_elnino_m3":21910000.0,"design_storage_m3":"10,000–50,000","indicative_cost":"KES 4–15 M","lon":39.87302,"lat":-0.08996,"dist_tana_km":42.72,"in_county":true},"geometry":{"type":"Point","coordinates":[39.87302,-0.08996]}},{"type":"Feature","properties":{"site_id":"NBS-047","nbs_type":"Check dams, gully plugs & re-greening (land restoration)","priority":"Medium","system":"Tana basin","lagha_class":"III – Medium lagha (100–500 km²)","ff_hazard":"High","near_town":"Kora Wells","upstream_km2":41.9,"relief_m":"25.2","elev_m":318.5,"lulc":"Shrubland","dist_settlement_km":1.28,"protects_txt":"—","runoff_normal_m3":503000.0,"runoff_elnino_m3":1173000.0,"design_storage_m3":"500–3,000","indicative_cost":"KES 0.3–1.5 M","lon":38.75083,"lat":-0.00126,"dist_tana_km":7.48,"in_county":true},"geometry":{"type":"Point","coordinates":[38.75083,-0.00126]}},{"type":"Feature","properties":{"site_id":"NBS-048","nbs_type":"Check dams, gully plugs & re-greening (land restoration)","priority":"High","system":"Tana basin","lagha_class":"II – Large lagha (500–2,000 km²)","ff_hazard":"High","near_town":"Kora Wells","upstream_km2":117.9,"relief_m":"17.2","elev_m":327.8,"lulc":"Shrubland","dist_settlement_km":14.7,"protects_txt":"1 school","runoff_normal_m3":1415000.0,"runoff_elnino_m3":3301000.0,"design_storage_m3":"500–3,000","indicative_cost":"KES 0.3–1.5 M","lon":38.85801,"lat":0.07504,"dist_tana_km":18.38,"in_county":true},"geometry":{"type":"Point","coordinates":[38.85801,0.07504]}},{"type":"Feature","properties":{"site_id":"NBS-049","nbs_type":"Check dams, gully plugs & re-greening (land restoration)","priority":"High","system":"Tana basin","lagha_class":"III – Medium lagha (100–500 km²)","ff_hazard":"Low","near_town":"Kora Wells","upstream_km2":89.9,"relief_m":"16.2","elev_m":401.2,"lulc":"Shrubland","dist_settlement_km":22.04,"protects_txt":"1 school","runoff_normal_m3":1079000.0,"runoff_elnino_m3":2517000.0,"design_storage_m3":"500–3,000","indicative_cost":"KES 0.3–1.5 M","lon":38.80804,"lat":0.20613,"dist_tana_km":30.6,"in_county":true},"geometry":{"type":"Point","coordinates":[38.80804,0.20613]}},{"type":"Feature","properties":{"site_id":"NBS-050","nbs_type":"Check dams, gully plugs & re-greening (land restoration)","priority":"Medium","system":"Lagh Dera system","lagha_class":"III – Medium lagha (100–500 km²)","ff_hazard":"Moderate","near_town":"Mado Gashi","upstream_km2":111.9,"relief_m":"5.2","elev_m":188.0,"lulc":"Bare land","dist_settlement_km":29.17,"protects_txt":"—","runoff_normal_m3":1343000.0,"runoff_elnino_m3":3133000.0,"design_storage_m3":"500–3,000","indicative_cost":"KES 0.3–1.5 M","lon":39.44622,"lat":0.74461,"dist_tana_km":97.15,"in_county":true},"geometry":{"type":"Point","coordinates":[39.44622,0.74461]}},{"type":"Feature","properties":{"site_id":"NBS-051","nbs_type":"Check dams, gully plugs & re-greening (land restoration)","priority":"Medium","system":"Lagh Dera system","lagha_class":"III – Medium lagha (100–500 km²)","ff_hazard":"Low","near_town":"Benane","upstream_km2":71.6,"relief_m":"8.2","elev_m":444.5,"lulc":"Shrubland","dist_settlement_km":17.73,"protects_txt":"—","runoff_normal_m3":859000.0,"runoff_elnino_m3":2005000.0,"design_storage_m3":"500–3,000","indicative_cost":"KES 0.3–1.5 M","lon":38.75399,"lat":0.35667,"dist_tana_km":44.84,"in_county":true},"geometry":{"type":"Point","coordinates":[38.75399,0.35667]}},{"type":"Feature","properties":{"site_id":"NBS-052","nbs_type":"Check dams, gully plugs & re-greening (land restoration)","priority":"Medium","system":"North-East coastal drainage","lagha_class":"III – Medium lagha (100–500 km²)","ff_hazard":"Low","near_town":"Hagadera","upstream_km2":92.7,"relief_m":"8.0","elev_m":137.8,"lulc":"Shrubland","dist_settlement_km":37.95,"protects_txt":"—","runoff_normal_m3":1112000.0,"runoff_elnino_m3":2596000.0,"design_storage_m3":"500–3,000","indicative_cost":"KES 0.3–1.5 M","lon":40.54339,"lat":-0.32333,"dist_tana_km":91.3,"in_county":true},"geometry":{"type":"Point","coordinates":[40.54339,-0.32333]}},{"type":"Feature","properties":{"site_id":"NBS-053","nbs_type":"Check dams, gully plugs & re-greening (land restoration)","priority":"High","system":"North-East coastal drainage","lagha_class":"III – Medium lagha (100–500 km²)","ff_hazard":"Low","near_town":"Ijara","upstream_km2":87.4,"relief_m":"8.0","elev_m":37.8,"lulc":"Shrubland","dist_settlement_km":24.51,"protects_txt":"1 health, 1 school","runoff_normal_m3":1049000.0,"runoff_elnino_m3":2447000.0,"design_storage_m3":"500–3,000","indicative_cost":"KES 0.3–1.5 M","lon":40.5975,"lat":-1.81112,"dist_tana_km":50.94,"in_county":true},"geometry":{"type":"Point","coordinates":[40.5975,-1.81112]}},{"type":"Feature","properties":{"site_id":"NBS-054","nbs_type":"Check dams, gully plugs & re-greening (land restoration)","priority":"Medium","system":"Lagh Dera system","lagha_class":"IV – Minor lagha / gully (15–100 km²)","ff_hazard":"Low","near_town":"Mado Gashi","upstream_km2":37.1,"relief_m":"4.2","elev_m":214.8,"lulc":"Bare land","dist_settlement_km":17.83,"protects_txt":"—","runoff_normal_m3":445000.0,"runoff_elnino_m3":1039000.0,"design_storage_m3":"500–3,000","indicative_cost":"KES 0.3–1.5 M","lon":39.34463,"lat":0.7362,"dist_tana_km":91.95,"in_county":true},"geometry":{"type":"Point","coordinates":[39.34463,0.7362]}},{"type":"Feature","properties":{"site_id":"NBS-055","nbs_type":"Check dams, gully plugs & re-greening (land restoration)","priority":"Medium","system":"Lagh Dera system","lagha_class":"IV – Minor lagha / gully (15–100 km²)","ff_hazard":"Low","near_town":"Mado Gashi","upstream_km2":31.0,"relief_m":"3.7","elev_m":208.5,"lulc":"Bare land","dist_settlement_km":34.68,"protects_txt":"—","runoff_normal_m3":372000.0,"runoff_elnino_m3":868000.0,"design_storage_m3":"500–3,000","indicative_cost":"KES 0.3–1.5 M","lon":39.41306,"lat":0.5051,"dist_tana_km":72.03,"in_county":true},"geometry":{"type":"Point","coordinates":[39.41306,0.5051]}},{"type":"Feature","properties":{"site_id":"NBS-056","nbs_type":"Check dams, gully plugs & re-greening (land restoration)","priority":"Medium","system":"North-East coastal drainage","lagha_class":"IV – Minor lagha / gully (15–100 km²)","ff_hazard":"Low","near_town":"Ijara","upstream_km2":46.6,"relief_m":"6.7","elev_m":50.8,"lulc":"Shrubland","dist_settlement_km":22.37,"protects_txt":"—","runoff_normal_m3":559000.0,"runoff_elnino_m3":1305000.0,"design_storage_m3":"500–3,000","indicative_cost":"KES 0.3–1.5 M","lon":40.74144,"lat":-1.61394,"dist_tana_km":69.41,"in_county":true},"geometry":{"type":"Point","coordinates":[40.74144,-1.61394]}},{"type":"Feature","properties":{"site_id":"NBS-057","nbs_type":"Check dams, gully plugs & re-greening (land restoration)","priority":"Medium","system":"Lagh Dera system","lagha_class":"IV – Minor lagha / gully (15–100 km²)","ff_hazard":"Low","near_town":"Benane","upstream_km2":23.4,"relief_m":"6.5","elev_m":372.3,"lulc":"Shrubland","dist_settlement_km":36.46,"protects_txt":"—","runoff_normal_m3":281000.0,"runoff_elnino_m3":655000.0,"design_storage_m3":"500–3,000","indicative_cost":"KES 0.3–1.5 M","lon":38.97225,"lat":0.35667,"dist_tana_km":44.68,"in_county":true},"geometry":{"type":"Point","coordinates":[38.97225,0.35667]}},{"type":"Feature","properties":{"site_id":"NBS-058","nbs_type":"Check dams, gully plugs & re-greening (land restoration)","priority":"Medium","system":"Lagh Dera system","lagha_class":"III – Medium lagha (100–500 km²)","ff_hazard":"Low","near_town":"Benane","upstream_km2":86.1,"relief_m":"6.2","elev_m":321.2,"lulc":"Shrubland","dist_settlement_km":36.48,"protects_txt":"—","runoff_normal_m3":1033000.0,"runoff_elnino_m3":2411000.0,"design_storage_m3":"500–3,000","indicative_cost":"KES 0.3–1.5 M","lon":39.0642,"lat":0.39775,"dist_tana_km":48.97,"in_county":true},"geometry":{"type":"Point","coordinates":[39.0642,0.39775]}},{"type":"Feature","properties":{"site_id":"NBS-059","nbs_type":"Flood-spreading bunds & spate irrigation (Zai/half-moons)","priority":"High","system":"Lagh Dera system","lagha_class":"I – Major lagha (≥2,000 km²)","ff_hazard":"Very High","near_town":"Liboi","upstream_km2":18617.4,"relief_m":"2.5","elev_m":78.0,"lulc":"Savannah","dist_settlement_km":9.71,"protects_txt":"—","runoff_normal_m3":223409000.0,"runoff_elnino_m3":521287000.0,"design_storage_m3":"20,000–100,000","indicative_cost":"KES 2–10 M","lon":40.9362,"lat":0.42778,"dist_tana_km":172.57,"in_county":true},"geometry":{"type":"Point","coordinates":[40.9362,0.42778]}},{"type":"Feature","properties":{"site_id":"NBS-060","nbs_type":"Flood-spreading bunds & spate irrigation (Zai/half-moons)","priority":"High","system":"Lagh Dera system","lagha_class":"I – Major lagha (≥2,000 km²)","ff_hazard":"Very High","near_town":"Liboi","upstream_km2":17803.9,"relief_m":"2.7","elev_m":101.0,"lulc":"Shrubland","dist_settlement_km":25.39,"protects_txt":"—","runoff_normal_m3":213647000.0,"runoff_elnino_m3":498509000.0,"design_storage_m3":"20,000–100,000","indicative_cost":"KES 2–10 M","lon":40.65761,"lat":0.23556,"dist_tana_km":135.1,"in_county":true},"geometry":{"type":"Point","coordinates":[40.65761,0.23556]}},{"type":"Feature","properties":{"site_id":"NBS-061","nbs_type":"Flood-spreading bunds & spate irrigation (Zai/half-moons)","priority":"High","system":"Lagh Dera system","lagha_class":"I – Major lagha (≥2,000 km²)","ff_hazard":"Very High","near_town":"Dadaab","upstream_km2":15514.5,"relief_m":"1.5","elev_m":113.5,"lulc":"Savannah","dist_settlement_km":12.47,"protects_txt":"—","runoff_normal_m3":186174000.0,"runoff_elnino_m3":434406000.0,"design_storage_m3":"20,000–100,000","indicative_cost":"KES 2–10 M","lon":40.44972,"lat":0.18556,"dist_tana_km":112.38,"in_county":true},"geometry":{"type":"Point","coordinates":[40.44972,0.18556]}},{"type":"Feature","properties":{"site_id":"NBS-062","nbs_type":"Flood-spreading bunds & spate irrigation (Zai/half-moons)","priority":"High","system":"Lagh Dera system","lagha_class":"I – Major lagha (≥2,000 km²)","ff_hazard":"Very High","near_town":"Dadaab","upstream_km2":15430.4,"relief_m":"2.5","elev_m":119.5,"lulc":"Savannah","dist_settlement_km":3.34,"protects_txt":"—","runoff_normal_m3":185165000.0,"runoff_elnino_m3":432051000.0,"design_storage_m3":"20,000–100,000","indicative_cost":"KES 2–10 M","lon":40.33558,"lat":0.19444,"dist_tana_km":102.48,"in_county":true},"geometry":{"type":"Point","coordinates":[40.33558,0.19444]}},{"type":"Feature","properties":{"site_id":"NBS-063","nbs_type":"Flood-spreading bunds & spate irrigation (Zai/half-moons)","priority":"High","system":"Lagh Dera system","lagha_class":"I – Major lagha (≥2,000 km²)","ff_hazard":"Very High","near_town":"Dadaab","upstream_km2":13160.9,"relief_m":"2.5","elev_m":129.3,"lulc":"Savannah","dist_settlement_km":11.48,"protects_txt":"25 structures","runoff_normal_m3":157931000.0,"runoff_elnino_m3":368505000.0,"design_storage_m3":"20,000–100,000","indicative_cost":"KES 2–10 M","lon":40.17263,"lat":0.23444,"dist_tana_km":91.03,"in_county":true},"geometry":{"type":"Point","coordinates":[40.17263,0.23444]}},{"type":"Feature","properties":{"site_id":"NBS-064","nbs_type":"Flood-spreading bunds & spate irrigation (Zai/half-moons)","priority":"Very High","system":"Lagh Dera system","lagha_class":"I – Major lagha (≥2,000 km²)","ff_hazard":"Very High","near_town":"Dadaab","upstream_km2":10900.7,"relief_m":"2.0","elev_m":139.0,"lulc":"Savannah","dist_settlement_km":25.93,"protects_txt":"1 health, 1 school","runoff_normal_m3":130808000.0,"runoff_elnino_m3":305220000.0,"design_storage_m3":"20,000–100,000","indicative_cost":"KES 2–10 M","lon":40.06861,"lat":0.31821,"dist_tana_km":89.37,"in_county":true},"geometry":{"type":"Point","coordinates":[40.06861,0.31821]}},{"type":"Feature","properties":{"site_id":"NBS-065","nbs_type":"Flood-spreading bunds & spate irrigation (Zai/half-moons)","priority":"High","system":"North-East coastal drainage","lagha_class":"II – Large lagha (500–2,000 km²)","ff_hazard":"High","near_town":"Hagadera","upstream_km2":1943.9,"relief_m":"2.5","elev_m":139.0,"lulc":"Savannah","dist_settlement_km":26.97,"protects_txt":"—","runoff_normal_m3":23327000.0,"runoff_elnino_m3":54429000.0,"design_storage_m3":"20,000–100,000","indicative_cost":"KES 2–10 M","lon":40.24094,"lat":-0.22566,"dist_tana_km":67.48,"in_county":true},"geometry":{"type":"Point","coordinates":[40.24094,-0.22566]}},{"type":"Feature","properties":{"site_id":"NBS-066","nbs_type":"Flood-spreading bunds & spate irrigation (Zai/half-moons)","priority":"Very High","system":"North-East coastal drainage","lagha_class":"II – Large lagha (500–2,000 km²)","ff_hazard":"High","near_town":"Ijara","upstream_km2":1772.7,"relief_m":"2.5","elev_m":62.8,"lulc":"Shrubland","dist_settlement_km":13.73,"protects_txt":"1 town","runoff_normal_m3":21272000.0,"runoff_elnino_m3":49636000.0,"design_storage_m3":"20,000–100,000","indicative_cost":"KES 2–10 M","lon":40.44617,"lat":-1.47645,"dist_tana_km":40.53,"in_county":true},"geometry":{"type":"Point","coordinates":[40.44617,-1.47645]}},{"type":"Feature","properties":{"site_id":"NBS-067","nbs_type":"Flood-spreading bunds & spate irrigation (Zai/half-moons)","priority":"High","system":"Lagh Dera system","lagha_class":"II – Large lagha (500–2,000 km²)","ff_hazard":"High","near_town":"Habaswein","upstream_km2":1222.7,"relief_m":"2.7","elev_m":192.3,"lulc":"Savannah","dist_settlement_km":28.99,"protects_txt":"—","runoff_normal_m3":14672000.0,"runoff_elnino_m3":34236000.0,"design_storage_m3":"20,000–100,000","indicative_cost":"KES 2–10 M","lon":39.42861,"lat":0.81896,"dist_tana_km":103.85,"in_county":true},"geometry":{"type":"Point","coordinates":[39.42861,0.81896]}},{"type":"Feature","properties":{"site_id":"NBS-068","nbs_type":"Flood-spreading bunds & spate irrigation (Zai/half-moons)","priority":"High","system":"North-East coastal drainage","lagha_class":"II – Large lagha (500–2,000 km²)","ff_hazard":"High","near_town":"Kolbio","upstream_km2":1133.0,"relief_m":"2.5","elev_m":31.0,"lulc":"Shrubland","dist_settlement_km":22.75,"protects_txt":"—","runoff_normal_m3":13596000.0,"runoff_elnino_m3":31724000.0,"design_storage_m3":"20,000–100,000","indicative_cost":"KES 2–10 M","lon":41.2332,"lat":-1.36681,"dist_tana_km":127.97,"in_county":true},"geometry":{"type":"Point","coordinates":[41.2332,-1.36681]}},{"type":"Feature","properties":{"site_id":"NBS-069","nbs_type":"Garissa Town flash-flood interception (detention basin + green corridor)","priority":"Very High","system":"Garissa Town laghas → Tana","lagha_class":"Town lagha – main (≥15 km²)","ff_hazard":"Very High","near_town":"Garissa","upstream_km2":444.0,"relief_m":null,"elev_m":136.0,"lulc":"Peri-urban shrubland","dist_settlement_km":2.55,"protects_txt":"1,160 UNOSAT-mapped flood-affected structures downstream (2023+2024)","runoff_normal_m3":7992000.0,"runoff_elnino_m3":18648000.0,"design_storage_m3":"30,000–250,000","indicative_cost":"KES 10–45 M","lon":39.62308,"lat":-0.45391,"dist_tana_km":0.03,"in_county":true},"geometry":{"type":"Point","coordinates":[39.62308,-0.45391]}},{"type":"Feature","properties":{"site_id":"NBS-070","nbs_type":"Garissa Town flash-flood interception (detention basin + green corridor)","priority":"Very High","system":"Garissa Town laghas → Tana","lagha_class":"Town lagha – main (≥15 km²)","ff_hazard":"Very High","near_town":"Garissa","upstream_km2":402.1,"relief_m":null,"elev_m":137.0,"lulc":"Peri-urban shrubland","dist_settlement_km":4.69,"protects_txt":"1,165 UNOSAT-mapped flood-affected structures downstream (2023+2024)","runoff_normal_m3":7238000.0,"runoff_elnino_m3":16888000.0,"design_storage_m3":"30,000–250,000","indicative_cost":"KES 10–45 M","lon":39.61159,"lat":-0.42909,"dist_tana_km":0.19,"in_county":true},"geometry":{"type":"Point","coordinates":[39.61159,-0.42909]}},{"type":"Feature","properties":{"site_id":"NBS-071","nbs_type":"Garissa Town flash-flood interception (detention basin + green corridor)","priority":"Very High","system":"Garissa Town laghas → Tana","lagha_class":"Town lagha – main (≥15 km²)","ff_hazard":"Very High","near_town":"Garissa","upstream_km2":294.2,"relief_m":null,"elev_m":139.0,"lulc":"Peri-urban shrubland","dist_settlement_km":8.35,"protects_txt":"998 UNOSAT-mapped flood-affected structures downstream (2023+2024)","runoff_normal_m3":5296000.0,"runoff_elnino_m3":12356000.0,"design_storage_m3":"30,000–250,000","indicative_cost":"KES 10–45 M","lon":39.59972,"lat":-0.39417,"dist_tana_km":0.38,"in_county":true},"geometry":{"type":"Point","coordinates":[39.59972,-0.39417]}},{"type":"Feature","properties":{"site_id":"NBS-072","nbs_type":"Garissa Town flash-flood interception (detention basin + green corridor)","priority":"Very High","system":"Garissa Town laghas → Tana","lagha_class":"Town lagha – main (≥15 km²)","ff_hazard":"Very High","near_town":"Garissa","upstream_km2":74.3,"relief_m":null,"elev_m":141.0,"lulc":"Peri-urban shrubland","dist_settlement_km":5.16,"protects_txt":"1,155 UNOSAT-mapped flood-affected structures downstream (2023+2024)","runoff_normal_m3":1337000.0,"runoff_elnino_m3":3121000.0,"design_storage_m3":"30,000–250,000","indicative_cost":"KES 10–45 M","lon":39.62809,"lat":-0.41056,"dist_tana_km":1.75,"in_county":true},"geometry":{"type":"Point","coordinates":[39.62809,-0.41056]}},{"type":"Feature","properties":{"site_id":"NBS-073","nbs_type":"Garissa Town flash-flood interception (detention basin + green corridor)","priority":"Very High","system":"Garissa Town laghas → Tana","lagha_class":"Town lagha – secondary (4–15 km²)","ff_hazard":"Very High","near_town":"Garissa","upstream_km2":10.8,"relief_m":null,"elev_m":153.0,"lulc":"Peri-urban shrubland","dist_settlement_km":3.38,"protects_txt":"3,636 UNOSAT-mapped flood-affected structures downstream (2023+2024)","runoff_normal_m3":194000.0,"runoff_elnino_m3":454000.0,"design_storage_m3":"30,000–250,000","indicative_cost":"KES 10–45 M","lon":39.64604,"lat":-0.42298,"dist_tana_km":3.53,"in_county":true},"geometry":{"type":"Point","coordinates":[39.64604,-0.42298]}},{"type":"Feature","properties":{"site_id":"NBS-074","nbs_type":"Garissa Town flash-flood interception (detention basin + green corridor)","priority":"Very High","system":"Garissa Town laghas → Tana","lagha_class":"Town lagha – secondary (4–15 km²)","ff_hazard":"Very High","near_town":"Garissa","upstream_km2":9.2,"relief_m":null,"elev_m":170.0,"lulc":"Peri-urban shrubland","dist_settlement_km":4.06,"protects_txt":"3,617 UNOSAT-mapped flood-affected structures downstream (2023+2024)","runoff_normal_m3":166000.0,"runoff_elnino_m3":386000.0,"design_storage_m3":"30,000–250,000","indicative_cost":"KES 10–45 M","lon":39.66449,"lat":-0.42199,"dist_tana_km":5.57,"in_county":true},"geometry":{"type":"Point","coordinates":[39.66449,-0.42199]}},{"type":"Feature","properties":{"site_id":"NBS-075","nbs_type":"Garissa Town flash-flood interception (detention basin + green corridor)","priority":"Very High","system":"Garissa Town laghas → Tana","lagha_class":"Town lagha – main (≥15 km²)","ff_hazard":"Very High","near_town":"Garissa","upstream_km2":34.6,"relief_m":null,"elev_m":141.0,"lulc":"Peri-urban shrubland","dist_settlement_km":7.13,"protects_txt":"998 UNOSAT-mapped flood-affected structures downstream (2023+2024)","runoff_normal_m3":623000.0,"runoff_elnino_m3":1453000.0,"design_storage_m3":"30,000–250,000","indicative_cost":"KES 10–45 M","lon":39.62361,"lat":-0.3932,"dist_tana_km":1.77,"in_county":true},"geometry":{"type":"Point","coordinates":[39.62361,-0.3932]}},{"type":"Feature","properties":{"site_id":"NBS-076","nbs_type":"Garissa Town flash-flood interception (detention basin + green corridor)","priority":"Very High","system":"Garissa Town laghas → Tana","lagha_class":"Town lagha – secondary (4–15 km²)","ff_hazard":"Very High","near_town":"Garissa","upstream_km2":6.1,"relief_m":null,"elev_m":192.0,"lulc":"Peri-urban shrubland","dist_settlement_km":6.02,"protects_txt":"3,457 UNOSAT-mapped flood-affected structures downstream (2023+2024)","runoff_normal_m3":110000.0,"runoff_elnino_m3":256000.0,"design_storage_m3":"30,000–250,000","indicative_cost":"KES 10–45 M","lon":39.68473,"lat":-0.41556,"dist_tana_km":7.71,"in_county":true},"geometry":{"type":"Point","coordinates":[39.68473,-0.41556]}}]}