{"type":"FeatureCollection","features":[{"type":"Feature","properties":{"name":"Balambala","constituency":"Balambala","note":"Upstream Tana reach: Mbalambala, Saka, Sankuri farms","area_km2":4834},"geometry":{"type":"Polygon","coordinates":[[[39.582,0.00204],[39.61501,-0.00897],[39.62814,-0.02555],[39.64603,-0.02324],[39.65948,-0.01483],[39.67783,-0.02314],[39.69782,-0.02562],[39.71118,-0.03049],[39.74785,-0.02375],[39.75687,-0.01888],[39.76571,-0.02233],[39.78325,-0.02038],[39.7999,-0.01041],[39.8162,-0.00646],[39.82535,0.00655],[39.85174,-0.016],[39.87446,-0.02974],[39.88292,-0.03255],[39.8998,-0.03068],[39.91626,-0.03893],[39.9415,-0.04633],[39.96271,-0.06211],[39.98913,-0.0677],[40.00345,-0.07547],[39.99944,-0.08156],[39.86516,-0.20567],[39.67302,-0.41795],[39.65075,-0.41951],[39.64353,-0.42298],[39.63678,-0.43015],[39.62594,-0.43096],[39.62625,-0.31919],[39.59972,-0.29686],[39.58214,-0.26771],[39.56503,-0.25319],[39.54555,-0.24517],[39.52766,-0.21454],[39.5098,-0.20241],[39.48659,-0.1787],[39.45274,-0.15303],[39.43511,-0.14559],[39.40865,-0.14477],[39.38597,-0.12467],[39.36204,-0.11436],[39.32949,-0.09065],[39.31199,-0.08779],[39.29375,-0.0914],[39.26011,-0.09309],[39.23122,-0.08545],[39.19684,-0.09063],[39.15767,-0.07945],[39.13907,-0.06653],[39.09444,-0.01073],[39.08179,-0.00469],[39.07253,-0.00308],[39.04843,-0.00521],[39.03694,-0.0019],[39.01825,-0.00217],[38.98185,-0.00931],[38.955,-0.02283],[38.94318,-0.03381],[38.93732,-0.04371],[38.9109,-0.04019],[38.88262,-0.05159],[38.86673,-0.05094],[38.85743,-0.04716],[38.8347,-0.04928],[38.77607,-0.02625],[38.76093,-0.02621],[38.75155,-0.02888],[38.75198,-0.02432],[38.74411,-0.01103],[38.74383,-0.0026],[38.73912,0.00618],[38.73853,0.02528],[38.7312,0.04936],[38.73169,0.06176],[38.72937,0.06822],[38.73154,0.07782],[38.72913,0.0857],[38.7323,0.09526],[38.73141,0.12136],[38.73342,0.13875],[38.73663,0.14896],[38.75699,0.17141],[38.75723,0.18381],[38.71063,0.36636],[38.72468,0.36577],[38.73032,0.3607],[38.74754,0.36178],[38.76325,0.35307],[38.77551,0.35287],[38.78797,0.34675],[38.79354,0.34661],[38.80527,0.35456],[38.82031,0.35204],[38.82604,0.35446],[38.83528,0.34399],[38.8431,0.34033],[38.86976,0.34454],[38.87309,0.34179],[38.88475,0.34071],[38.89782,0.32233],[38.91734,0.31535],[38.93569,0.31368],[38.94362,0.31536],[38.94824,0.32189],[38.95207,0.32287],[38.96603,0.31969],[38.97587,0.3136],[38.97979,0.30557],[38.99009,0.29414],[38.99499,0.29458],[39.00282,0.28746],[39.01254,0.29112],[39.02114,0.29106],[39.03258,0.29663],[39.04457,0.29439],[39.04967,0.29814],[39.05522,0.2977],[39.06825,0.28643],[39.07727,0.27187],[39.08416,0.27025],[39.0913,0.25992],[39.09692,0.25951],[39.1105,0.24637],[39.13456,0.24817],[39.13899,0.25262],[39.15588,0.258],[39.16601,0.26925],[39.17348,0.27265],[39.18297,0.28254],[39.19154,0.29796],[39.19402,0.33229],[39.20263,0.34609],[39.20372,0.35381],[39.21099,0.36215],[39.22121,0.38195],[39.24534,0.38551],[39.25638,0.37798],[39.26898,0.37881],[39.27621,0.37665],[39.30031,0.38045],[39.32698,0.37179],[39.34863,0.37225],[39.35623,0.33251],[39.36518,0.31716],[39.36873,0.30344],[39.36987,0.27631],[39.37571,0.26586],[39.38681,0.25758],[39.4019,0.23016],[39.41466,0.21334],[39.43086,0.19794],[39.43033,0.18212],[39.43264,0.17122],[39.42944,0.1518],[39.4338,0.10968],[39.42533,0.08261],[39.42285,0.05655],[39.42545,0.03921],[39.42216,0.01697],[39.44727,0.01165],[39.50267,0.0063],[39.582,0.00204]]]}},{"type":"Feature","properties":{"name":"Dadaab","constituency":"Dadaab","note":"Refugee complex: Hagadera, Ifo, Dagahaley + host community","area_km2":6904},"geometry":{"type":"Polygon","coordinates":[[[39.98913,-0.0677],[39.96271,-0.06211],[39.9415,-0.04633],[39.91626,-0.03893],[39.8998,-0.03068],[39.88292,-0.03255],[39.87446,-0.02974],[39.85174,-0.016],[39.82535,0.00655],[39.8162,-0.00646],[39.7999,-0.01041],[39.78325,-0.02038],[39.76571,-0.02233],[39.75687,-0.01888],[39.74785,-0.02375],[39.71118,-0.03049],[39.69782,-0.02562],[39.67783,-0.02314],[39.65948,-0.01483],[39.64603,-0.02324],[39.62814,-0.02555],[39.61501,-0.00897],[39.582,0.00204],[39.50267,0.0063],[39.50286,0.02434],[39.51126,0.04534],[39.52626,0.05804],[39.53411,0.07464],[39.55636,0.08274],[39.56776,0.09424],[39.57256,0.10624],[39.57986,0.1124],[39.58986,0.11534],[39.59546,0.13169],[39.61191,0.13204],[39.62251,0.13564],[39.63531,0.13514],[39.65316,0.14154],[39.66007,0.14945],[39.65786,0.15864],[39.66553,0.16387],[39.66982,0.17018],[39.67889,0.17551],[39.69736,0.17979],[39.70766,0.18764],[39.72093,0.19329],[39.74211,0.21954],[39.75091,0.22724],[39.77301,0.24094],[39.78966,0.24254],[39.81151,0.25768],[39.83926,0.26714],[39.86706,0.29014],[39.87521,0.28884],[39.87991,0.29934],[39.90036,0.32004],[39.90016,0.34319],[39.88796,0.36469],[39.84959,0.39849],[39.88296,0.42834],[39.89396,0.44879],[39.90906,0.44854],[39.91349,0.455],[39.94392,0.42971],[39.97908,0.40971],[40.01296,0.39894],[40.04836,0.39635],[40.06137,0.39138],[40.12823,0.34261],[40.16091,0.32591],[40.17805,0.30991],[40.21113,0.27197],[40.23345,0.25256],[40.24855,0.24305],[40.29995,0.21952],[40.33155,0.19925],[40.37733,0.196],[40.39645,0.18505],[40.40545,0.18355],[40.42645,0.19005],[40.45265,0.1853],[40.47535,0.18615],[40.48385,0.18855],[40.49625,0.19715],[40.50367,0.19249],[40.50727,0.19281],[40.51398,0.20819],[40.52053,0.21288],[40.5245,0.22147],[40.53384,0.22633],[40.54178,0.22631],[40.56376,0.21594],[40.57875,0.21702],[40.58545,0.21525],[40.59545,0.22535],[40.6045,0.22544],[40.6114,0.23215],[40.6465,0.2312],[40.68195,0.25765],[40.68435,0.27135],[40.69535,0.2784],[40.70388,0.29336],[40.71185,0.31485],[40.71645,0.32015],[40.73675,0.32625],[40.75035,0.34191],[40.77235,0.35365],[40.85805,0.37595],[40.88595,0.39125],[40.91965,0.42375],[40.94565,0.436],[40.96125,0.4467],[40.97935,0.45305],[40.99178,0.46278],[40.99153,-0.33078],[40.94215,-0.33117],[40.90775,-0.33917],[40.81545,-0.33177],[40.78775,-0.32357],[40.65905,-0.26177],[40.64485,-0.25157],[40.59845,-0.20682],[40.57785,-0.17177],[40.56965,-0.14807],[40.5257,-0.10122],[40.525,-0.09497],[40.51683,-0.08537],[40.5088,-0.05727],[40.49945,-0.05447],[40.49223,-0.05511],[40.4253,-0.00697],[40.39996,-0.0027],[40.37685,0.00953],[40.3703,0.02053],[40.3603,0.02933],[40.34415,0.02943],[40.25785,-0.01207],[40.21154,-0.02204],[40.17425,-0.01657],[40.15875,-0.02037],[40.12425,-0.02227],[40.06765,-0.01707],[40.02475,-0.03587],[40.00345,-0.07547],[39.98913,-0.0677]]]}},{"type":"Feature","properties":{"name":"Garissa Township","constituency":"Dujis","note":"Urban hub on the Tana; riverine & lagha flash-flood exposure","area_km2":568},"geometry":{"type":"Polygon","coordinates":[[[39.63678,-0.43015],[39.64353,-0.42298],[39.65075,-0.41951],[39.67302,-0.41795],[39.81322,-0.26336],[39.8654,-0.363],[39.89246,-0.51717],[39.87185,-0.52525],[39.83175,-0.57575],[39.81402,-0.58739],[39.80854,-0.58109],[39.77305,-0.55978],[39.75787,-0.54723],[39.7468,-0.54314],[39.72629,-0.54481],[39.72636,-0.53301],[39.72284,-0.52555],[39.70972,-0.51511],[39.70412,-0.50474],[39.69254,-0.49314],[39.63597,-0.49305],[39.63247,-0.49098],[39.63097,-0.47212],[39.63659,-0.45895],[39.62678,-0.44909],[39.62594,-0.43096],[39.63678,-0.43015]]]}},{"type":"Feature","properties":{"name":"Fafi","constituency":"Fafi","note":"Central rangelands; Bura, Hagadera road, water pans","area_km2":16577},"geometry":{"type":"Polygon","coordinates":[[[39.86516,-0.20567],[39.99944,-0.08156],[40.02475,-0.03587],[40.03875,-0.02917],[40.06765,-0.01707],[40.12425,-0.02227],[40.15875,-0.02037],[40.17425,-0.01657],[40.21154,-0.02204],[40.25785,-0.01207],[40.34415,0.02943],[40.3603,0.02933],[40.3703,0.02053],[40.37685,0.00953],[40.39996,-0.0027],[40.4253,-0.00697],[40.49223,-0.05511],[40.49945,-0.05447],[40.5088,-0.05727],[40.51683,-0.08537],[40.525,-0.09497],[40.5257,-0.10122],[40.56965,-0.14807],[40.57785,-0.17177],[40.59845,-0.20682],[40.64485,-0.25157],[40.65905,-0.26177],[40.78775,-0.32357],[40.81545,-0.33177],[40.90775,-0.33917],[40.94215,-0.33117],[40.99153,-0.33078],[40.9924,-0.82906],[40.888,-0.8475],[40.90215,-0.8703],[40.92255,-0.89515],[40.93175,-0.9117],[40.94395,-0.97395],[40.95675,-1.00715],[40.96525,-1.0171],[40.97765,-1.04015],[41.00435,-1.07325],[40.98605,-1.2237],[40.92845,-1.23475],[40.92715,-1.26155],[40.92315,-1.25355],[40.91365,-1.24425],[40.80345,-1.19285],[40.79575,-1.21315],[40.77895,-1.2343],[40.7748,-1.24648],[40.77571,-1.25755],[40.7946,-1.29765],[40.7655,-1.30395],[40.74086,-1.29767],[40.73085,-1.31615],[40.72875,-1.3301],[40.71917,-1.34335],[40.71965,-1.36415],[40.7151,-1.3815],[40.68972,-1.40171],[40.68632,-1.41185],[40.66005,-1.45165],[40.6489,-1.4597],[40.63735,-1.47345],[40.57155,-1.5197],[40.51175,-1.594],[40.50535,-1.5901],[40.50045,-1.5802],[40.46935,-1.5678],[40.45555,-1.55915],[40.44715,-1.5447],[40.42935,-1.52985],[40.37415,-1.5137],[40.36005,-1.49505],[40.32795,-1.443],[40.20215,-1.3516],[40.15435,-1.4253],[40.17735,-1.4774],[40.13255,-1.50225],[40.1212,-1.5039],[40.11565,-1.5025],[40.10361,-1.50448],[40.09193,-1.48654],[40.08754,-1.47513],[40.08436,-1.44762],[40.06092,-1.33909],[40.04944,-1.31468],[40.04986,-1.2981],[40.05695,-1.2679],[40.05657,-1.24858],[40.0387,-1.19943],[40.01249,-1.1635],[39.99634,-1.12038],[39.96851,-1.06925],[39.94638,-1.02168],[39.93435,-1.00279],[39.93854,-0.98247],[39.93739,-0.96423],[39.92594,-0.94014],[39.91915,-0.91715],[39.90373,-0.89554],[39.90554,-0.87824],[39.90104,-0.83355],[39.89008,-0.81717],[39.87917,-0.78549],[39.86282,-0.76112],[39.86824,-0.73899],[39.86574,-0.72876],[39.85803,-0.71811],[39.85607,-0.6927],[39.84335,-0.67185],[39.83968,-0.65076],[39.82268,-0.63063],[39.81969,-0.62059],[39.82113,-0.60178],[39.81402,-0.58739],[39.83175,-0.57575],[39.87185,-0.52525],[39.89246,-0.51717],[39.8654,-0.363],[39.81322,-0.26336],[39.86516,-0.20567]]]}},{"type":"Feature","properties":{"name":"Ijara","constituency":"Ijara","note":"Southern belt: Masalani, Hulugho, Ijara; borders Tana delta","area_km2":8188},"geometry":{"type":"Polygon","coordinates":[[[40.10361,-1.50448],[40.13255,-1.50225],[40.17735,-1.4774],[40.15435,-1.4253],[40.20215,-1.3516],[40.32795,-1.443],[40.36005,-1.49505],[40.37415,-1.5137],[40.42935,-1.52985],[40.44715,-1.5447],[40.45555,-1.55915],[40.46935,-1.5678],[40.50045,-1.5802],[40.50535,-1.5901],[40.51175,-1.594],[40.57155,-1.5197],[40.63735,-1.47345],[40.6489,-1.4597],[40.66005,-1.45165],[40.68632,-1.41185],[40.68972,-1.40171],[40.7151,-1.3815],[40.71965,-1.36415],[40.71917,-1.34335],[40.72875,-1.3301],[40.73085,-1.31615],[40.74086,-1.29767],[40.7655,-1.30395],[40.7946,-1.29765],[40.77571,-1.25755],[40.7748,-1.24648],[40.77895,-1.2343],[40.79575,-1.21315],[40.80345,-1.19285],[40.91365,-1.24425],[40.92315,-1.25355],[40.92715,-1.26155],[40.92845,-1.23475],[40.98605,-1.2237],[41.00435,-1.07325],[40.97765,-1.04015],[40.96525,-1.0171],[40.95675,-1.00715],[40.94395,-0.97395],[40.93175,-0.9117],[40.92255,-0.89515],[40.90215,-0.8703],[40.888,-0.8475],[40.9924,-0.82906],[41.56224,-1.5975],[41.56215,-1.65745],[40.8927,-1.71632],[40.79766,-1.7627],[40.21085,-2.03156],[40.20564,-2.01544],[40.19685,-2.0008],[40.19688,-1.98053],[40.18653,-1.96038],[40.18965,-1.93067],[40.18752,-1.86291],[40.17807,-1.84602],[40.16709,-1.83353],[40.16299,-1.82193],[40.15783,-1.76333],[40.16915,-1.7355],[40.17075,-1.72387],[40.15819,-1.69598],[40.15882,-1.63087],[40.14921,-1.59558],[40.14325,-1.58639],[40.12554,-1.56929],[40.11656,-1.55548],[40.11235,-1.54335],[40.10361,-1.50448]]]}},{"type":"Feature","properties":{"name":"Lagdera","constituency":"Lagdera","note":"Pastoral north; Lagh Dera system, Modogashe","area_km2":6440},"geometry":{"type":"Polygon","coordinates":[[[39.44727,0.01165],[39.42216,0.01697],[39.42545,0.03921],[39.42285,0.05655],[39.42533,0.08261],[39.4338,0.10968],[39.42944,0.1518],[39.43264,0.17122],[39.43033,0.18212],[39.43086,0.19794],[39.41466,0.21334],[39.4019,0.23016],[39.38681,0.25758],[39.37571,0.26586],[39.36987,0.27631],[39.36873,0.30344],[39.36518,0.31716],[39.35623,0.33251],[39.34863,0.37225],[39.32698,0.37179],[39.30031,0.38045],[39.27621,0.37665],[39.26898,0.37881],[39.25638,0.37798],[39.24534,0.38551],[39.22121,0.38195],[39.21099,0.36215],[39.20372,0.35381],[39.20263,0.34609],[39.19402,0.33229],[39.19154,0.29796],[39.18297,0.28254],[39.17348,0.27265],[39.16601,0.26925],[39.15588,0.258],[39.13899,0.25262],[39.13456,0.24817],[39.1105,0.24637],[39.09692,0.25951],[39.0913,0.25992],[39.08416,0.27025],[39.07727,0.27187],[39.06825,0.28643],[39.05522,0.2977],[39.04967,0.29814],[39.04457,0.29439],[39.03258,0.29663],[39.02114,0.29106],[39.01254,0.29112],[39.00282,0.28746],[38.99499,0.29458],[38.99009,0.29414],[38.97979,0.30557],[38.97587,0.3136],[38.96603,0.31969],[38.95207,0.32287],[38.94824,0.32189],[38.94362,0.31536],[38.93569,0.31368],[38.91734,0.31535],[38.89782,0.32233],[38.88475,0.34071],[38.87309,0.34179],[38.86976,0.34454],[38.8431,0.34033],[38.83528,0.34399],[38.82604,0.35446],[38.82031,0.35204],[38.80527,0.35456],[38.79354,0.34661],[38.78797,0.34675],[38.77551,0.35287],[38.76325,0.35307],[38.74754,0.36178],[38.73032,0.3607],[38.72468,0.36577],[38.71063,0.36636],[38.68904,0.45163],[38.67985,0.47358],[38.67698,0.49496],[38.67257,0.50008],[38.66555,0.5019],[38.66162,0.50566],[38.6617,0.50906],[38.6795,0.50759],[38.6944,0.5101],[38.70495,0.50635],[38.70962,0.51274],[38.72237,0.51098],[38.72075,0.52059],[38.72438,0.52447],[38.73596,0.51808],[38.74396,0.52291],[38.75132,0.5231],[38.75414,0.52122],[38.75568,0.51492],[38.76634,0.511],[38.76847,0.51608],[38.77434,0.51658],[38.78574,0.52678],[38.79134,0.53906],[38.79901,0.54187],[38.8018,0.5485],[38.80748,0.55139],[38.81566,0.56911],[38.82499,0.5796],[38.83255,0.58427],[38.83847,0.58501],[38.85942,0.59919],[38.87092,0.60001],[38.87551,0.59436],[38.88539,0.59622],[38.89192,0.59437],[38.89557,0.59791],[38.90231,0.59634],[38.90728,0.59991],[38.91052,0.59896],[38.9258,0.60599],[38.93582,0.62515],[38.94044,0.6282],[38.94588,0.62599],[38.95158,0.62835],[38.95938,0.62436],[38.97747,0.62131],[38.98599,0.62609],[39.00967,0.62443],[39.01274,0.62926],[39.0137,0.64015],[39.02047,0.64085],[39.0235,0.64564],[39.02223,0.65512],[39.02638,0.66391],[39.03337,0.66484],[39.04641,0.67702],[39.049,0.68357],[39.05346,0.68585],[39.08507,0.67514],[39.09728,0.68023],[39.0984,0.68642],[39.10231,0.68926],[39.11399,0.69102],[39.13129,0.68802],[39.13494,0.69082],[39.14095,0.69043],[39.14784,0.706],[39.16393,0.71405],[39.16755,0.71881],[39.17518,0.72093],[39.17776,0.72557],[39.1755,0.72749],[39.18056,0.75175],[39.20047,0.78947],[39.22466,0.81776],[39.23707,0.84416],[39.24956,0.85964],[39.26779,0.87595],[39.3136,0.92477],[39.36126,0.95395],[39.45448,0.98916],[39.46079,0.99454],[39.46617,0.98735],[39.47963,0.9802],[39.49272,0.96099],[39.49786,0.93391],[39.53316,0.85346],[39.55426,0.78146],[39.56103,0.76871],[39.56396,0.75576],[39.57546,0.74086],[39.58736,0.71976],[39.59682,0.71184],[39.6005,0.7025],[39.61376,0.68436],[39.62359,0.67715],[39.62736,0.66976],[39.63486,0.66706],[39.64576,0.65686],[39.65426,0.63126],[39.66386,0.61516],[39.67291,0.60511],[39.68941,0.57881],[39.6978,0.57267],[39.71796,0.54561],[39.71986,0.54656],[39.72335,0.54329],[39.73156,0.52661],[39.74669,0.51767],[39.76191,0.51201],[39.76366,0.50706],[39.7706,0.5029],[39.77496,0.49525],[39.79299,0.48838],[39.79968,0.4828],[39.81072,0.48348],[39.82067,0.48214],[39.82742,0.47792],[39.83601,0.48006],[39.84099,0.47739],[39.85025,0.47711],[39.85658,0.4692],[39.87473,0.45834],[39.88783,0.46287],[39.90498,0.46208],[39.91349,0.455],[39.90906,0.44854],[39.89396,0.44879],[39.88296,0.42834],[39.84959,0.39849],[39.88796,0.36469],[39.90016,0.34319],[39.90036,0.32004],[39.87991,0.29934],[39.87521,0.28884],[39.86706,0.29014],[39.83926,0.26714],[39.81151,0.25768],[39.78966,0.24254],[39.77301,0.24094],[39.75091,0.22724],[39.74211,0.21954],[39.72093,0.19329],[39.70766,0.18764],[39.69736,0.17979],[39.67889,0.17551],[39.66982,0.17018],[39.66553,0.16387],[39.65786,0.15864],[39.66007,0.14945],[39.65316,0.14154],[39.63531,0.13514],[39.62251,0.13564],[39.61191,0.13204],[39.59546,0.13169],[39.58986,0.11534],[39.57986,0.1124],[39.57256,0.10624],[39.56776,0.09424],[39.55636,0.08274],[39.53411,0.07464],[39.52626,0.05804],[39.51126,0.04534],[39.50286,0.02434],[39.50267,0.0063],[39.44727,0.01165]]]}}]}