{"type":"FeatureCollection","features":[{"type":"Feature","properties":{"name":"Meander neck (unnamed reach)","sinuosity":1.39,"risk":"Moderate","method":"Relative sinuosity hotspot (along-channel / straight-line length over a 5 km window)","explain":"Tight meander loop: in high flows water can jump the neck (avulsion/cut-off), flooding farms 'blind' to the main channel and creating ox-bow pools.","dist_garissa_bridge_km":115.1},"geometry":{"type":"Point","coordinates":[38.69563,-0.04879]}},{"type":"Feature","properties":{"name":"Meander neck near Sankuri","sinuosity":2.3,"risk":"Very High","method":"Relative sinuosity hotspot (along-channel / straight-line length over a 5 km window)","explain":"Tight meander loop: in high flows water can jump the neck (avulsion/cut-off), flooding farms 'blind' to the main channel and creating ox-bow pools.","dist_garissa_bridge_km":22.5},"geometry":{"type":"Point","coordinates":[39.51681,-0.30044]}},{"type":"Feature","properties":{"name":"Meander neck near Bour-Algi","sinuosity":1.71,"risk":"High","method":"Relative sinuosity hotspot (along-channel / straight-line length over a 5 km window)","explain":"Tight meander loop: in high flows water can jump the neck (avulsion/cut-off), flooding farms 'blind' to the main channel and creating ox-bow pools.","dist_garissa_bridge_km":6.7},"geometry":{"type":"Point","coordinates":[39.64656,-0.51594]}},{"type":"Feature","properties":{"name":"Meander neck near Bour-Algi","sinuosity":1.39,"risk":"Moderate","method":"Relative sinuosity hotspot (along-channel / straight-line length over a 5 km window)","explain":"Tight meander loop: in high flows water can jump the neck (avulsion/cut-off), flooding farms 'blind' to the main channel and creating ox-bow pools.","dist_garissa_bridge_km":16.2},"geometry":{"type":"Point","coordinates":[39.70186,-0.59133]}},{"type":"Feature","properties":{"name":"Meander neck near Nanighi","sinuosity":1.52,"risk":"High","method":"Relative sinuosity hotspot (along-channel / straight-line length over a 5 km window)","explain":"Tight meander loop: in high flows water can jump the neck (avulsion/cut-off), flooding farms 'blind' to the main channel and creating ox-bow pools.","dist_garissa_bridge_km":38.1},"geometry":{"type":"Point","coordinates":[39.82544,-0.74956]}},{"type":"Feature","properties":{"name":"Meander neck near Bura (Tana River Co.)","sinuosity":1.35,"risk":"Moderate","method":"Relative sinuosity hotspot (along-channel / straight-line length over a 5 km window)","explain":"Tight meander loop: in high flows water can jump the neck (avulsion/cut-off), flooding farms 'blind' to the main channel and creating ox-bow pools.","dist_garissa_bridge_km":78.2},"geometry":{"type":"Point","coordinates":[39.9337,-1.10094]}},{"type":"Feature","properties":{"name":"Meander neck near Hola (Tana River Co.)","sinuosity":1.34,"risk":"Moderate","method":"Relative sinuosity hotspot (along-channel / straight-line length over a 5 km window)","explain":"Tight meander loop: in high flows water can jump the neck (avulsion/cut-off), flooding farms 'blind' to the main channel and creating ox-bow pools.","dist_garissa_bridge_km":121.2},"geometry":{"type":"Point","coordinates":[40.04081,-1.47732]}},{"type":"Feature","properties":{"name":"Meander neck near Hola (Tana River Co.)","sinuosity":1.44,"risk":"Moderate","method":"Relative sinuosity hotspot (along-channel / straight-line length over a 5 km window)","explain":"Tight meander loop: in high flows water can jump the neck (avulsion/cut-off), flooding farms 'blind' to the main channel and creating ox-bow pools.","dist_garissa_bridge_km":133.3},"geometry":{"type":"Point","coordinates":[40.07708,-1.58088]}},{"type":"Feature","properties":{"name":"Meander neck (unnamed reach)","sinuosity":1.43,"risk":"Moderate","method":"Relative sinuosity hotspot (along-channel / straight-line length over a 5 km window)","explain":"Tight meander loop: in high flows water can jump the neck (avulsion/cut-off), flooding farms 'blind' to the main channel and creating ox-bow pools.","dist_garissa_bridge_km":149.8},"geometry":{"type":"Point","coordinates":[40.12179,-1.72355]}},{"type":"Feature","properties":{"name":"Meander neck (unnamed reach)","sinuosity":1.37,"risk":"Moderate","method":"Relative sinuosity hotspot (along-channel / straight-line length over a 5 km window)","explain":"Tight meander loop: in high flows water can jump the neck (avulsion/cut-off), flooding farms 'blind' to the main channel and creating ox-bow pools.","dist_garissa_bridge_km":160.5},"geometry":{"type":"Point","coordinates":[40.11042,-1.83014]}},{"type":"Feature","properties":{"name":"Meander neck (unnamed reach)","sinuosity":1.35,"risk":"Moderate","method":"Relative sinuosity hotspot (along-channel / straight-line length over a 5 km window)","explain":"Tight meander loop: in high flows water can jump the neck (avulsion/cut-off), flooding farms 'blind' to the main channel and creating ox-bow pools.","dist_garissa_bridge_km":170.7},"geometry":{"type":"Point","coordinates":[40.14375,-1.91658]}},{"type":"Feature","properties":{"name":"Meander neck (unnamed reach)","sinuosity":1.41,"risk":"Moderate","method":"Relative sinuosity hotspot (along-channel / straight-line length over a 5 km window)","explain":"Tight meander loop: in high flows water can jump the neck (avulsion/cut-off), flooding farms 'blind' to the main channel and creating ox-bow pools.","dist_garissa_bridge_km":186.4},"geometry":{"type":"Point","coordinates":[40.16675,-2.05825]}}]}