{"type":"FeatureCollection","features":[{"type":"Feature","properties":{"name":"River Tana (main stem)","length_km":708,"note":"Kenya's longest river (~1,000 km incl. headwaters). Traced Masinga Dam to the Indian Ocean.","source":"HydroSHEDS river network"},"geometry":{"type":"LineString","coordinates":[[37.53958,-0.89792],[37.55208,-0.89375],[37.56458,-0.88125],[37.58542,-0.88125],[37.59375,-0.87292],[37.58958,-0.86875],[37.59375,-0.86458],[37.60208,-0.86458],[37.61042,-0.85625],[37.62292,-0.85625],[37.63125,-0.84375],[37.63958,-0.84792],[37.64792,-0.84375],[37.66042,-0.84792],[37.67292,-0.83542],[37.67292,-0.82708],[37.68542,-0.79792],[37.69792,-0.79375],[37.70208,-0.78542],[37.71042,-0.78125],[37.72708,-0.78125],[37.73125,-0.77708],[37.74375,-0.78125],[37.76042,-0.82292],[37.77708,-0.82292],[37.78125,-0.82708],[37.80208,-0.81042],[37.81042,-0.81458],[37.82292,-0.80625],[37.83542,-0.81458],[37.83958,-0.81042],[37.84792,-0.81458],[37.85625,-0.81042],[37.86042,-0.81458],[37.88542,-0.80208],[37.88125,-0.79375],[37.89375,-0.77708],[37.89375,-0.76875],[37.90625,-0.76042],[37.90625,-0.75625],[37.91458,-0.74375],[37.91458,-0.71458],[37.90208,-0.71042],[37.90208,-0.66458],[37.89792,-0.65208],[37.92292,-0.62708],[37.88542,-0.58125],[37.88958,-0.56875],[37.88542,-0.53958],[37.88958,-0.51875],[37.89792,-0.51042],[37.89792,-0.50208],[37.90625,-0.49375],[37.91458,-0.46875],[37.93542,-0.44375],[37.93958,-0.43125],[37.94375,-0.42708],[37.94792,-0.43125],[37.96875,-0.41042],[37.96458,-0.40625],[37.97292,-0.39792],[37.97292,-0.38125],[37.97708,-0.37708],[37.96875,-0.36458],[37.97708,-0.35625],[37.97292,-0.34375],[37.98542,-0.32708],[37.98125,-0.31042],[38.00208,-0.26458],[38.00625,-0.26875],[38.02708,-0.26875],[38.03542,-0.27708],[38.09792,-0.27708],[38.10208,-0.28125],[38.11875,-0.27708],[38.13958,-0.25625],[38.14375,-0.24375],[38.16042,-0.23958],[38.16458,-0.23542],[38.16458,-0.22292],[38.18125,-0.19792],[38.18125,-0.18958],[38.18542,-0.18542],[38.18542,-0.15625],[38.20625,-0.14375],[38.20625,-0.13125],[38.21458,-0.12708],[38.21875,-0.11042],[38.24792,-0.08958],[38.26042,-0.08958],[38.27292,-0.09792],[38.30625,-0.06042],[38.31458,-0.05625],[38.32708,-0.06875],[38.34792,-0.06458],[38.38542,-0.08958],[38.39375,-0.07708],[38.41458,-0.07708],[38.41875,-0.07292],[38.42708,-0.07708],[38.43958,-0.07292],[38.45625,-0.08958],[38.48125,-0.08125],[38.49375,-0.06042],[38.50625,-0.06458],[38.52292,-0.06458],[38.53542,-0.04792],[38.54375,-0.04375],[38.54792,-0.02292],[38.55208,-0.01875],[38.56042,-0.02292],[38.56875,-0.01875],[38.58125,-0.02708],[38.58958,-0.02708],[38.59792,-0.03542],[38.61458,-0.03125],[38.64375,-0.05625],[38.65625,-0.04792],[38.68125,-0.05625],[38.68958,-0.04375],[38.71458,-0.06458],[38.72708,-0.06458],[38.74375,-0.07292],[38.76042,-0.07708],[38.77292,-0.07292],[38.79375,-0.08542],[38.81458,-0.08542],[38.82292,-0.09375],[38.85208,-0.09792],[38.85625,-0.09375],[38.89375,-0.09792],[38.91875,-0.08542],[38.92708,-0.09792],[38.94375,-0.09792],[38.96875,-0.07708],[38.98125,-0.06042],[38.99375,-0.05625],[38.99792,-0.05208],[39.01042,-0.05625],[39.02708,-0.04375],[39.03542,-0.05625],[39.06875,-0.04792],[39.08542,-0.07708],[39.10208,-0.08958],[39.11042,-0.10208],[39.11875,-0.11042],[39.12292,-0.11042],[39.13125,-0.12292],[39.15625,-0.12292],[39.16875,-0.13125],[39.17708,-0.13125],[39.18542,-0.13958],[39.19375,-0.13958],[39.21042,-0.14375],[39.22292,-0.13125],[39.23542,-0.14375],[39.27708,-0.14375],[39.28542,-0.13958],[39.31875,-0.13958],[39.33958,-0.16458],[39.34792,-0.16875],[39.36458,-0.16458],[39.38958,-0.19375],[39.42708,-0.18958],[39.44792,-0.21458],[39.45625,-0.21458],[39.47292,-0.22708],[39.47292,-0.23542],[39.48125,-0.24792],[39.49375,-0.24792],[39.50625,-0.26042],[39.50625,-0.26875],[39.51875,-0.28958],[39.51458,-0.29375],[39.51875,-0.30625],[39.52708,-0.29375],[39.53542,-0.29792],[39.54375,-0.29375],[39.55208,-0.30208],[39.55208,-0.31458],[39.56042,-0.32292],[39.56042,-0.33125],[39.57292,-0.33542],[39.59792,-0.36042],[39.59792,-0.37708],[39.59375,-0.38125],[39.61042,-0.40208],[39.60625,-0.41042],[39.61458,-0.41875],[39.61042,-0.42292],[39.61458,-0.43125],[39.61042,-0.44375],[39.63542,-0.46458],[39.62708,-0.48125],[39.63125,-0.49375],[39.64375,-0.50208],[39.63958,-0.51458],[39.64375,-0.51875],[39.64792,-0.51458],[39.65625,-0.52708],[39.66042,-0.52292],[39.66875,-0.53125],[39.66458,-0.54375],[39.68125,-0.55625],[39.68542,-0.55208],[39.68958,-0.55625],[39.68958,-0.58125],[39.69792,-0.58542],[39.70625,-0.59792],[39.71875,-0.58958],[39.72292,-0.59375],[39.73542,-0.59375],[39.73958,-0.58958],[39.74792,-0.60208],[39.75625,-0.60208],[39.77708,-0.61875],[39.77292,-0.63542],[39.78125,-0.64792],[39.78125,-0.66042],[39.80208,-0.67708],[39.79792,-0.68958],[39.81042,-0.69792],[39.81458,-0.71042],[39.81042,-0.71458],[39.81458,-0.72292],[39.81042,-0.73542],[39.82708,-0.74792],[39.81042,-0.76458],[39.81458,-0.76875],[39.81042,-0.77708],[39.83125,-0.78958],[39.82708,-0.79375],[39.83958,-0.81042],[39.85208,-0.84375],[39.86458,-0.85625],[39.85625,-0.87292],[39.86042,-0.87708],[39.86042,-0.88958],[39.85625,-0.89375],[39.85208,-0.90208],[39.86458,-0.91458],[39.86458,-0.92708],[39.87292,-0.93125],[39.88125,-0.94375],[39.87292,-0.95625],[39.88958,-0.97708],[39.89375,-0.98958],[39.88542,-1.00208],[39.89792,-1.01458],[39.89792,-1.02708],[39.91042,-1.03958],[39.91042,-1.05208],[39.91875,-1.06042],[39.91458,-1.06875],[39.91875,-1.07708],[39.92708,-1.08542],[39.92292,-1.09375],[39.93542,-1.10208],[39.93958,-1.11042],[39.93125,-1.11875],[39.93125,-1.13125],[39.93542,-1.13542],[39.95625,-1.14792],[39.96875,-1.17708],[39.98125,-1.19375],[39.98125,-1.20208],[40.00208,-1.21875],[39.99792,-1.23125],[40.01458,-1.26458],[40.00625,-1.27292],[40.01042,-1.28125],[40.00208,-1.29792],[40.00208,-1.31042],[40.01042,-1.31875],[40.00625,-1.32708],[40.01042,-1.33125],[40.00625,-1.35208],[40.01875,-1.36875],[40.01875,-1.38542],[40.03542,-1.41875],[40.03542,-1.45208],[40.03958,-1.45625],[40.03542,-1.46458],[40.04375,-1.47292],[40.03542,-1.48542],[40.04792,-1.49375],[40.05625,-1.50625],[40.05208,-1.51458],[40.05625,-1.51875],[40.05625,-1.53542],[40.06875,-1.54375],[40.06458,-1.55625],[40.07292,-1.56458],[40.06875,-1.56875],[40.07708,-1.57708],[40.07708,-1.58542],[40.08542,-1.59375],[40.08958,-1.58958],[40.11042,-1.61875],[40.11042,-1.63125],[40.11458,-1.63542],[40.11042,-1.64375],[40.11875,-1.65208],[40.11042,-1.66042],[40.11875,-1.66875],[40.11042,-1.68542],[40.11458,-1.69375],[40.11042,-1.70625],[40.11875,-1.71042],[40.11458,-1.71875],[40.12708,-1.72708],[40.12708,-1.73125],[40.11458,-1.74375],[40.11042,-1.76875],[40.11042,-1.78542],[40.12292,-1.81458],[40.11042,-1.82292],[40.11042,-1.83125],[40.11458,-1.83958],[40.13958,-1.86042],[40.14375,-1.87292],[40.13542,-1.88542],[40.14375,-1.89792],[40.13958,-1.90208],[40.14375,-1.90625],[40.14375,-1.91875],[40.13542,-1.92708],[40.14375,-1.93125],[40.13958,-1.94375],[40.13958,-1.95208],[40.14792,-1.96042],[40.15625,-1.98125],[40.15208,-2.00208],[40.17708,-2.04792],[40.16458,-2.06042],[40.17708,-2.06875],[40.17292,-2.08125],[40.17292,-2.10625],[40.18125,-2.11875],[40.17708,-2.13125],[40.18542,-2.13542],[40.18542,-2.14792],[40.18125,-2.16042],[40.16875,-2.16458],[40.17292,-2.17292],[40.16875,-2.19375],[40.17708,-2.21458],[40.17292,-2.22292],[40.17708,-2.23125],[40.17292,-2.23542],[40.15625,-2.23958],[40.13958,-2.25625],[40.12708,-2.25625],[40.11875,-2.26875],[40.13125,-2.27708],[40.12708,-2.28125],[40.13542,-2.29375],[40.14792,-2.30208],[40.15208,-2.31458],[40.16458,-2.32292],[40.13542,-2.34375],[40.15625,-2.36458],[40.16875,-2.36875],[40.16875,-2.38125],[40.18125,-2.39792],[40.19375,-2.39792],[40.19792,-2.40208],[40.21042,-2.41042],[40.20625,-2.43125],[40.19792,-2.43958],[40.19792,-2.45208],[40.21042,-2.46042],[40.20625,-2.46875],[40.21042,-2.47292],[40.22708,-2.46875],[40.23958,-2.48958],[40.24792,-2.48542],[40.27708,-2.50208],[40.28542,-2.49792],[40.30625,-2.51042],[40.31875,-2.51042],[40.33542,-2.51875],[40.34792,-2.51875],[40.36875,-2.50625],[40.37708,-2.51042],[40.39375,-2.49792],[40.41458,-2.50208],[40.42292,-2.48958],[40.43125,-2.48542],[40.46875,-2.49792],[40.47708,-2.50625],[40.46875,-2.51875],[40.47708,-2.52708],[40.49792,-2.51458],[40.51042,-2.51875],[40.51277,-2.52228]]}}]}