{"type":"FeatureCollection","features":[{"type":"Feature","properties":{"name":"Kiambere Dam (release)","travel_h":0,"travel_range":"0 h","river_km":72},"geometry":{"type":"Point","coordinates":[37.89958,-0.65042]}},{"type":"Feature","properties":{"name":"Kora / Adamson's Falls","travel_h":12,"travel_range":"10-14 h","river_km":187},"geometry":{"type":"Point","coordinates":[38.4,-0.07708]}},{"type":"Feature","properties":{"name":"Mbalambala","travel_h":21,"travel_range":"18-24 h","river_km":277},"geometry":{"type":"Point","coordinates":[39.06875,-0.04792]}},{"type":"Feature","properties":{"name":"Saka","travel_h":26,"travel_range":"24-28 h","river_km":311},"geometry":{"type":"Point","coordinates":[39.317,-0.13958]}},{"type":"Feature","properties":{"name":"Sankuri","travel_h":31,"travel_range":"28-34 h","river_km":350},"geometry":{"type":"Point","coordinates":[39.55208,-0.305]}},{"type":"Feature","properties":{"name":"Garissa Town & farms","travel_h":42,"travel_range":"36-48 h","river_km":373},"geometry":{"type":"Point","coordinates":[39.63542,-0.46458]}},{"type":"Feature","properties":{"name":"Bura (Tana River Co.)","travel_h":56,"travel_range":"50-60 h","river_km":473},"geometry":{"type":"Point","coordinates":[39.93753,-1.10632]}},{"type":"Feature","properties":{"name":"Hola (Tana River Co.)","travel_h":66,"travel_range":"60-72 h","river_km":523},"geometry":{"type":"Point","coordinates":[40.03832,-1.48735]}},{"type":"Feature","properties":{"name":"Garsen","travel_h":90,"travel_range":"84-96 h","river_km":632},"geometry":{"type":"Point","coordinates":[40.12019,-2.26971]}},{"type":"Feature","properties":{"name":"Tana Delta / Kipini","travel_h":108,"travel_range":"96-120 h","river_km":706},"geometry":{"type":"Point","coordinates":[40.49792,-2.51458]}}]}