{
"type": "FeatureCollection",
"name": "bullas_risk_assessed",
"crs": { "type": "name", "properties": { "name": "urn:ogc:def:crs:OGC:1.3:CRS84" } },
"features": [
{ "type": "Feature", "properties": { "id": "11364872337", "name": "Madagen", "amenity": null, "created_by": null, "evacuation_center": "false", "evacuation_centre": null, "flood_prone": "yes", "is_in": null, "is_in:county": "Garissa", "is_in:town": null, "opening_hours": null, "place": "village", "shop": null, "source": null, "Risk_Level": "High Risk", "Distance_to_Flood_km": "0.0", "sub_county": "Garissa Sub County", "Poverty_Rate": "0.48", "Food_Poverty_Rate": "0.35", "Wasting_Rate": "0.1", "Avg_HH_Income": "5169", "Avg_HH_Expenditure": "6177", "HH_Cash_Gap": "-1008", "Post_Assistance_Income": "13927", "Post_Assistance_Expenditure": "11092", "Post_Assistance_Surplus": "2835", "Vulnerability_Index": "0.654", "marker_emoji": "🛖", "Author": "Garissa GIS Directorate — James M. Mburu", "NN_Vulnerability_Score": "0.474", "NN_Risk_Class": "Medium" }, "geometry": { "type": "Point", "coordinates": [ 39.6464983, -0.4873955 ] } },
{ "type": "Feature", "properties": { "id": "11364872330", "name": "Abakuyu", "amenity": null, "created_by": null, "evacuation_center": "true", "evacuation_centre": null, "flood_prone": "yes", "is_in": null, "is_in:county": "Garissa", "is_in:town": null, "opening_hours": null, "place": "village", "shop": null, "source": null, "Risk_Level": "High Risk", "Distance_to_Flood_km": "0.0", "sub_county": "Garissa Sub County", "Poverty_Rate": "0.48", "Food_Poverty_Rate": "0.35", "Wasting_Rate": "0.1", "Avg_HH_Income": "5169", "Avg_HH_Expenditure": "6177", "HH_Cash_Gap": "-1008", "Post_Assistance_Income": "13927", "Post_Assistance_Expenditure": "11092", "Post_Assistance_Surplus": "2835", "Vulnerability_Index": "0.654", "marker_emoji": "🛖", "Author": "Garissa GIS Directorate — James M. Mburu", "NN_Vulnerability_Score": "0.474", "NN_Risk_Class": "Medium" }, "geometry": { "type": "Point", "coordinates": [ 39.6465618, -0.4865723 ] } },
{ "type": "Feature", "properties": { "id": "11364872326", "name": "Dairy", "amenity": null, "created_by": null, "evacuation_center": "false", "evacuation_centre": null, "flood_prone": "yes", "is_in": null, "is_in:county": "Garissa", "is_in:town": null, "opening_hours": null, "place": "village", "shop": null, "source": null, "Risk_Level": "High Risk", "Distance_to_Flood_km": "0.0", "sub_county": "Garissa Sub County", "Poverty_Rate": "0.48", "Food_Poverty_Rate": "0.35", "Wasting_Rate": "0.1", "Avg_HH_Income": "5169", "Avg_HH_Expenditure": "6177", "HH_Cash_Gap": "-1008", "Post_Assistance_Income": "13927", "Post_Assistance_Expenditure": "11092", "Post_Assistance_Surplus": "2835", "Vulnerability_Index": "0.654", "marker_emoji": "🛖", "Author": "Garissa GIS Directorate — James M. Mburu", "NN_Vulnerability_Score": "0.474", "NN_Risk_Class": "Medium" }, "geometry": { "type": "Point", "coordinates": [ 39.6449986, -0.4862191 ] } },
{ "type": "Feature", "properties": { "id": "11364872331", "name": "Deri", "amenity": null, "created_by": null, "evacuation_center": "false", "evacuation_centre": null, "flood_prone": "no", "is_in": null, "is_in:county": "Garissa", "is_in:town": null, "opening_hours": null, "place": "village", "shop": null, "source": null, "Risk_Level": "High Risk", "Distance_to_Flood_km": "0.0", "sub_county": "Garissa Sub County", "Poverty_Rate": "0.48", "Food_Poverty_Rate": "0.35", "Wasting_Rate": "0.1", "Avg_HH_Income": "5169", "Avg_HH_Expenditure": "6177", "HH_Cash_Gap": "-1008", "Post_Assistance_Income": "13927", "Post_Assistance_Expenditure": "11092", "Post_Assistance_Surplus": "2835", "Vulnerability_Index": "0.654", "marker_emoji": "🛖", "Author": "Garissa GIS Directorate — James M. Mburu", "NN_Vulnerability_Score": "0.474", "NN_Risk_Class": "Medium" }, "geometry": { "type": "Point", "coordinates": [ 39.6447837, -0.4852522 ] } },
{ "type": "Feature", "properties": { "id": "11364872323", "name": "Iftin", "amenity": null, "created_by": null, "evacuation_center": "false", "evacuation_centre": null, "flood_prone": "no", "is_in": null, "is_in:county": "Garissa", "is_in:town": null, "opening_hours": null, "place": "village", "shop": null, "source": null, "Risk_Level": "High Risk", "Distance_to_Flood_km": "0.0", "sub_county": "Garissa Sub County", "Poverty_Rate": "0.48", "Food_Poverty_Rate": "0.35", "Wasting_Rate": "0.1", "Avg_HH_Income": "5169", "Avg_HH_Expenditure": "6177", "HH_Cash_Gap": "-1008", "Post_Assistance_Income": "13927", "Post_Assistance_Expenditure": "11092", "Post_Assistance_Surplus": "2835", "Vulnerability_Index": "0.654", "marker_emoji": "🛖", "Author": "Garissa GIS Directorate — James M. Mburu", "NN_Vulnerability_Score": "0.474", "NN_Risk_Class": "Medium" }, "geometry": { "type": "Point", "coordinates": [ 39.6499112, -0.4830851 ] } },
{ "type": "Feature", "properties": { "id": "11364695989", "name": "Bulla iftin market", "amenity": "marketplace", "created_by": null, "evacuation_center": "false", "evacuation_centre": null, "flood_prone": "yes", "is_in": null, "is_in:county": "Garissa", "is_in:town": null, "opening_hours": "sunrise-sunset", "place": null, "shop": "greengrocer;clothes;food;water", "source": null, "Risk_Level": "High Risk", "Distance_to_Flood_km": "0.09", "sub_county": "Garissa Sub County", "Poverty_Rate": "0.48", "Food_Poverty_Rate": "0.35", "Wasting_Rate": "0.1", "Avg_HH_Income": "5169", "Avg_HH_Expenditure": "6177", "HH_Cash_Gap": "-1008", "Post_Assistance_Income": "13927", "Post_Assistance_Expenditure": "11092", "Post_Assistance_Surplus": "2835", "Vulnerability_Index": "0.652", "marker_emoji": "🛖", "Author": "Garissa GIS Directorate — James M. Mburu", "NN_Vulnerability_Score": "0.474", "NN_Risk_Class": "Medium" }, "geometry": { "type": "Point", "coordinates": [ 39.6510124, -0.483002 ] } },
{ "type": "Feature", "properties": { "id": "11364872342", "name": "Bulla iftin", "amenity": null, "created_by": null, "evacuation_center": "true", "evacuation_centre": null, "flood_prone": "no", "is_in": null, "is_in:county": "Garissa", "is_in:town": null, "opening_hours": null, "place": "village", "shop": null, "source": null, "Risk_Level": "High Risk", "Distance_to_Flood_km": "0.26", "sub_county": "Garissa Sub County", "Poverty_Rate": "0.48", "Food_Poverty_Rate": "0.35", "Wasting_Rate": "0.1", "Avg_HH_Income": "5169", "Avg_HH_Expenditure": "6177", "HH_Cash_Gap": "-1008", "Post_Assistance_Income": "13927", "Post_Assistance_Expenditure": "11092", "Post_Assistance_Surplus": "2835", "Vulnerability_Index": "0.649", "marker_emoji": "🛖", "Author": "Garissa GIS Directorate — James M. Mburu", "NN_Vulnerability_Score": "0.474", "NN_Risk_Class": "Medium" }, "geometry": { "type": "Point", "coordinates": [ 39.6520196, -0.4808269 ] } },
{ "type": "Feature", "properties": { "id": "11364872341", "name": "Provine", "amenity": null, "created_by": null, "evacuation_center": "true", "evacuation_centre": null, "flood_prone": "no", "is_in": null, "is_in:county": "Garissa", "is_in:town": null, "opening_hours": null, "place": "village", "shop": null, "source": null, "Risk_Level": "High Risk", "Distance_to_Flood_km": "0.0", "sub_county": "Garissa Sub County", "Poverty_Rate": "0.48", "Food_Poverty_Rate": "0.35", "Wasting_Rate": "0.1", "Avg_HH_Income": "5169", "Avg_HH_Expenditure": "6177", "HH_Cash_Gap": "-1008", "Post_Assistance_Income": "13927", "Post_Assistance_Expenditure": "11092", "Post_Assistance_Surplus": "2835", "Vulnerability_Index": "0.654", "marker_emoji": "🛖", "Author": "Garissa GIS Directorate — James M. Mburu", "NN_Vulnerability_Score": "0.474", "NN_Risk_Class": "Medium" }, "geometry": { "type": "Point", "coordinates": [ 39.6393275, -0.4660319 ] } },
{ "type": "Feature", "properties": { "id": "11217744214", "name": "Bakuyu", "amenity": null, "created_by": null, "evacuation_center": null, "evacuation_centre": null, "flood_prone": null, "is_in": null, "is_in:county": "Tana River", "is_in:town": null, "opening_hours": null, "place": "village", "shop": null, "source": null, "Risk_Level": "High Risk", "Distance_to_Flood_km": "0.0", "sub_county": "Garissa Sub County", "Poverty_Rate": "0.48", "Food_Poverty_Rate": "0.35", "Wasting_Rate": "0.1", "Avg_HH_Income": "5169", "Avg_HH_Expenditure": "6177", "HH_Cash_Gap": "-1008", "Post_Assistance_Income": "13927", "Post_Assistance_Expenditure": "11092", "Post_Assistance_Surplus": "2835", "Vulnerability_Index": "0.654", "marker_emoji": "🛖", "Author": "Garissa GIS Directorate — James M. Mburu", "NN_Vulnerability_Score": "0.474", "NN_Risk_Class": "Medium" }, "geometry": { "type": "Point", "coordinates": [ 39.6336698, -0.4918488 ] } },
{ "type": "Feature", "properties": { "id": "11217744213", "name": "Ziwani", "amenity": null, "created_by": null, "evacuation_center": null, "evacuation_centre": null, "flood_prone": null, "is_in": null, "is_in:county": "Tana River", "is_in:town": null, "opening_hours": null, "place": "village", "shop": null, "source": null, "Risk_Level": "High Risk", "Distance_to_Flood_km": "0.0", "sub_county": "Garissa Sub County", "Poverty_Rate": "0.48", "Food_Poverty_Rate": "0.35", "Wasting_Rate": "0.1", "Avg_HH_Income": "5169", "Avg_HH_Expenditure": "6177", "HH_Cash_Gap": "-1008", "Post_Assistance_Income": "13927", "Post_Assistance_Expenditure": "11092", "Post_Assistance_Surplus": "2835", "Vulnerability_Index": "0.654", "marker_emoji": "🛖", "Author": "Garissa GIS Directorate — James M. Mburu", "NN_Vulnerability_Score": "0.474", "NN_Risk_Class": "Medium" }, "geometry": { "type": "Point", "coordinates": [ 39.6368916, -0.4705224 ] } },
{ "type": "Feature", "properties": { "id": "11364872321", "name": "Bula punda", "amenity": null, "created_by": null, "evacuation_center": "false", "evacuation_centre": null, "flood_prone": "yes", "is_in": null, "is_in:county": "Garissa", "is_in:town": null, "opening_hours": null, "place": "village", "shop": null, "source": null, "Risk_Level": "High Risk", "Distance_to_Flood_km": "0.0", "sub_county": "Garissa Sub County", "Poverty_Rate": "0.48", "Food_Poverty_Rate": "0.35", "Wasting_Rate": "0.1", "Avg_HH_Income": "5169", "Avg_HH_Expenditure": "6177", "HH_Cash_Gap": "-1008", "Post_Assistance_Income": "13927", "Post_Assistance_Expenditure": "11092", "Post_Assistance_Surplus": "2835", "Vulnerability_Index": "0.654", "marker_emoji": "🛖", "Author": "Garissa GIS Directorate — James M. Mburu", "NN_Vulnerability_Score": "0.474", "NN_Risk_Class": "Medium" }, "geometry": { "type": "Point", "coordinates": [ 39.6351296, -0.4492567 ] } },
{ "type": "Feature", "properties": { "id": "11364872325", "name": "Bulawayo kamor", "amenity": null, "created_by": null, "evacuation_center": "false", "evacuation_centre": null, "flood_prone": "yes", "is_in": null, "is_in:county": "Garissa", "is_in:town": null, "opening_hours": null, "place": "village", "shop": null, "source": null, "Risk_Level": "High Risk", "Distance_to_Flood_km": "0.0", "sub_county": "Garissa Sub County", "Poverty_Rate": "0.48", "Food_Poverty_Rate": "0.35", "Wasting_Rate": "0.1", "Avg_HH_Income": "5169", "Avg_HH_Expenditure": "6177", "HH_Cash_Gap": "-1008", "Post_Assistance_Income": "13927", "Post_Assistance_Expenditure": "11092", "Post_Assistance_Surplus": "2835", "Vulnerability_Index": "0.654", "marker_emoji": "🛖", "Author": "Garissa GIS Directorate — James M. Mburu", "NN_Vulnerability_Score": "0.474", "NN_Risk_Class": "Medium" }, "geometry": { "type": "Point", "coordinates": [ 39.6365128, -0.4473077 ] } },
{ "type": "Feature", "properties": { "id": "11364872328", "name": "Bulla kamor", "amenity": null, "created_by": null, "evacuation_center": "false", "evacuation_centre": null, "flood_prone": "yes", "is_in": null, "is_in:county": "Garissa", "is_in:town": null, "opening_hours": null, "place": "village", "shop": null, "source": null, "Risk_Level": "High Risk", "Distance_to_Flood_km": "0.0", "sub_county": "Garissa Sub County", "Poverty_Rate": "0.48", "Food_Poverty_Rate": "0.35", "Wasting_Rate": "0.1", "Avg_HH_Income": "5169", "Avg_HH_Expenditure": "6177", "HH_Cash_Gap": "-1008", "Post_Assistance_Income": "13927", "Post_Assistance_Expenditure": "11092", "Post_Assistance_Surplus": "2835", "Vulnerability_Index": "0.654", "marker_emoji": "🛖", "Author": "Garissa GIS Directorate — James M. Mburu", "NN_Vulnerability_Score": "0.474", "NN_Risk_Class": "Medium" }, "geometry": { "type": "Point", "coordinates": [ 39.635626, -0.4456484 ] } },
{ "type": "Feature", "properties": { "id": "11364872346", "name": "Kamor", "amenity": null, "created_by": null, "evacuation_center": "false", "evacuation_centre": null, "flood_prone": "yes", "is_in": null, "is_in:county": "Garissa", "is_in:town": null, "opening_hours": null, "place": "village", "shop": null, "source": null, "Risk_Level": "High Risk", "Distance_to_Flood_km": "0.0", "sub_county": "Garissa Sub County", "Poverty_Rate": "0.48", "Food_Poverty_Rate": "0.35", "Wasting_Rate": "0.1", "Avg_HH_Income": "5169", "Avg_HH_Expenditure": "6177", "HH_Cash_Gap": "-1008", "Post_Assistance_Income": "13927", "Post_Assistance_Expenditure": "11092", "Post_Assistance_Surplus": "2835", "Vulnerability_Index": "0.654", "marker_emoji": "🛖", "Author": "Garissa GIS Directorate — James M. Mburu", "NN_Vulnerability_Score": "0.474", "NN_Risk_Class": "Medium" }, "geometry": { "type": "Point", "coordinates": [ 39.6349204, -0.4444743 ] } },
{ "type": "Feature", "properties": { "id": "11364872339", "name": "Bula Vumbi", "amenity": null, "created_by": null, "evacuation_center": "false", "evacuation_centre": null, "flood_prone": "yes", "is_in": null, "is_in:county": "Garissa", "is_in:town": null, "opening_hours": null, "place": "village", "shop": null, "source": null, "Risk_Level": "High Risk", "Distance_to_Flood_km": "0.0", "sub_county": "Garissa Sub County", "Poverty_Rate": "0.48", "Food_Poverty_Rate": "0.35", "Wasting_Rate": "0.1", "Avg_HH_Income": "5169", "Avg_HH_Expenditure": "6177", "HH_Cash_Gap": "-1008", "Post_Assistance_Income": "13927", "Post_Assistance_Expenditure": "11092", "Post_Assistance_Surplus": "2835", "Vulnerability_Index": "0.654", "marker_emoji": "🛖", "Author": "Garissa GIS Directorate — James M. Mburu", "NN_Vulnerability_Score": "0.474", "NN_Risk_Class": "Medium" }, "geometry": { "type": "Point", "coordinates": [ 39.6345474, -0.4440808 ] } },
{ "type": "Feature", "properties": { "id": "11364872340", "name": "Bula kamor", "amenity": null, "created_by": null, "evacuation_center": "false", "evacuation_centre": null, "flood_prone": "yes", "is_in": null, "is_in:county": "Garissa", "is_in:town": null, "opening_hours": null, "place": "village", "shop": null, "source": null, "Risk_Level": "High Risk", "Distance_to_Flood_km": "0.0", "sub_county": "Garissa Sub County", "Poverty_Rate": "0.48", "Food_Poverty_Rate": "0.35", "Wasting_Rate": "0.1", "Avg_HH_Income": "5169", "Avg_HH_Expenditure": "6177", "HH_Cash_Gap": "-1008", "Post_Assistance_Income": "13927", "Post_Assistance_Expenditure": "11092", "Post_Assistance_Surplus": "2835", "Vulnerability_Index": "0.654", "marker_emoji": "🛖", "Author": "Garissa GIS Directorate — James M. Mburu", "NN_Vulnerability_Score": "0.474", "NN_Risk_Class": "Medium" }, "geometry": { "type": "Point", "coordinates": [ 39.6352244, -0.4434482 ] } },
{ "type": "Feature", "properties": { "id": "11364872334", "name": "Bulla vumbi", "amenity": null, "created_by": null, "evacuation_center": "false", "evacuation_centre": null, "flood_prone": "yes", "is_in": null, "is_in:county": "Garissa", "is_in:town": null, "opening_hours": null, "place": "village", "shop": null, "source": null, "Risk_Level": "High Risk", "Distance_to_Flood_km": "0.0", "sub_county": "Garissa Sub County", "Poverty_Rate": "0.48", "Food_Poverty_Rate": "0.35", "Wasting_Rate": "0.1", "Avg_HH_Income": "5169", "Avg_HH_Expenditure": "6177", "HH_Cash_Gap": "-1008", "Post_Assistance_Income": "13927", "Post_Assistance_Expenditure": "11092", "Post_Assistance_Surplus": "2835", "Vulnerability_Index": "0.654", "marker_emoji": "🛖", "Author": "Garissa GIS Directorate — James M. Mburu", "NN_Vulnerability_Score": "0.474", "NN_Risk_Class": "Medium" }, "geometry": { "type": "Point", "coordinates": [ 39.6354591, -0.433657 ] } },
{ "type": "Feature", "properties": { "id": "11364872352", "name": "Adc village", "amenity": null, "created_by": null, "evacuation_center": "false", "evacuation_centre": null, "flood_prone": "yes", "is_in": null, "is_in:county": "Garissa", "is_in:town": null, "opening_hours": null, "place": "village", "shop": null, "source": null, "Risk_Level": "Medium Risk", "Distance_to_Flood_km": "0.72", "sub_county": "Garissa Sub County", "Poverty_Rate": "0.48", "Food_Poverty_Rate": "0.35", "Wasting_Rate": "0.1", "Avg_HH_Income": "5169", "Avg_HH_Expenditure": "6177", "HH_Cash_Gap": "-1008", "Post_Assistance_Income": "13927", "Post_Assistance_Expenditure": "11092", "Post_Assistance_Surplus": "2835", "Vulnerability_Index": "0.55", "marker_emoji": "🛖", "Author": "Garissa GIS Directorate — James M. Mburu", "NN_Vulnerability_Score": "0.473", "NN_Risk_Class": "Medium" }, "geometry": { "type": "Point", "coordinates": [ 39.6378432, -0.4208865 ] } },
{ "type": "Feature", "properties": { "id": "11799876715", "name": "Theley", "amenity": null, "created_by": null, "evacuation_center": null, "evacuation_centre": null, "flood_prone": null, "is_in": null, "is_in:county": null, "is_in:town": null, "opening_hours": null, "place": "hamlet", "shop": null, "source": null, "Risk_Level": "Low Risk", "Distance_to_Flood_km": "2.44", "sub_county": "Garissa Sub County", "Poverty_Rate": "0.48", "Food_Poverty_Rate": "0.35", "Wasting_Rate": "0.1", "Avg_HH_Income": "5169", "Avg_HH_Expenditure": "6177", "HH_Cash_Gap": "-1008", "Post_Assistance_Income": "13927", "Post_Assistance_Expenditure": "11092", "Post_Assistance_Surplus": "2835", "Vulnerability_Index": "0.455", "marker_emoji": "🛖", "Author": "Garissa GIS Directorate — James M. Mburu", "NN_Vulnerability_Score": "0.432", "NN_Risk_Class": "Medium" }, "geometry": { "type": "Point", "coordinates": [ 39.6315476, -0.3807845 ] } },
{ "type": "Feature", "properties": { "id": "11364872343", "name": "Bulla adc", "amenity": null, "created_by": null, "evacuation_center": "true", "evacuation_centre": null, "flood_prone": "yes", "is_in": null, "is_in:county": "Garissa", "is_in:town": null, "opening_hours": null, "place": "village", "shop": null, "source": null, "Risk_Level": "Low Risk", "Distance_to_Flood_km": "1.56", "sub_county": "Garissa Sub County", "Poverty_Rate": "0.48", "Food_Poverty_Rate": "0.35", "Wasting_Rate": "0.1", "Avg_HH_Income": "5169", "Avg_HH_Expenditure": "6177", "HH_Cash_Gap": "-1008", "Post_Assistance_Income": "13927", "Post_Assistance_Expenditure": "11092", "Post_Assistance_Surplus": "2835", "Vulnerability_Index": "0.473", "marker_emoji": "🛖", "Author": "Garissa GIS Directorate — James M. Mburu", "NN_Vulnerability_Score": "0.467", "NN_Risk_Class": "Medium" }, "geometry": { "type": "Point", "coordinates": [ 39.6506296, -0.4344023 ] } },
{ "type": "Feature", "properties": { "id": "11364872338", "name": "Bulla winzaa", "amenity": null, "created_by": null, "evacuation_center": "true", "evacuation_centre": null, "flood_prone": "no", "is_in": null, "is_in:county": "Garissa", "is_in:town": null, "opening_hours": null, "place": "village", "shop": null, "source": null, "Risk_Level": "Low Risk", "Distance_to_Flood_km": "1.59", "sub_county": "Garissa Sub County", "Poverty_Rate": "0.48", "Food_Poverty_Rate": "0.35", "Wasting_Rate": "0.1", "Avg_HH_Income": "5169", "Avg_HH_Expenditure": "6177", "HH_Cash_Gap": "-1008", "Post_Assistance_Income": "13927", "Post_Assistance_Expenditure": "11092", "Post_Assistance_Surplus": "2835", "Vulnerability_Index": "0.472", "marker_emoji": "🛖", "Author": "Garissa GIS Directorate — James M. Mburu", "NN_Vulnerability_Score": "0.466", "NN_Risk_Class": "Medium" }, "geometry": { "type": "Point", "coordinates": [ 39.6507445, -0.4338015 ] } },
{ "type": "Feature", "properties": { "id": "2144232669", "name": "Modika", "amenity": null, "created_by": null, "evacuation_center": null, "evacuation_centre": null, "flood_prone": null, "is_in": null, "is_in:county": null, "is_in:town": null, "opening_hours": null, "place": "village", "shop": null, "source": null, "Risk_Level": "Safe", "Distance_to_Flood_km": "9.38", "sub_county": "Garissa Sub County", "Poverty_Rate": "0.48", "Food_Poverty_Rate": "0.35", "Wasting_Rate": "0.1", "Avg_HH_Income": "5169", "Avg_HH_Expenditure": "6177", "HH_Cash_Gap": "-1008", "Post_Assistance_Income": "13927", "Post_Assistance_Expenditure": "11092", "Post_Assistance_Surplus": "2835", "Vulnerability_Index": "0.226", "marker_emoji": "🛖", "Author": "Garissa GIS Directorate — James M. Mburu", "NN_Vulnerability_Score": "0.19", "NN_Risk_Class": "Low" }, "geometry": { "type": "Point", "coordinates": [ 39.7128422, -0.3801674 ] } }
]
}
