{"type": "FeatureCollection", "features": [{"type": "Feature", "geometry": {"type": "Point", "coordinates": [39.6635852, -0.43184]}, "properties": {"id": 6249718159, "name": "Masjid Qubaa", "addr:city": "Garissa", "addr:street": "Garissa-Dadaab Road", "amenity": "place_of_worship", "religion": "muslim"}}, {"type": "Feature", "geometry": {"type": "Point", "coordinates": [39.6475739, -0.4502576]}, "properties": {"id": 6249718175, "name": "Towfiq Mosque", "addr:city": "Garissa", "addr:street": "Garissa-Daadab Road", "amenity": "place_of_worship", "religion": "muslim"}}, {"type": "Feature", "geometry": {"type": "Point", "coordinates": [39.6525605, -0.4812027]}, "properties": {"id": 11364670762, "name": "Saada mosque", "amenity": "place_of_worship", "evacuation_center": "true", "flood_prone": "no", "is_in:county": "Garissa", "latitude": "-0.4812027", "longitude": "39.6525605", "religion": "muslim", "storage_area": "false"}}, {"type": "Feature", "geometry": {"type": "Point", "coordinates": [39.6352752, -0.4393716]}, "properties": {"id": 11364670764, "name": "Masjid Al noor", "amenity": "place_of_worship", "evacuation_center": "false", "flood_prone": "yes", "is_in:county": "Garissa", "latitude": "-0.4393716", "longitude": "39.6352752", "religion": "muslim", "storage_area": "true"}}, {"type": "Feature", "geometry": {"type": "Point", "coordinates": [39.6368098, -0.4451639]}, "properties": {"id": 11364722269, "name": "masjidul bukhari", "amenity": "place_of_worship", "evacuation_center": "false", "flood_prone": "yes", "is_in:county": "Garissa", "latitude": "-0.4451639", "longitude": "39.6368098", "religion": "muslim", "storage_area": "true"}}, {"type": "Feature", "geometry": {"type": "Point", "coordinates": [39.6381229, -0.446083]}, "properties": {"id": 11364722273, "name": "Masjid haji ahmed", "amenity": "place_of_worship", "evacuation_center": "false", "flood_prone": "no", "is_in:county": "Garissa", "latitude": "-0.446083", "longitude": "39.6381229", "religion": "muslim", "storage_area": "false"}}, {"type": "Feature", "geometry": {"type": "Point", "coordinates": [39.6381059, -0.4471301]}, "properties": {"id": 11364722276, "name": "Masjid Noor rahma", "amenity": "place_of_worship", "evacuation_center": "true", "flood_prone": "yes", "is_in:county": "Garissa", "latitude": "-0.4471301", "longitude": "39.6381059", "religion": "muslim", "storage_area": "true"}}, {"type": "Feature", "geometry": {"type": "Point", "coordinates": [39.6381146, -0.4324259]}, "properties": {"id": 11364722279, "name": "Adc", "amenity": "place_of_worship", "evacuation_center": "false", "flood_prone": "yes", "is_in:county": "Garissa", "latitude": "-0.4324259", "longitude": "39.6381146", "religion": "muslim", "storage_area": "false"}}, {"type": "Feature", "geometry": {"type": "Point", "coordinates": [39.6364903, -0.4428316]}, "properties": {"id": 11364722280, "name": "Masjidul aqsa", "amenity": "place_of_worship", "evacuation_center": "true", "flood_prone": "no", "is_in:county": "Garissa", "latitude": "-0.4428316", "longitude": "39.6364903", "religion": "muslim", "storage_area": "true"}}, {"type": "Feature", "geometry": {"type": "Point", "coordinates": [39.6591762, -0.4878196]}, "properties": {"id": 11364722283, "name": "Prison mosque", "amenity": "place_of_worship", "evacuation_center": "false", "flood_prone": "yes", "is_in:county": "Garissa", "latitude": "-0.4878196", "longitude": "39.6591762", "religion": "muslim", "storage_area": "false"}}, {"type": "Feature", "geometry": {"type": "Point", "coordinates": [39.6504586, -0.4838397]}, "properties": {"id": 11364722284, "name": "Aslayn", "amenity": "place_of_worship", "evacuation_center": "true", "flood_prone": "no", "is_in:county": "Garissa", "latitude": "-0.4838397", "longitude": "39.6504586", "religion": "muslim", "storage_area": "true"}}, {"type": "Feature", "geometry": {"type": "Point", "coordinates": [39.6352127, -0.4648619]}, "properties": {"id": 11645787568, "name": "Mororo Madrasa Mosque", "amenity": "place_of_worship", "evacuation_centre": "no", "flood_prone": "yes", "religion": "muslim", "source": "KRCS2023"}}, {"type": "Feature", "geometry": {"type": "Point", "coordinates": [39.6612309, -0.4478201]}, "properties": {"id": 12301091276, "name": "Garissa University Mosque", "amenity": "place_of_worship", "check_date": "2024-10-31", "religion": "muslim"}}, {"type": "Feature", "geometry": {"type": "Point", "coordinates": [39.6538157, -0.4530101]}, "properties": {"id": 12388905712, "name": "Unknown Mosque", "amenity": "place_of_worship", "religion": "muslim"}}, {"type": "Feature", "geometry": {"type": "Point", "coordinates": [39.6452569, -0.454635]}, "properties": {"id": 656064151, "name": "Jaamic Ibn-Ulqayyim", "addr:city": "Garissa", "addr:street": "Kismayo Road", "amenity": "place_of_worship", "building": "yes", "religion": "muslim"}}, {"type": "Feature", "geometry": {"type": "Point", "coordinates": [39.6475408, -0.4502912]}, "properties": {"id": 674331424, "name": "Unknown Mosque", "amenity": "place_of_worship", "building": "yes", "religion": "muslim"}}]}