{"type": "FeatureCollection", "features": [{"type": "Feature", "geometry": {"type": "Point", "coordinates": [39.5996624, -0.4739665]}, "properties": {"id": 7011472130, "name": "Madogo police", "addr:city": "Madogo", "addr:street": "Garissa-Daadab Road", "amenity": "police"}}, {"type": "Feature", "geometry": {"type": "Point", "coordinates": [39.7341709, -0.393921]}, "properties": {"id": 8949923817, "name": "Garissa R.H", "amenity": "hospital"}}, {"type": "Feature", "geometry": {"type": "Point", "coordinates": [39.6407036, -0.4213676]}, "properties": {"id": 11364695973, "name": "Adc market", "amenity": "marketplace", "evacuation_center": "true", "flood_prone": "no", "is_in:county": "Garissa", "opening_hours": "sunrise-sunset", "shop": "greengrocer"}}, {"type": "Feature", "geometry": {"type": "Point", "coordinates": [39.6497454, -0.4833716]}, "properties": {"id": 11364695974, "name": "Hanan market", "amenity": "marketplace", "evacuation_center": "false", "flood_prone": "no", "is_in:county": "Garissa", "opening_hours": "sunrise-sunset", "shop": "clothes;food;greengrocer"}}, {"type": "Feature", "geometry": {"type": "Point", "coordinates": [39.6371435, -0.4465595]}, "properties": {"id": 11364695976, "name": "Lamus market", "amenity": "marketplace", "evacuation_center": "false", "flood_prone": "yes", "is_in:county": "Garissa", "opening_hours": "sunrise-sunset", "shop": "convenience;food"}}, {"type": "Feature", "geometry": {"type": "Point", "coordinates": [39.6350394, -0.434815]}, "properties": {"id": 11364695979, "name": "Mashaallah shop", "amenity": "marketplace", "evacuation_center": "false", "flood_prone": "yes", "is_in:county": "Garissa", "opening_hours": "sunrise-sunset", "shop": "convenience"}}, {"type": "Feature", "geometry": {"type": "Point", "coordinates": [39.6762181, -0.5052146]}, "properties": {"id": 11364695981, "name": "Bouralgy market", "amenity": "marketplace", "evacuation_center": "true", "flood_prone": "no", "is_in:county": "Garissa", "opening_hours": "sunrise-sunset", "shop": "food"}}, {"type": "Feature", "geometry": {"type": "Point", "coordinates": [39.6372328, -0.4466538]}, "properties": {"id": 11364695983, "name": "Mwalimu shop", "amenity": "marketplace", "evacuation_center": "false", "flood_prone": "yes", "is_in:county": "Garissa", "opening_hours": "sunrise-sunset", "shop": "convenience"}}, {"type": "Feature", "geometry": {"type": "Point", "coordinates": [39.6507244, -0.483642]}, "properties": {"id": 11364695985, "name": "Mini market", "amenity": "marketplace", "evacuation_center": "true", "flood_prone": "yes", "is_in:county": "Garissa", "opening_hours": "sunrise-sunset", "shop": "greengrocer"}}, {"type": "Feature", "geometry": {"type": "Point", "coordinates": [39.6510124, -0.483002]}, "properties": {"id": 11364695989, "name": "Bulla iftin market", "amenity": "marketplace", "evacuation_center": "false", "flood_prone": "yes", "is_in:county": "Garissa", "opening_hours": "sunrise-sunset", "shop": "greengrocer;clothes;food;water"}}, {"type": "Feature", "geometry": {"type": "Point", "coordinates": [39.655366, -0.4859747]}, "properties": {"id": 11364695992, "name": "Maqbul mini market", "amenity": "marketplace", "evacuation_center": "false", "flood_prone": "no", "is_in:county": "Garissa", "opening_hours": "sunrise-sunset", "shop": "food;greengrocer;clothes"}}, {"type": "Feature", "geometry": {"type": "Point", "coordinates": [39.65083, -0.4837576]}, "properties": {"id": 11364695993, "name": "Usadik house", "amenity": "marketplace", "evacuation_center": "true", "flood_prone": "yes", "is_in:county": "Garissa", "opening_hours": "sunrise-sunset", "shop": "clothes"}}, {"type": "Feature", "geometry": {"type": "Point", "coordinates": [39.6514082, -0.4837761]}, "properties": {"id": 11364695995, "name": "Iftin stage market", "amenity": "marketplace", "evacuation_center": "true", "flood_prone": "no", "is_in:county": "Garissa", "opening_hours": "sunrise-sunset", "shop": "others;clothes;greengrocer;food;water;convenience"}}, {"type": "Feature", "geometry": {"type": "Point", "coordinates": [39.6378667, -0.4459462]}, "properties": {"id": 11364695998, "name": "bula punda market", "amenity": "marketplace", "evacuation_center": "true", "flood_prone": "no", "is_in:county": "Garissa", "opening_hours": "sunrise-sunset", "shop": "clothes;food"}}, {"type": "Feature", "geometry": {"type": "Point", "coordinates": [39.6523149, -0.4848352]}, "properties": {"id": 11364707374, "name": "Baitul tiba", "amenity": "hospital", "evacuation_center": "false", "flood_prone": "no", "is_in:county": "Garissa", "opening_hours": "24/7", "operational_status": "operational", "operator": "Fatuma abdi", "operator:type": "private", "phone": "+254 113 86 484", "storage_area": "false"}}, {"type": "Feature", "geometry": {"type": "Point", "coordinates": [39.6566173, -0.4757799]}, "properties": {"id": 11364707375, "name": "Iftin sub county", "amenity": "hospital", "evacuation_center": "false", "flood_prone": "yes", "is_in:county": "Garissa", "opening_hours": "24/7", "operational_status": "operational", "operator": "Ministry of Health", "operator:type": "public", "phone": "+254 728 487 163", "storage_area": "true"}}, {"type": "Feature", "geometry": {"type": "Point", "coordinates": [39.6508399, -0.4835452]}, "properties": {"id": 11364707378, "name": "Tawakal medical centre", "amenity": "clinic", "evacuation_center": "false", "flood_prone": "no", "is_in:county": "Garissa", "opening_hours": "sunrise-sunset", "operational_status": "operational", "operator": "Private", "operator:type": "private", "storage_area": "false"}}, {"type": "Feature", "geometry": {"type": "Point", "coordinates": [39.6524109, -0.4847556]}, "properties": {"id": 11364707379, "name": "Al Baitul Tiiba Hospital", "amenity": "hospital", "evacuation_center": "true", "flood_prone": "no", "is_in:county": "Garissa", "opening_hours": "24/7", "operational_status": "operational", "operator": "Ministry of Health", "operator:type": "private", "phone": "+254 113 864 847", "storage_area": "true"}}, {"type": "Feature", "geometry": {"type": "Point", "coordinates": [39.637581, -0.4492675]}, "properties": {"id": 11364707385, "name": "High gate health centre", "amenity": "hospital", "evacuation_center": "false", "flood_prone": "no", "is_in:county": "Garissa", "opening_hours": "sunrise-sunset", "operational_status": "operational", "operator": "CO", "operator:type": "private", "phone": "+254 728 814 169", "storage_area": "true"}}, {"type": "Feature", "geometry": {"type": "Point", "coordinates": [39.6508703, -0.4839379]}, "properties": {"id": 11364707387, "name": "Samara", "amenity": "hospital", "evacuation_center": "false", "flood_prone": "no", "is_in:county": "Garissa", "opening_hours": "24/7", "operational_status": "operational", "operator": "Dr Dubow", "operator:type": "private", "phone": "+254 721 572 868", "storage_area": "false"}}, {"type": "Feature", "geometry": {"type": "Point", "coordinates": [39.6462887, -0.4774174]}, "properties": {"id": 11364712385, "name": "National Police Service", "amenity": "police", "evacuation_center": "true", "flood_prone": "no", "is_in:county": "Garissa"}}, {"type": "Feature", "geometry": {"type": "Point", "coordinates": [39.6739025, -0.4271853]}, "properties": {"id": 763050554, "name": "Unknown", "amenity": "hospital", "healthcare": "hospital"}}, {"type": "Feature", "geometry": {"type": "Point", "coordinates": [39.6527641, -0.4492536]}, "properties": {"id": 793246811, "name": "General provincial hospital", "amenity": "hospital", "check_date": "2024-10-31", "description": "counselling services on some days of the week", "healthcare": "counselling", "operator": "government", "operator:type": "public"}}]}