{"type": "FeatureCollection", "features": [{"type": "Feature", "geometry": {"type": "Point", "coordinates": [39.7, -0.55]}, "properties": {"id": 45006901, "name": "Bole", "created_by": "JOSM", "is_in": "Tana river,Kenya", "place": "village"}}, {"type": "Feature", "geometry": {"type": "Point", "coordinates": [39.7128422, -0.3801674]}, "properties": {"id": 2144232669, "name": "Modika", "place": "village"}}, {"type": "Feature", "geometry": {"type": "Point", "coordinates": [39.6062819, -0.472235]}, "properties": {"id": 2509767117, "name": "Madogo", "place": "village"}}, {"type": "Feature", "geometry": {"type": "Point", "coordinates": [39.571183, -0.3907535]}, "properties": {"id": 2896513263, "name": "Unknown", "place": "hamlet"}}, {"type": "Feature", "geometry": {"type": "Point", "coordinates": [39.5896303, -0.3960442]}, "properties": {"id": 2896513269, "name": "Unknown", "place": "village"}}, {"type": "Feature", "geometry": {"type": "Point", "coordinates": [39.6368916, -0.4705224]}, "properties": {"id": 11217744213, "name": "Ziwani", "is_in:county": "Tana River", "place": "village"}}, {"type": "Feature", "geometry": {"type": "Point", "coordinates": [39.6336698, -0.4918488]}, "properties": {"id": 11217744214, "name": "Bakuyu", "is_in:county": "Tana River", "place": "village"}}, {"type": "Feature", "geometry": {"type": "Point", "coordinates": [39.6067375, -0.4678021]}, "properties": {"id": 11217835675, "name": "Adele", "is_in:county": "Tana River", "is_in:town": "Madogo", "place": "village"}}, {"type": "Feature", "geometry": {"type": "Point", "coordinates": [39.616221, -0.4736496]}, "properties": {"id": 11217835676, "name": "Bula Baraka", "is_in:county": "Tana River", "is_in:town": "Madogo", "place": "village"}}, {"type": "Feature", "geometry": {"type": "Point", "coordinates": [39.6163155, -0.4685966]}, "properties": {"id": 11217835677, "name": "Bula Karatasi", "is_in:town": "Madogo", "place": "village"}}, {"type": "Feature", "geometry": {"type": "Point", "coordinates": [39.6159288, -0.4778697]}, "properties": {"id": 11217835682, "name": "Maramtu", "is_in:county": "Tana River", "is_in:town": "Madogo", "place": "village"}}, {"type": "Feature", "geometry": {"type": "Point", "coordinates": [39.6270256, -0.4919305]}, "properties": {"id": 11217835685, "name": "Anole", "is_in:county": "Tana River", "place": "village"}}, {"type": "Feature", "geometry": {"type": "Point", "coordinates": [39.6330805, -0.464389]}, "properties": {"id": 11226510662, "name": "Mororo", "place": "village"}}, {"type": "Feature", "geometry": {"type": "Point", "coordinates": [39.6510124, -0.483002]}, "properties": {"id": 11364695989, "name": "Bulla iftin market", "amenity": "marketplace", "evacuation_center": "false", "flood_prone": "yes", "is_in:county": "Garissa", "opening_hours": "sunrise-sunset", "shop": "greengrocer;clothes;food;water"}}, {"type": "Feature", "geometry": {"type": "Point", "coordinates": [39.6351296, -0.4492567]}, "properties": {"id": 11364872321, "name": "Bula punda", "evacuation_center": "false", "flood_prone": "yes", "is_in:county": "Garissa", "place": "village"}}, {"type": "Feature", "geometry": {"type": "Point", "coordinates": [39.6499112, -0.4830851]}, "properties": {"id": 11364872323, "name": "Iftin", "evacuation_center": "false", "flood_prone": "no", "is_in:county": "Garissa", "place": "village"}}, {"type": "Feature", "geometry": {"type": "Point", "coordinates": [39.6365128, -0.4473077]}, "properties": {"id": 11364872325, "name": "Bulawayo kamor", "evacuation_center": "false", "flood_prone": "yes", "is_in:county": "Garissa", "place": "village"}}, {"type": "Feature", "geometry": {"type": "Point", "coordinates": [39.6449986, -0.4862191]}, "properties": {"id": 11364872326, "name": "Dairy", "evacuation_center": "false", "flood_prone": "yes", "is_in:county": "Garissa", "place": "village"}}, {"type": "Feature", "geometry": {"type": "Point", "coordinates": [39.635626, -0.4456484]}, "properties": {"id": 11364872328, "name": "Bulla kamor", "evacuation_center": "false", "flood_prone": "yes", "is_in:county": "Garissa", "place": "village"}}, {"type": "Feature", "geometry": {"type": "Point", "coordinates": [39.6465618, -0.4865723]}, "properties": {"id": 11364872330, "name": "Abakuyu", "evacuation_center": "true", "flood_prone": "yes", "is_in:county": "Garissa", "place": "village"}}, {"type": "Feature", "geometry": {"type": "Point", "coordinates": [39.6447837, -0.4852522]}, "properties": {"id": 11364872331, "name": "Deri", "evacuation_center": "false", "flood_prone": "no", "is_in:county": "Garissa", "place": "village"}}, {"type": "Feature", "geometry": {"type": "Point", "coordinates": [39.6354591, -0.433657]}, "properties": {"id": 11364872334, "name": "Bulla vumbi", "evacuation_center": "false", "flood_prone": "yes", "is_in:county": "Garissa", "place": "village"}}, {"type": "Feature", "geometry": {"type": "Point", "coordinates": [39.6464983, -0.4873955]}, "properties": {"id": 11364872337, "name": "Madagen", "evacuation_center": "false", "flood_prone": "yes", "is_in:county": "Garissa", "place": "village"}}, {"type": "Feature", "geometry": {"type": "Point", "coordinates": [39.6507445, -0.4338015]}, "properties": {"id": 11364872338, "name": "Bulla winzaa", "evacuation_center": "true", "flood_prone": "no", "is_in:county": "Garissa", "place": "village"}}, {"type": "Feature", "geometry": {"type": "Point", "coordinates": [39.6345474, -0.4440808]}, "properties": {"id": 11364872339, "name": "Bula Vumbi", "evacuation_center": "false", "flood_prone": "yes", "is_in:county": "Garissa", "place": "village"}}, {"type": "Feature", "geometry": {"type": "Point", "coordinates": [39.6352244, -0.4434482]}, "properties": {"id": 11364872340, "name": "Bula kamor", "evacuation_center": "false", "flood_prone": "yes", "is_in:county": "Garissa", "place": "village"}}, {"type": "Feature", "geometry": {"type": "Point", "coordinates": [39.6393275, -0.4660319]}, "properties": {"id": 11364872341, "name": "Provine", "evacuation_center": "true", "flood_prone": "no", "is_in:county": "Garissa", "place": "village"}}, {"type": "Feature", "geometry": {"type": "Point", "coordinates": [39.6520196, -0.4808269]}, "properties": {"id": 11364872342, "name": "Bulla iftin", "evacuation_center": "true", "flood_prone": "no", "is_in:county": "Garissa", "place": "village"}}, {"type": "Feature", "geometry": {"type": "Point", "coordinates": [39.6506296, -0.4344023]}, "properties": {"id": 11364872343, "name": "Bulla adc", "evacuation_center": "true", "flood_prone": "yes", "is_in:county": "Garissa", "place": "village"}}, {"type": "Feature", "geometry": {"type": "Point", "coordinates": [39.6349204, -0.4444743]}, "properties": {"id": 11364872346, "name": "Kamor", "evacuation_center": "false", "flood_prone": "yes", "is_in:county": "Garissa", "place": "village"}}, {"type": "Feature", "geometry": {"type": "Point", "coordinates": [39.6378432, -0.4208865]}, "properties": {"id": 11364872352, "name": "Adc village", "evacuation_center": "false", "flood_prone": "yes", "is_in:county": "Garissa", "place": "village"}}, {"type": "Feature", "geometry": {"type": "Point", "coordinates": [39.6125539, -0.3619963]}, "properties": {"id": 11376045139, "name": "Raya", "place": "hamlet"}}, {"type": "Feature", "geometry": {"type": "Point", "coordinates": [39.6783369, -0.504588]}, "properties": {"id": 11376045286, "name": "Burg Algy", "place": "village"}}, {"type": "Feature", "geometry": {"type": "Point", "coordinates": [39.6026516, -0.4807783]}, "properties": {"id": 11648827319, "name": "Bula banan", "evacuation_centre": "no", "place": "village", "source": "KRCS2023"}}, {"type": "Feature", "geometry": {"type": "Point", "coordinates": [39.6084818, -0.4791693]}, "properties": {"id": 11648827321, "name": "Bula gawi", "evacuation_centre": "no", "place": "village", "source": "KRCS2023"}}, {"type": "Feature", "geometry": {"type": "Point", "coordinates": [39.6281897, -0.4922041]}, "properties": {"id": 11648827325, "name": "Derii village", "evacuation_centre": "yes", "place": "village", "source": "KRCS2023"}}, {"type": "Feature", "geometry": {"type": "Point", "coordinates": [39.6070348, -0.4766553]}, "properties": {"id": 11648827327, "name": "Bula kodha", "evacuation_centre": "no", "place": "village", "source": "KRCS2023"}}, {"type": "Feature", "geometry": {"type": "Point", "coordinates": [39.6030446, -0.4845075]}, "properties": {"id": 11648827336, "name": "Bula lewi", "evacuation_centre": "no", "place": "village", "source": "KRCS2023"}}, {"type": "Feature", "geometry": {"type": "Point", "coordinates": [39.6158191, -0.4764823]}, "properties": {"id": 11648827338, "name": "Bula baraka", "evacuation_centre": "no", "place": "village", "source": "KRCS2023"}}, {"type": "Feature", "geometry": {"type": "Point", "coordinates": [39.6204032, -0.3758033]}, "properties": {"id": 11799876714, "name": "Faryar", "place": "hamlet"}}, {"type": "Feature", "geometry": {"type": "Point", "coordinates": [39.6315476, -0.3807845]}, "properties": {"id": 11799876715, "name": "Theley", "place": "hamlet"}}]}