{
"type": "FeatureCollection",
"name": "mosques_risk_assessed",
"crs": { "type": "name", "properties": { "name": "urn:ogc:def:crs:OGC:1.3:CRS84" } },
"features": [
{ "type": "Feature", "properties": { "id": "11364722283", "name": "Prison mosque", "addr:city": null, "addr:street": null, "amenity": "place_of_worship", "building": null, "check_date": null, "evacuation_center": "false", "evacuation_centre": null, "flood_prone": "yes", "is_in:county": "Garissa", "latitude": "-0.4878196", "longitude": "39.6591762", "religion": "muslim", "source": null, "storage_area": "false", "Risk_Level": "High Risk", "Distance_to_Flood_km": "0.31", "sub_county": "Garissa Sub County", "Poverty_Rate": "0.48", "Food_Poverty_Rate": "0.35", "Wasting_Rate": "0.1", "Avg_HH_Income": "5169", "Avg_HH_Expenditure": "6177", "HH_Cash_Gap": "-1008", "Post_Assistance_Income": "13927", "Post_Assistance_Expenditure": "11092", "Post_Assistance_Surplus": "2835", "Vulnerability_Index": "0.648", "marker_emoji": "🕌", "Author": "Garissa GIS Directorate — James M. Mburu", "NN_Vulnerability_Score": "0.474", "NN_Risk_Class": "Medium" }, "geometry": { "type": "Point", "coordinates": [ 39.6591762, -0.4878196 ] } },
{ "type": "Feature", "properties": { "id": "11364722284", "name": "Aslayn", "addr:city": null, "addr:street": null, "amenity": "place_of_worship", "building": null, "check_date": null, "evacuation_center": "true", "evacuation_centre": null, "flood_prone": "no", "is_in:county": "Garissa", "latitude": "-0.4838397", "longitude": "39.6504586", "religion": "muslim", "source": null, "storage_area": "true", "Risk_Level": "High Risk", "Distance_to_Flood_km": "0.0", "sub_county": "Garissa Sub County", "Poverty_Rate": "0.48", "Food_Poverty_Rate": "0.35", "Wasting_Rate": "0.1", "Avg_HH_Income": "5169", "Avg_HH_Expenditure": "6177", "HH_Cash_Gap": "-1008", "Post_Assistance_Income": "13927", "Post_Assistance_Expenditure": "11092", "Post_Assistance_Surplus": "2835", "Vulnerability_Index": "0.654", "marker_emoji": "🕌", "Author": "Garissa GIS Directorate — James M. Mburu", "NN_Vulnerability_Score": "0.474", "NN_Risk_Class": "Medium" }, "geometry": { "type": "Point", "coordinates": [ 39.6504586, -0.4838397 ] } },
{ "type": "Feature", "properties": { "id": "11364670762", "name": "Saada mosque", "addr:city": null, "addr:street": null, "amenity": "place_of_worship", "building": null, "check_date": null, "evacuation_center": "true", "evacuation_centre": null, "flood_prone": "no", "is_in:county": "Garissa", "latitude": "-0.4812027", "longitude": "39.6525605", "religion": "muslim", "source": null, "storage_area": "false", "Risk_Level": "High Risk", "Distance_to_Flood_km": "0.3", "sub_county": "Garissa Sub County", "Poverty_Rate": "0.48", "Food_Poverty_Rate": "0.35", "Wasting_Rate": "0.1", "Avg_HH_Income": "5169", "Avg_HH_Expenditure": "6177", "HH_Cash_Gap": "-1008", "Post_Assistance_Income": "13927", "Post_Assistance_Expenditure": "11092", "Post_Assistance_Surplus": "2835", "Vulnerability_Index": "0.648", "marker_emoji": "🕌", "Author": "Garissa GIS Directorate — James M. Mburu", "NN_Vulnerability_Score": "0.474", "NN_Risk_Class": "Medium" }, "geometry": { "type": "Point", "coordinates": [ 39.6525605, -0.4812027 ] } },
{ "type": "Feature", "properties": { "id": "12388905712", "name": "Unknown Mosque", "addr:city": null, "addr:street": null, "amenity": "place_of_worship", "building": null, "check_date": null, "evacuation_center": null, "evacuation_centre": null, "flood_prone": null, "is_in:county": null, "latitude": null, "longitude": null, "religion": "muslim", "source": null, "storage_area": null, "Risk_Level": "Low Risk", "Distance_to_Flood_km": "1.84", "sub_county": "Garissa Sub County", "Poverty_Rate": "0.48", "Food_Poverty_Rate": "0.35", "Wasting_Rate": "0.1", "Avg_HH_Income": "5169", "Avg_HH_Expenditure": "6177", "HH_Cash_Gap": "-1008", "Post_Assistance_Income": "13927", "Post_Assistance_Expenditure": "11092", "Post_Assistance_Surplus": "2835", "Vulnerability_Index": "0.467", "marker_emoji": "🕌", "Author": "Garissa GIS Directorate — James M. Mburu", "NN_Vulnerability_Score": "0.457", "NN_Risk_Class": "Medium" }, "geometry": { "type": "Point", "coordinates": [ 39.6538157, -0.4530101 ] } },
{ "type": "Feature", "properties": { "id": "674331424", "name": "Unknown Mosque", "addr:city": null, "addr:street": null, "amenity": "place_of_worship", "building": "yes", "check_date": null, "evacuation_center": null, "evacuation_centre": null, "flood_prone": null, "is_in:county": null, "latitude": null, "longitude": null, "religion": "muslim", "source": null, "storage_area": null, "Risk_Level": "Medium Risk", "Distance_to_Flood_km": "1.11", "sub_county": "Garissa Sub County", "Poverty_Rate": "0.48", "Food_Poverty_Rate": "0.35", "Wasting_Rate": "0.1", "Avg_HH_Income": "5169", "Avg_HH_Expenditure": "6177", "HH_Cash_Gap": "-1008", "Post_Assistance_Income": "13927", "Post_Assistance_Expenditure": "11092", "Post_Assistance_Surplus": "2835", "Vulnerability_Index": "0.542", "marker_emoji": "🕌", "Author": "Garissa GIS Directorate — James M. Mburu", "NN_Vulnerability_Score": "0.473", "NN_Risk_Class": "Medium" }, "geometry": { "type": "Point", "coordinates": [ 39.6475408, -0.4502912 ] } },
{ "type": "Feature", "properties": { "id": "6249718175", "name": "Towfiq Mosque", "addr:city": "Garissa", "addr:street": "Garissa-Daadab Road", "amenity": "place_of_worship", "building": null, "check_date": null, "evacuation_center": null, "evacuation_centre": null, "flood_prone": null, "is_in:county": null, "latitude": null, "longitude": null, "religion": "muslim", "source": null, "storage_area": null, "Risk_Level": "Medium Risk", "Distance_to_Flood_km": "1.11", "sub_county": "Garissa Sub County", "Poverty_Rate": "0.48", "Food_Poverty_Rate": "0.35", "Wasting_Rate": "0.1", "Avg_HH_Income": "5169", "Avg_HH_Expenditure": "6177", "HH_Cash_Gap": "-1008", "Post_Assistance_Income": "13927", "Post_Assistance_Expenditure": "11092", "Post_Assistance_Surplus": "2835", "Vulnerability_Index": "0.542", "marker_emoji": "🕌", "Author": "Garissa GIS Directorate — James M. Mburu", "NN_Vulnerability_Score": "0.473", "NN_Risk_Class": "Medium" }, "geometry": { "type": "Point", "coordinates": [ 39.6475739, -0.4502576 ] } },
{ "type": "Feature", "properties": { "id": "12301091276", "name": "Garissa University Mosque", "addr:city": null, "addr:street": null, "amenity": "place_of_worship", "building": null, "check_date": "2024-10-31", "evacuation_center": null, "evacuation_centre": null, "flood_prone": null, "is_in:county": null, "latitude": null, "longitude": null, "religion": "muslim", "source": null, "storage_area": null, "Risk_Level": "Low Risk", "Distance_to_Flood_km": "2.58", "sub_county": "Garissa Sub County", "Poverty_Rate": "0.48", "Food_Poverty_Rate": "0.35", "Wasting_Rate": "0.1", "Avg_HH_Income": "5169", "Avg_HH_Expenditure": "6177", "HH_Cash_Gap": "-1008", "Post_Assistance_Income": "13927", "Post_Assistance_Expenditure": "11092", "Post_Assistance_Surplus": "2835", "Vulnerability_Index": "0.452", "marker_emoji": "🕌", "Author": "Garissa GIS Directorate — James M. Mburu", "NN_Vulnerability_Score": "0.426", "NN_Risk_Class": "Medium" }, "geometry": { "type": "Point", "coordinates": [ 39.6612309, -0.4478201 ] } },
{ "type": "Feature", "properties": { "id": "6249718159", "name": "Masjid Qubaa", "addr:city": "Garissa", "addr:street": "Garissa-Dadaab Road", "amenity": "place_of_worship", "building": null, "check_date": null, "evacuation_center": null, "evacuation_centre": null, "flood_prone": null, "is_in:county": null, "latitude": null, "longitude": null, "religion": "muslim", "source": null, "storage_area": null, "Risk_Level": "Low Risk", "Distance_to_Flood_km": "3.02", "sub_county": "Garissa Sub County", "Poverty_Rate": "0.48", "Food_Poverty_Rate": "0.35", "Wasting_Rate": "0.1", "Avg_HH_Income": "5169", "Avg_HH_Expenditure": "6177", "HH_Cash_Gap": "-1008", "Post_Assistance_Income": "13927", "Post_Assistance_Expenditure": "11092", "Post_Assistance_Surplus": "2835", "Vulnerability_Index": "0.444", "marker_emoji": "🕌", "Author": "Garissa GIS Directorate — James M. Mburu", "NN_Vulnerability_Score": "0.408", "NN_Risk_Class": "Medium" }, "geometry": { "type": "Point", "coordinates": [ 39.6635852, -0.43184 ] } },
{ "type": "Feature", "properties": { "id": "11645787568", "name": "Mororo Madrasa Mosque", "addr:city": null, "addr:street": null, "amenity": "place_of_worship", "building": null, "check_date": null, "evacuation_center": null, "evacuation_centre": "no", "flood_prone": "yes", "is_in:county": null, "latitude": null, "longitude": null, "religion": "muslim", "source": "KRCS2023", "storage_area": null, "Risk_Level": "High Risk", "Distance_to_Flood_km": "0.0", "sub_county": "Garissa Sub County", "Poverty_Rate": "0.48", "Food_Poverty_Rate": "0.35", "Wasting_Rate": "0.1", "Avg_HH_Income": "5169", "Avg_HH_Expenditure": "6177", "HH_Cash_Gap": "-1008", "Post_Assistance_Income": "13927", "Post_Assistance_Expenditure": "11092", "Post_Assistance_Surplus": "2835", "Vulnerability_Index": "0.654", "marker_emoji": "🕌", "Author": "Garissa GIS Directorate — James M. Mburu", "NN_Vulnerability_Score": "0.474", "NN_Risk_Class": "Medium" }, "geometry": { "type": "Point", "coordinates": [ 39.6352127, -0.4648619 ] } },
{ "type": "Feature", "properties": { "id": "656064151", "name": "Jaamic Ibn-Ulqayyim", "addr:city": "Garissa", "addr:street": "Kismayo Road", "amenity": "place_of_worship", "building": "yes", "check_date": null, "evacuation_center": null, "evacuation_centre": null, "flood_prone": null, "is_in:county": null, "latitude": null, "longitude": null, "religion": "muslim", "source": null, "storage_area": null, "Risk_Level": "Medium Risk", "Distance_to_Flood_km": "0.93", "sub_county": "Garissa Sub County", "Poverty_Rate": "0.48", "Food_Poverty_Rate": "0.35", "Wasting_Rate": "0.1", "Avg_HH_Income": "5169", "Avg_HH_Expenditure": "6177", "HH_Cash_Gap": "-1008", "Post_Assistance_Income": "13927", "Post_Assistance_Expenditure": "11092", "Post_Assistance_Surplus": "2835", "Vulnerability_Index": "0.545", "marker_emoji": "🕌", "Author": "Garissa GIS Directorate — James M. Mburu", "NN_Vulnerability_Score": "0.473", "NN_Risk_Class": "Medium" }, "geometry": { "type": "Point", "coordinates": [ 39.6452569, -0.454635 ] } },
{ "type": "Feature", "properties": { "id": "11364722276", "name": "Masjid Noor rahma", "addr:city": null, "addr:street": null, "amenity": "place_of_worship", "building": null, "check_date": null, "evacuation_center": "true", "evacuation_centre": null, "flood_prone": "yes", "is_in:county": "Garissa", "latitude": "-0.4471301", "longitude": "39.6381059", "religion": "muslim", "source": null, "storage_area": "true", "Risk_Level": "High Risk", "Distance_to_Flood_km": "0.03", "sub_county": "Garissa Sub County", "Poverty_Rate": "0.48", "Food_Poverty_Rate": "0.35", "Wasting_Rate": "0.1", "Avg_HH_Income": "5169", "Avg_HH_Expenditure": "6177", "HH_Cash_Gap": "-1008", "Post_Assistance_Income": "13927", "Post_Assistance_Expenditure": "11092", "Post_Assistance_Surplus": "2835", "Vulnerability_Index": "0.653", "marker_emoji": "🕌", "Author": "Garissa GIS Directorate — James M. Mburu", "NN_Vulnerability_Score": "0.474", "NN_Risk_Class": "Medium" }, "geometry": { "type": "Point", "coordinates": [ 39.6381059, -0.4471301 ] } },
{ "type": "Feature", "properties": { "id": "11364722273", "name": "Masjid haji ahmed", "addr:city": null, "addr:street": null, "amenity": "place_of_worship", "building": null, "check_date": null, "evacuation_center": "false", "evacuation_centre": null, "flood_prone": "no", "is_in:county": "Garissa", "latitude": "-0.446083", "longitude": "39.6381229", "religion": "muslim", "source": null, "storage_area": "false", "Risk_Level": "High Risk", "Distance_to_Flood_km": "0.01", "sub_county": "Garissa Sub County", "Poverty_Rate": "0.48", "Food_Poverty_Rate": "0.35", "Wasting_Rate": "0.1", "Avg_HH_Income": "5169", "Avg_HH_Expenditure": "6177", "HH_Cash_Gap": "-1008", "Post_Assistance_Income": "13927", "Post_Assistance_Expenditure": "11092", "Post_Assistance_Surplus": "2835", "Vulnerability_Index": "0.654", "marker_emoji": "🕌", "Author": "Garissa GIS Directorate — James M. Mburu", "NN_Vulnerability_Score": "0.474", "NN_Risk_Class": "Medium" }, "geometry": { "type": "Point", "coordinates": [ 39.6381229, -0.446083 ] } },
{ "type": "Feature", "properties": { "id": "11364722269", "name": "masjidul bukhari", "addr:city": null, "addr:street": null, "amenity": "place_of_worship", "building": null, "check_date": null, "evacuation_center": "false", "evacuation_centre": null, "flood_prone": "yes", "is_in:county": "Garissa", "latitude": "-0.4451639", "longitude": "39.6368098", "religion": "muslim", "source": null, "storage_area": "true", "Risk_Level": "High Risk", "Distance_to_Flood_km": "0.0", "sub_county": "Garissa Sub County", "Poverty_Rate": "0.48", "Food_Poverty_Rate": "0.35", "Wasting_Rate": "0.1", "Avg_HH_Income": "5169", "Avg_HH_Expenditure": "6177", "HH_Cash_Gap": "-1008", "Post_Assistance_Income": "13927", "Post_Assistance_Expenditure": "11092", "Post_Assistance_Surplus": "2835", "Vulnerability_Index": "0.654", "marker_emoji": "🕌", "Author": "Garissa GIS Directorate — James M. Mburu", "NN_Vulnerability_Score": "0.474", "NN_Risk_Class": "Medium" }, "geometry": { "type": "Point", "coordinates": [ 39.6368098, -0.4451639 ] } },
{ "type": "Feature", "properties": { "id": "11364722280", "name": "Masjidul aqsa", "addr:city": null, "addr:street": null, "amenity": "place_of_worship", "building": null, "check_date": null, "evacuation_center": "true", "evacuation_centre": null, "flood_prone": "no", "is_in:county": "Garissa", "latitude": "-0.4428316", "longitude": "39.6364903", "religion": "muslim", "source": null, "storage_area": "true", "Risk_Level": "High Risk", "Distance_to_Flood_km": "0.0", "sub_county": "Garissa Sub County", "Poverty_Rate": "0.48", "Food_Poverty_Rate": "0.35", "Wasting_Rate": "0.1", "Avg_HH_Income": "5169", "Avg_HH_Expenditure": "6177", "HH_Cash_Gap": "-1008", "Post_Assistance_Income": "13927", "Post_Assistance_Expenditure": "11092", "Post_Assistance_Surplus": "2835", "Vulnerability_Index": "0.654", "marker_emoji": "🕌", "Author": "Garissa GIS Directorate — James M. Mburu", "NN_Vulnerability_Score": "0.474", "NN_Risk_Class": "Medium" }, "geometry": { "type": "Point", "coordinates": [ 39.6364903, -0.4428316 ] } },
{ "type": "Feature", "properties": { "id": "11364670764", "name": "Masjid Al noor", "addr:city": null, "addr:street": null, "amenity": "place_of_worship", "building": null, "check_date": null, "evacuation_center": "false", "evacuation_centre": null, "flood_prone": "yes", "is_in:county": "Garissa", "latitude": "-0.4393716", "longitude": "39.6352752", "religion": "muslim", "source": null, "storage_area": "true", "Risk_Level": "High Risk", "Distance_to_Flood_km": "0.0", "sub_county": "Garissa Sub County", "Poverty_Rate": "0.48", "Food_Poverty_Rate": "0.35", "Wasting_Rate": "0.1", "Avg_HH_Income": "5169", "Avg_HH_Expenditure": "6177", "HH_Cash_Gap": "-1008", "Post_Assistance_Income": "13927", "Post_Assistance_Expenditure": "11092", "Post_Assistance_Surplus": "2835", "Vulnerability_Index": "0.654", "marker_emoji": "🕌", "Author": "Garissa GIS Directorate — James M. Mburu", "NN_Vulnerability_Score": "0.474", "NN_Risk_Class": "Medium" }, "geometry": { "type": "Point", "coordinates": [ 39.6352752, -0.4393716 ] } },
{ "type": "Feature", "properties": { "id": "11364722279", "name": "Adc", "addr:city": null, "addr:street": null, "amenity": "place_of_worship", "building": null, "check_date": null, "evacuation_center": "false", "evacuation_centre": null, "flood_prone": "yes", "is_in:county": "Garissa", "latitude": "-0.4324259", "longitude": "39.6381146", "religion": "muslim", "source": null, "storage_area": "false", "Risk_Level": "High Risk", "Distance_to_Flood_km": "0.25", "sub_county": "Garissa Sub County", "Poverty_Rate": "0.48", "Food_Poverty_Rate": "0.35", "Wasting_Rate": "0.1", "Avg_HH_Income": "5169", "Avg_HH_Expenditure": "6177", "HH_Cash_Gap": "-1008", "Post_Assistance_Income": "13927", "Post_Assistance_Expenditure": "11092", "Post_Assistance_Surplus": "2835", "Vulnerability_Index": "0.649", "marker_emoji": "🕌", "Author": "Garissa GIS Directorate — James M. Mburu", "NN_Vulnerability_Score": "0.474", "NN_Risk_Class": "Medium" }, "geometry": { "type": "Point", "coordinates": [ 39.6381146, -0.4324259 ] } }
]
}
