{
"type": "FeatureCollection",
"name": "named_pois_risk_assessed",
"crs": { "type": "name", "properties": { "name": "urn:ogc:def:crs:OGC:1.3:CRS84" } },
"features": [
{ "type": "Feature", "properties": { "id": "11364695992", "name": "Maqbul mini market", "addr:city": null, "addr:street": null, "amenity": "marketplace", "check_date": null, "description": null, "evacuation_center": "false", "flood_prone": "no", "healthcare": null, "is_in:county": "Garissa", "opening_hours": "sunrise-sunset", "operational_status": null, "operator": null, "operator:type": null, "phone": null, "shop": "food;greengrocer;clothes", "storage_area": null, "Risk_Level": "High Risk", "Distance_to_Flood_km": "0.36", "sub_county": "Garissa Sub County", "Poverty_Rate": "0.48", "Food_Poverty_Rate": "0.35", "Wasting_Rate": "0.1", "Avg_HH_Income": "5169", "Avg_HH_Expenditure": "6177", "HH_Cash_Gap": "-1008", "Post_Assistance_Income": "13927", "Post_Assistance_Expenditure": "11092", "Post_Assistance_Surplus": "2835", "Vulnerability_Index": "0.647", "marker_emoji": "📍", "Author": "Garissa GIS Directorate — James M. Mburu", "NN_Vulnerability_Score": "0.474", "NN_Risk_Class": "Medium" }, "geometry": { "type": "Point", "coordinates": [ 39.655366, -0.4859747 ] } },
{ "type": "Feature", "properties": { "id": "11364707374", "name": "Baitul tiba", "addr:city": null, "addr:street": null, "amenity": "hospital", "check_date": null, "description": null, "evacuation_center": "false", "flood_prone": "no", "healthcare": null, "is_in:county": "Garissa", "opening_hours": "24/7", "operational_status": "operational", "operator": "Fatuma abdi", "operator:type": "private", "phone": "+254 113 86 484", "shop": null, "storage_area": "false", "Risk_Level": "High Risk", "Distance_to_Flood_km": "0.17", "sub_county": "Garissa Sub County", "Poverty_Rate": "0.48", "Food_Poverty_Rate": "0.35", "Wasting_Rate": "0.1", "Avg_HH_Income": "5169", "Avg_HH_Expenditure": "6177", "HH_Cash_Gap": "-1008", "Post_Assistance_Income": "13927", "Post_Assistance_Expenditure": "11092", "Post_Assistance_Surplus": "2835", "Vulnerability_Index": "0.651", "marker_emoji": "📍", "Author": "Garissa GIS Directorate — James M. Mburu", "NN_Vulnerability_Score": "0.474", "NN_Risk_Class": "Medium" }, "geometry": { "type": "Point", "coordinates": [ 39.6523149, -0.4848352 ] } },
{ "type": "Feature", "properties": { "id": "11364707379", "name": "Al Baitul Tiiba Hospital", "addr:city": null, "addr:street": null, "amenity": "hospital", "check_date": null, "description": null, "evacuation_center": "true", "flood_prone": "no", "healthcare": null, "is_in:county": "Garissa", "opening_hours": "24/7", "operational_status": "operational", "operator": "Ministry of Health", "operator:type": "private", "phone": "+254 113 864 847", "shop": null, "storage_area": "true", "Risk_Level": "High Risk", "Distance_to_Flood_km": "0.18", "sub_county": "Garissa Sub County", "Poverty_Rate": "0.48", "Food_Poverty_Rate": "0.35", "Wasting_Rate": "0.1", "Avg_HH_Income": "5169", "Avg_HH_Expenditure": "6177", "HH_Cash_Gap": "-1008", "Post_Assistance_Income": "13927", "Post_Assistance_Expenditure": "11092", "Post_Assistance_Surplus": "2835", "Vulnerability_Index": "0.65", "marker_emoji": "📍", "Author": "Garissa GIS Directorate — James M. Mburu", "NN_Vulnerability_Score": "0.474", "NN_Risk_Class": "Medium" }, "geometry": { "type": "Point", "coordinates": [ 39.6524109, -0.4847556 ] } },
{ "type": "Feature", "properties": { "id": "11364707387", "name": "Samara", "addr:city": null, "addr:street": null, "amenity": "hospital", "check_date": null, "description": null, "evacuation_center": "false", "flood_prone": "no", "healthcare": null, "is_in:county": "Garissa", "opening_hours": "24/7", "operational_status": "operational", "operator": "Dr Dubow", "operator:type": "private", "phone": "+254 721 572 868", "shop": null, "storage_area": "false", "Risk_Level": "High Risk", "Distance_to_Flood_km": "0.04", "sub_county": "Garissa Sub County", "Poverty_Rate": "0.48", "Food_Poverty_Rate": "0.35", "Wasting_Rate": "0.1", "Avg_HH_Income": "5169", "Avg_HH_Expenditure": "6177", "HH_Cash_Gap": "-1008", "Post_Assistance_Income": "13927", "Post_Assistance_Expenditure": "11092", "Post_Assistance_Surplus": "2835", "Vulnerability_Index": "0.653", "marker_emoji": "📍", "Author": "Garissa GIS Directorate — James M. Mburu", "NN_Vulnerability_Score": "0.474", "NN_Risk_Class": "Medium" }, "geometry": { "type": "Point", "coordinates": [ 39.6508703, -0.4839379 ] } },
{ "type": "Feature", "properties": { "id": "11364695995", "name": "Iftin stage market", "addr:city": null, "addr:street": null, "amenity": "marketplace", "check_date": null, "description": null, "evacuation_center": "true", "flood_prone": "no", "healthcare": null, "is_in:county": "Garissa", "opening_hours": "sunrise-sunset", "operational_status": null, "operator": null, "operator:type": null, "phone": null, "shop": "others;clothes;greengrocer;food;water;convenience", "storage_area": null, "Risk_Level": "High Risk", "Distance_to_Flood_km": "0.1", "sub_county": "Garissa Sub County", "Poverty_Rate": "0.48", "Food_Poverty_Rate": "0.35", "Wasting_Rate": "0.1", "Avg_HH_Income": "5169", "Avg_HH_Expenditure": "6177", "HH_Cash_Gap": "-1008", "Post_Assistance_Income": "13927", "Post_Assistance_Expenditure": "11092", "Post_Assistance_Surplus": "2835", "Vulnerability_Index": "0.652", "marker_emoji": "📍", "Author": "Garissa GIS Directorate — James M. Mburu", "NN_Vulnerability_Score": "0.474", "NN_Risk_Class": "Medium" }, "geometry": { "type": "Point", "coordinates": [ 39.6514082, -0.4837761 ] } },
{ "type": "Feature", "properties": { "id": "11364695989", "name": "Bulla iftin market", "addr:city": null, "addr:street": null, "amenity": "marketplace", "check_date": null, "description": null, "evacuation_center": "false", "flood_prone": "yes", "healthcare": null, "is_in:county": "Garissa", "opening_hours": "sunrise-sunset", "operational_status": null, "operator": null, "operator:type": null, "phone": null, "shop": "greengrocer;clothes;food;water", "storage_area": null, "Risk_Level": "High Risk", "Distance_to_Flood_km": "0.09", "sub_county": "Garissa Sub County", "Poverty_Rate": "0.48", "Food_Poverty_Rate": "0.35", "Wasting_Rate": "0.1", "Avg_HH_Income": "5169", "Avg_HH_Expenditure": "6177", "HH_Cash_Gap": "-1008", "Post_Assistance_Income": "13927", "Post_Assistance_Expenditure": "11092", "Post_Assistance_Surplus": "2835", "Vulnerability_Index": "0.652", "marker_emoji": "📍", "Author": "Garissa GIS Directorate — James M. Mburu", "NN_Vulnerability_Score": "0.474", "NN_Risk_Class": "Medium" }, "geometry": { "type": "Point", "coordinates": [ 39.6510124, -0.483002 ] } },
{ "type": "Feature", "properties": { "id": "11364707375", "name": "Iftin sub county", "addr:city": null, "addr:street": null, "amenity": "hospital", "check_date": null, "description": null, "evacuation_center": "false", "flood_prone": "yes", "healthcare": null, "is_in:county": "Garissa", "opening_hours": "24/7", "operational_status": "operational", "operator": "Ministry of Health", "operator:type": "public", "phone": "+254 728 487 163", "shop": null, "storage_area": "true", "Risk_Level": "Medium Risk", "Distance_to_Flood_km": "0.97", "sub_county": "Garissa Sub County", "Poverty_Rate": "0.48", "Food_Poverty_Rate": "0.35", "Wasting_Rate": "0.1", "Avg_HH_Income": "5169", "Avg_HH_Expenditure": "6177", "HH_Cash_Gap": "-1008", "Post_Assistance_Income": "13927", "Post_Assistance_Expenditure": "11092", "Post_Assistance_Surplus": "2835", "Vulnerability_Index": "0.545", "marker_emoji": "📍", "Author": "Garissa GIS Directorate — James M. Mburu", "NN_Vulnerability_Score": "0.473", "NN_Risk_Class": "Medium" }, "geometry": { "type": "Point", "coordinates": [ 39.6566173, -0.4757799 ] } },
{ "type": "Feature", "properties": { "id": "793246811", "name": "General provincial hospital", "addr:city": null, "addr:street": null, "amenity": "hospital", "check_date": "2024-10-31", "description": "counselling services on some days of the week", "evacuation_center": null, "flood_prone": null, "healthcare": "counselling", "is_in:county": null, "opening_hours": null, "operational_status": null, "operator": "government", "operator:type": "public", "phone": null, "shop": null, "storage_area": null, "Risk_Level": "Low Risk", "Distance_to_Flood_km": "1.67", "sub_county": "Garissa Sub County", "Poverty_Rate": "0.48", "Food_Poverty_Rate": "0.35", "Wasting_Rate": "0.1", "Avg_HH_Income": "5169", "Avg_HH_Expenditure": "6177", "HH_Cash_Gap": "-1008", "Post_Assistance_Income": "13927", "Post_Assistance_Expenditure": "11092", "Post_Assistance_Surplus": "2835", "Vulnerability_Index": "0.471", "marker_emoji": "📍", "Author": "Garissa GIS Directorate — James M. Mburu", "NN_Vulnerability_Score": "0.463", "NN_Risk_Class": "Medium" }, "geometry": { "type": "Point", "coordinates": [ 39.6527641, -0.4492536 ] } },
{ "type": "Feature", "properties": { "id": "763050554", "name": "Unknown", "addr:city": null, "addr:street": null, "amenity": "hospital", "check_date": null, "description": null, "evacuation_center": null, "flood_prone": null, "healthcare": "hospital", "is_in:county": null, "opening_hours": null, "operational_status": null, "operator": null, "operator:type": null, "phone": null, "shop": null, "storage_area": null, "Risk_Level": "Extreme Risk (Super El Niño)", "Distance_to_Flood_km": "4.26", "sub_county": "Garissa Sub County", "Poverty_Rate": "0.48", "Food_Poverty_Rate": "0.35", "Wasting_Rate": "0.1", "Avg_HH_Income": "5169", "Avg_HH_Expenditure": "6177", "HH_Cash_Gap": "-1008", "Post_Assistance_Income": "13927", "Post_Assistance_Expenditure": "11092", "Post_Assistance_Surplus": "2835", "Vulnerability_Index": "0.629", "marker_emoji": "📍", "Author": "Garissa GIS Directorate — James M. Mburu", "NN_Vulnerability_Score": "0.359", "NN_Risk_Class": "Medium" }, "geometry": { "type": "Point", "coordinates": [ 39.6739025, -0.4271853 ] } },
{ "type": "Feature", "properties": { "id": "11364695993", "name": "Usadik house", "addr:city": null, "addr:street": null, "amenity": "marketplace", "check_date": null, "description": null, "evacuation_center": "true", "flood_prone": "yes", "healthcare": null, "is_in:county": "Garissa", "opening_hours": "sunrise-sunset", "operational_status": null, "operator": null, "operator:type": null, "phone": null, "shop": "clothes", "storage_area": null, "Risk_Level": "High Risk", "Distance_to_Flood_km": "0.04", "sub_county": "Garissa Sub County", "Poverty_Rate": "0.48", "Food_Poverty_Rate": "0.35", "Wasting_Rate": "0.1", "Avg_HH_Income": "5169", "Avg_HH_Expenditure": "6177", "HH_Cash_Gap": "-1008", "Post_Assistance_Income": "13927", "Post_Assistance_Expenditure": "11092", "Post_Assistance_Surplus": "2835", "Vulnerability_Index": "0.653", "marker_emoji": "📍", "Author": "Garissa GIS Directorate — James M. Mburu", "NN_Vulnerability_Score": "0.474", "NN_Risk_Class": "Medium" }, "geometry": { "type": "Point", "coordinates": [ 39.65083, -0.4837576 ] } },
{ "type": "Feature", "properties": { "id": "11364695985", "name": "Mini market", "addr:city": null, "addr:street": null, "amenity": "marketplace", "check_date": null, "description": null, "evacuation_center": "true", "flood_prone": "yes", "healthcare": null, "is_in:county": "Garissa", "opening_hours": "sunrise-sunset", "operational_status": null, "operator": null, "operator:type": null, "phone": null, "shop": "greengrocer", "storage_area": null, "Risk_Level": "High Risk", "Distance_to_Flood_km": "0.04", "sub_county": "Garissa Sub County", "Poverty_Rate": "0.48", "Food_Poverty_Rate": "0.35", "Wasting_Rate": "0.1", "Avg_HH_Income": "5169", "Avg_HH_Expenditure": "6177", "HH_Cash_Gap": "-1008", "Post_Assistance_Income": "13927", "Post_Assistance_Expenditure": "11092", "Post_Assistance_Surplus": "2835", "Vulnerability_Index": "0.653", "marker_emoji": "📍", "Author": "Garissa GIS Directorate — James M. Mburu", "NN_Vulnerability_Score": "0.474", "NN_Risk_Class": "Medium" }, "geometry": { "type": "Point", "coordinates": [ 39.6507244, -0.483642 ] } },
{ "type": "Feature", "properties": { "id": "11364707378", "name": "Tawakal medical centre", "addr:city": null, "addr:street": null, "amenity": "clinic", "check_date": null, "description": null, "evacuation_center": "false", "flood_prone": "no", "healthcare": null, "is_in:county": "Garissa", "opening_hours": "sunrise-sunset", "operational_status": "operational", "operator": "Private", "operator:type": "private", "phone": null, "shop": null, "storage_area": "false", "Risk_Level": "High Risk", "Distance_to_Flood_km": "0.05", "sub_county": "Garissa Sub County", "Poverty_Rate": "0.48", "Food_Poverty_Rate": "0.35", "Wasting_Rate": "0.1", "Avg_HH_Income": "5169", "Avg_HH_Expenditure": "6177", "HH_Cash_Gap": "-1008", "Post_Assistance_Income": "13927", "Post_Assistance_Expenditure": "11092", "Post_Assistance_Surplus": "2835", "Vulnerability_Index": "0.653", "marker_emoji": "📍", "Author": "Garissa GIS Directorate — James M. Mburu", "NN_Vulnerability_Score": "0.474", "NN_Risk_Class": "Medium" }, "geometry": { "type": "Point", "coordinates": [ 39.6508399, -0.4835452 ] } },
{ "type": "Feature", "properties": { "id": "11364695974", "name": "Hanan market", "addr:city": null, "addr:street": null, "amenity": "marketplace", "check_date": null, "description": null, "evacuation_center": "false", "flood_prone": "no", "healthcare": null, "is_in:county": "Garissa", "opening_hours": "sunrise-sunset", "operational_status": null, "operator": null, "operator:type": null, "phone": null, "shop": "clothes;food;greengrocer", "storage_area": null, "Risk_Level": "High Risk", "Distance_to_Flood_km": "0.0", "sub_county": "Garissa Sub County", "Poverty_Rate": "0.48", "Food_Poverty_Rate": "0.35", "Wasting_Rate": "0.1", "Avg_HH_Income": "5169", "Avg_HH_Expenditure": "6177", "HH_Cash_Gap": "-1008", "Post_Assistance_Income": "13927", "Post_Assistance_Expenditure": "11092", "Post_Assistance_Surplus": "2835", "Vulnerability_Index": "0.654", "marker_emoji": "📍", "Author": "Garissa GIS Directorate — James M. Mburu", "NN_Vulnerability_Score": "0.474", "NN_Risk_Class": "Medium" }, "geometry": { "type": "Point", "coordinates": [ 39.6497454, -0.4833716 ] } },
{ "type": "Feature", "properties": { "id": "11364712385", "name": "National Police Service", "addr:city": null, "addr:street": null, "amenity": "police", "check_date": null, "description": null, "evacuation_center": "true", "flood_prone": "no", "healthcare": null, "is_in:county": "Garissa", "opening_hours": null, "operational_status": null, "operator": null, "operator:type": null, "phone": null, "shop": null, "storage_area": null, "Risk_Level": "High Risk", "Distance_to_Flood_km": "0.22", "sub_county": "Garissa Sub County", "Poverty_Rate": "0.48", "Food_Poverty_Rate": "0.35", "Wasting_Rate": "0.1", "Avg_HH_Income": "5169", "Avg_HH_Expenditure": "6177", "HH_Cash_Gap": "-1008", "Post_Assistance_Income": "13927", "Post_Assistance_Expenditure": "11092", "Post_Assistance_Surplus": "2835", "Vulnerability_Index": "0.65", "marker_emoji": "📍", "Author": "Garissa GIS Directorate — James M. Mburu", "NN_Vulnerability_Score": "0.474", "NN_Risk_Class": "Medium" }, "geometry": { "type": "Point", "coordinates": [ 39.6462887, -0.4774174 ] } },
{ "type": "Feature", "properties": { "id": "11364707385", "name": "High gate health centre", "addr:city": null, "addr:street": null, "amenity": "hospital", "check_date": null, "description": null, "evacuation_center": "false", "flood_prone": "no", "healthcare": null, "is_in:county": "Garissa", "opening_hours": "sunrise-sunset", "operational_status": "operational", "operator": "CO", "operator:type": "private", "phone": "+254 728 814 169", "shop": null, "storage_area": "true", "Risk_Level": "High Risk", "Distance_to_Flood_km": "0.0", "sub_county": "Garissa Sub County", "Poverty_Rate": "0.48", "Food_Poverty_Rate": "0.35", "Wasting_Rate": "0.1", "Avg_HH_Income": "5169", "Avg_HH_Expenditure": "6177", "HH_Cash_Gap": "-1008", "Post_Assistance_Income": "13927", "Post_Assistance_Expenditure": "11092", "Post_Assistance_Surplus": "2835", "Vulnerability_Index": "0.654", "marker_emoji": "📍", "Author": "Garissa GIS Directorate — James M. Mburu", "NN_Vulnerability_Score": "0.474", "NN_Risk_Class": "Medium" }, "geometry": { "type": "Point", "coordinates": [ 39.637581, -0.4492675 ] } },
{ "type": "Feature", "properties": { "id": "11364695983", "name": "Mwalimu shop", "addr:city": null, "addr:street": null, "amenity": "marketplace", "check_date": null, "description": null, "evacuation_center": "false", "flood_prone": "yes", "healthcare": null, "is_in:county": "Garissa", "opening_hours": "sunrise-sunset", "operational_status": null, "operator": null, "operator:type": null, "phone": null, "shop": "convenience", "storage_area": null, "Risk_Level": "High Risk", "Distance_to_Flood_km": "0.0", "sub_county": "Garissa Sub County", "Poverty_Rate": "0.48", "Food_Poverty_Rate": "0.35", "Wasting_Rate": "0.1", "Avg_HH_Income": "5169", "Avg_HH_Expenditure": "6177", "HH_Cash_Gap": "-1008", "Post_Assistance_Income": "13927", "Post_Assistance_Expenditure": "11092", "Post_Assistance_Surplus": "2835", "Vulnerability_Index": "0.654", "marker_emoji": "📍", "Author": "Garissa GIS Directorate — James M. Mburu", "NN_Vulnerability_Score": "0.474", "NN_Risk_Class": "Medium" }, "geometry": { "type": "Point", "coordinates": [ 39.6372328, -0.4466538 ] } },
{ "type": "Feature", "properties": { "id": "11364695976", "name": "Lamus market", "addr:city": null, "addr:street": null, "amenity": "marketplace", "check_date": null, "description": null, "evacuation_center": "false", "flood_prone": "yes", "healthcare": null, "is_in:county": "Garissa", "opening_hours": "sunrise-sunset", "operational_status": null, "operator": null, "operator:type": null, "phone": null, "shop": "convenience;food", "storage_area": null, "Risk_Level": "High Risk", "Distance_to_Flood_km": "0.0", "sub_county": "Garissa Sub County", "Poverty_Rate": "0.48", "Food_Poverty_Rate": "0.35", "Wasting_Rate": "0.1", "Avg_HH_Income": "5169", "Avg_HH_Expenditure": "6177", "HH_Cash_Gap": "-1008", "Post_Assistance_Income": "13927", "Post_Assistance_Expenditure": "11092", "Post_Assistance_Surplus": "2835", "Vulnerability_Index": "0.654", "marker_emoji": "📍", "Author": "Garissa GIS Directorate — James M. Mburu", "NN_Vulnerability_Score": "0.474", "NN_Risk_Class": "Medium" }, "geometry": { "type": "Point", "coordinates": [ 39.6371435, -0.4465595 ] } },
{ "type": "Feature", "properties": { "id": "11364695998", "name": "bula punda market", "addr:city": null, "addr:street": null, "amenity": "marketplace", "check_date": null, "description": null, "evacuation_center": "true", "flood_prone": "no", "healthcare": null, "is_in:county": "Garissa", "opening_hours": "sunrise-sunset", "operational_status": null, "operator": null, "operator:type": null, "phone": null, "shop": "clothes;food", "storage_area": null, "Risk_Level": "High Risk", "Distance_to_Flood_km": "0.0", "sub_county": "Garissa Sub County", "Poverty_Rate": "0.48", "Food_Poverty_Rate": "0.35", "Wasting_Rate": "0.1", "Avg_HH_Income": "5169", "Avg_HH_Expenditure": "6177", "HH_Cash_Gap": "-1008", "Post_Assistance_Income": "13927", "Post_Assistance_Expenditure": "11092", "Post_Assistance_Surplus": "2835", "Vulnerability_Index": "0.654", "marker_emoji": "📍", "Author": "Garissa GIS Directorate — James M. Mburu", "NN_Vulnerability_Score": "0.474", "NN_Risk_Class": "Medium" }, "geometry": { "type": "Point", "coordinates": [ 39.6378667, -0.4459462 ] } },
{ "type": "Feature", "properties": { "id": "11364695979", "name": "Mashaallah shop", "addr:city": null, "addr:street": null, "amenity": "marketplace", "check_date": null, "description": null, "evacuation_center": "false", "flood_prone": "yes", "healthcare": null, "is_in:county": "Garissa", "opening_hours": "sunrise-sunset", "operational_status": null, "operator": null, "operator:type": null, "phone": null, "shop": "convenience", "storage_area": null, "Risk_Level": "High Risk", "Distance_to_Flood_km": "0.0", "sub_county": "Garissa Sub County", "Poverty_Rate": "0.48", "Food_Poverty_Rate": "0.35", "Wasting_Rate": "0.1", "Avg_HH_Income": "5169", "Avg_HH_Expenditure": "6177", "HH_Cash_Gap": "-1008", "Post_Assistance_Income": "13927", "Post_Assistance_Expenditure": "11092", "Post_Assistance_Surplus": "2835", "Vulnerability_Index": "0.654", "marker_emoji": "📍", "Author": "Garissa GIS Directorate — James M. Mburu", "NN_Vulnerability_Score": "0.474", "NN_Risk_Class": "Medium" }, "geometry": { "type": "Point", "coordinates": [ 39.6350394, -0.434815 ] } },
{ "type": "Feature", "properties": { "id": "11364695973", "name": "Adc market", "addr:city": null, "addr:street": null, "amenity": "marketplace", "check_date": null, "description": null, "evacuation_center": "true", "flood_prone": "no", "healthcare": null, "is_in:county": "Garissa", "opening_hours": "sunrise-sunset", "operational_status": null, "operator": null, "operator:type": null, "phone": null, "shop": "greengrocer", "storage_area": null, "Risk_Level": "Medium Risk", "Distance_to_Flood_km": "0.99", "sub_county": "Garissa Sub County", "Poverty_Rate": "0.48", "Food_Poverty_Rate": "0.35", "Wasting_Rate": "0.1", "Avg_HH_Income": "5169", "Avg_HH_Expenditure": "6177", "HH_Cash_Gap": "-1008", "Post_Assistance_Income": "13927", "Post_Assistance_Expenditure": "11092", "Post_Assistance_Surplus": "2835", "Vulnerability_Index": "0.544", "marker_emoji": "📍", "Author": "Garissa GIS Directorate — James M. Mburu", "NN_Vulnerability_Score": "0.473", "NN_Risk_Class": "Medium" }, "geometry": { "type": "Point", "coordinates": [ 39.6407036, -0.4213676 ] } },
{ "type": "Feature", "properties": { "id": "8949923817", "name": "Garissa R.H", "addr:city": null, "addr:street": null, "amenity": "hospital", "check_date": null, "description": null, "evacuation_center": null, "flood_prone": null, "healthcare": null, "is_in:county": null, "opening_hours": null, "operational_status": null, "operator": null, "operator:type": null, "phone": null, "shop": null, "storage_area": null, "Risk_Level": "Safe", "Distance_to_Flood_km": "10.18", "sub_county": "Garissa Sub County", "Poverty_Rate": "0.48", "Food_Poverty_Rate": "0.35", "Wasting_Rate": "0.1", "Avg_HH_Income": "5169", "Avg_HH_Expenditure": "6177", "HH_Cash_Gap": "-1008", "Post_Assistance_Income": "13927", "Post_Assistance_Expenditure": "11092", "Post_Assistance_Surplus": "2835", "Vulnerability_Index": "0.214", "marker_emoji": "📍", "Author": "Garissa GIS Directorate — James M. Mburu", "NN_Vulnerability_Score": "0.17", "NN_Risk_Class": "Low" }, "geometry": { "type": "Point", "coordinates": [ 39.7341709, -0.393921 ] } }
]
}
