{
"type": "FeatureCollection",
"name": "water_pans_updated",
"crs": { "type": "name", "properties": { "name": "urn:ogc:def:crs:OGC:1.3:CRS84" } },
"features": [
{ "type": "Feature", "properties": { "No.": 1, "Sub-county": "Balambala", "ward": "sankuri", "Name": "sankuri 1", "Latitude": -0.036571277900573858, "Longitude": 39.495879280278167 }, "geometry": { "type": "Point", "coordinates": [ 39.495879280278167, -0.036571277900574 ] } },
{ "type": "Feature", "properties": { "No.": 2, "Sub-county": "Balambala", "ward": "sankuri", "Name": "sankuri 2", "Latitude": -0.035382161959186809, "Longitude": 39.49467477125016 }, "geometry": { "type": "Point", "coordinates": [ 39.49467477125016, -0.035382161959187 ] } },
{ "type": "Feature", "properties": { "No.": 3, "Sub-county": "Balambala", "ward": "sankuri", "Name": "sankuri 3", "Latitude": -0.14486164227155041, "Longitude": 39.626608916669298 }, "geometry": { "type": "Point", "coordinates": [ 39.626608916669298, -0.14486164227155 ] } },
{ "type": "Feature", "properties": { "No.": 4, "Sub-county": "Balambala", "ward": "saka", "Name": "saka 1", "Latitude": 0.1002020691247069, "Longitude": 39.431872901976931 }, "geometry": { "type": "Point", "coordinates": [ 39.431872901976931, 0.100202069124707 ] } },
{ "type": "Feature", "properties": { "No.": 5, "Sub-county": "Balambala", "ward": "saka", "Name": "saka 2", "Latitude": 0.071884562151577763, "Longitude": 39.271346098161338 }, "geometry": { "type": "Point", "coordinates": [ 39.271346098161338, 0.071884562151578 ] } },
{ "type": "Feature", "properties": { "No.": 6, "Sub-county": "Balambala", "ward": "saka", "Name": "saka 3", "Latitude": 0.046028024901804618, "Longitude": 39.194927119636837 }, "geometry": { "type": "Point", "coordinates": [ 39.194927119636837, 0.046028024901805 ] } },
{ "type": "Feature", "properties": { "No.": 7, "Sub-county": "Balambala", "ward": "saka", "Name": "saka 4", "Latitude": 0.040790527179384431, "Longitude": 39.377766202507971 }, "geometry": { "type": "Point", "coordinates": [ 39.377766202507971, 0.040790527179384 ] } },
{ "type": "Feature", "properties": { "No.": 8, "Sub-county": "Balambala", "ward": "saka", "Name": "saka 5", "Latitude": 0.024040924801108369, "Longitude": 39.368251350841057 }, "geometry": { "type": "Point", "coordinates": [ 39.368251350841057, 0.024040924801108 ] } },
{ "type": "Feature", "properties": { "No.": 9, "Sub-county": "Balambala", "ward": "saka", "Name": "saka 6", "Latitude": 0.0049496491207803306, "Longitude": 39.417663158890903 }, "geometry": { "type": "Point", "coordinates": [ 39.417663158890903, 0.00494964912078 ] } },
{ "type": "Feature", "properties": { "No.": 10, "Sub-county": "Balambala", "ward": "balambala", "Name": "balambala 1", "Latitude": 0.29704886081995641, "Longitude": 39.360100711475802 }, "geometry": { "type": "Point", "coordinates": [ 39.360100711475802, 0.297048860819956 ] } },
{ "type": "Feature", "properties": { "No.": 11, "Sub-county": "Balambala", "ward": "balambala", "Name": "balambala 2", "Latitude": 0.2412989493543411, "Longitude": 39.394376786072733 }, "geometry": { "type": "Point", "coordinates": [ 39.394376786072733, 0.241298949354341 ] } },
{ "type": "Feature", "properties": { "No.": 12, "Sub-county": "Balambala", "ward": "balambala", "Name": "balambala 3", "Latitude": 0.24511643483607551, "Longitude": 39.390959520843111 }, "geometry": { "type": "Point", "coordinates": [ 39.390959520843111, 0.245116434836076 ] } },
{ "type": "Feature", "properties": { "No.": 13, "Sub-county": "Balambala", "ward": "balambala", "Name": "balambala 4", "Latitude": 0.2442082427255016, "Longitude": 39.391236596402273 }, "geometry": { "type": "Point", "coordinates": [ 39.391236596402273, 0.244208242725502 ] } },
{ "type": "Feature", "properties": { "No.": 14, "Sub-county": "Balambala", "ward": "balambala", "Name": "balambala 5", "Latitude": 0.2310548502087999, "Longitude": 39.137785576934057 }, "geometry": { "type": "Point", "coordinates": [ 39.137785576934057, 0.2310548502088 ] } },
{ "type": "Feature", "properties": { "No.": 15, "Sub-county": "Balambala", "ward": "balambal", "Name": "balambala 6", "Latitude": 0.15184202646281231, "Longitude": 39.084002132284169 }, "geometry": { "type": "Point", "coordinates": [ 39.084002132284169, 0.151842026462812 ] } },
{ "type": "Feature", "properties": { "No.": 16, "Sub-county": "Balambala", "ward": "balambala", "Name": "balambala 7", "Latitude": 0.1257776825436725, "Longitude": 39.200177605276203 }, "geometry": { "type": "Point", "coordinates": [ 39.200177605276203, 0.125777682543672 ] } },
{ "type": "Feature", "properties": { "No.": 17, "Sub-county": "Balambala", "ward": "balambala", "Name": "balambala 8", "Latitude": 0.1014335160543062, "Longitude": 39.38436358322658 }, "geometry": { "type": "Point", "coordinates": [ 39.38436358322658, 0.101433516054306 ] } },
{ "type": "Feature", "properties": { "No.": 18, "Sub-county": "Balambala", "ward": "balambala", "Name": "balambala 9", "Latitude": 0.098377988360256741, "Longitude": 39.206996742648833 }, "geometry": { "type": "Point", "coordinates": [ 39.206996742648833, 0.098377988360257 ] } },
{ "type": "Feature", "properties": { "No.": 19, "Sub-county": "Balambala", "ward": "balambala", "Name": "balambala 10", "Latitude": 0.095738074004944482, "Longitude": 39.210390918248521 }, "geometry": { "type": "Point", "coordinates": [ 39.210390918248521, 0.095738074004944 ] } },
{ "type": "Feature", "properties": { "No.": 20, "Sub-county": "Balambala", "ward": "jarajara", "Name": "jarajara 1", "Latitude": 0.16897838014241201, "Longitude": 39.005801403983533 }, "geometry": { "type": "Point", "coordinates": [ 39.005801403983533, 0.168978380142412 ] } },
{ "type": "Feature", "properties": { "No.": 21, "Sub-county": "Balambala", "ward": "danyere", "Name": "danyere 1", "Latitude": 0.31627482600820273, "Longitude": 38.740305294235213 }, "geometry": { "type": "Point", "coordinates": [ 38.740305294235213, 0.316274826008203 ] } },
{ "type": "Feature", "properties": { "No.": 22, "Sub-county": "Balambala", "ward": "danyere", "Name": "danyere 2", "Latitude": 0.31431605573582078, "Longitude": 38.741071100294548 }, "geometry": { "type": "Point", "coordinates": [ 38.741071100294548, 0.314316055735821 ] } },
{ "type": "Feature", "properties": { "No.": 23, "Sub-county": "Balambala", "ward": "danyere", "Name": "danyere 3", "Latitude": 0.30055271216180551, "Longitude": 38.750120311091209 }, "geometry": { "type": "Point", "coordinates": [ 38.750120311091209, 0.300552712161806 ] } },
{ "type": "Feature", "properties": { "No.": 24, "Sub-county": "Balambala", "ward": "danyere", "Name": "danyere 4", "Latitude": 0.30532841728562848, "Longitude": 38.732641461234287 }, "geometry": { "type": "Point", "coordinates": [ 38.732641461234287, 0.305328417285628 ] } },
{ "type": "Feature", "properties": { "No.": 25, "Sub-county": "Balambala", "ward": "danyere", "Name": "danyere 5", "Latitude": 0.24934953365654719, "Longitude": 38.985113095566383 }, "geometry": { "type": "Point", "coordinates": [ 38.985113095566383, 0.249349533656547 ] } },
{ "type": "Feature", "properties": { "No.": 26, "Sub-county": "Balambala", "ward": "danyere", "Name": "danyere 6", "Latitude": 0.11592418297111109, "Longitude": 38.749900959606911 }, "geometry": { "type": "Point", "coordinates": [ 38.749900959606911, 0.115924182971111 ] } },
{ "type": "Feature", "properties": { "No.": 27, "Sub-county": "Bura", "ward": "Bura", "Name": "Farana/Dagega 1", "Latitude": -0.80970197081272299, "Longitude": 40.447932869673409 }, "geometry": { "type": "Point", "coordinates": [ 40.447932869673409, -0.809701970812723 ] } },
{ "type": "Feature", "properties": { "No.": 28, "Sub-county": "Bura", "ward": null, "Name": null, "Latitude": -0.75591759452933782, "Longitude": 39.824646234754503 }, "geometry": { "type": "Point", "coordinates": [ 39.824646234754503, -0.755917594529338 ] } },
{ "type": "Feature", "properties": { "No.": 29, "Sub-county": "Bura", "ward": "Bura", "Name": "Jira", "Latitude": -1.071200079593581, "Longitude": 39.968335180173057 }, "geometry": { "type": "Point", "coordinates": [ 39.968335180173057, -1.071200079593581 ] } },
{ "type": "Feature", "properties": { "No.": 30, "Sub-county": "Bura", "ward": "Bura", "Name": "Kusey/Dekaley/Harasod", "Latitude": -1.2272124229491359, "Longitude": 40.042760359216601 }, "geometry": { "type": "Point", "coordinates": [ 40.042760359216601, -1.227212422949136 ] } },
{ "type": "Feature", "properties": { "No.": 31, "Sub-county": "Bura", "ward": "Bura", "Name": "Ali Emij", "Latitude": -1.431642501550993, "Longitude": 40.082977039580882 }, "geometry": { "type": "Point", "coordinates": [ 40.082977039580882, -1.431642501550993 ] } },
{ "type": "Feature", "properties": { "No.": 32, "Sub-county": "Bura", "ward": "Bura", "Name": "Fulad/Shimbirole 1", "Latitude": -0.92217196465183116, "Longitude": 40.024498266365057 }, "geometry": { "type": "Point", "coordinates": [ 40.024498266365057, -0.922171964651831 ] } },
{ "type": "Feature", "properties": { "No.": 33, "Sub-county": "Bura", "ward": "Bura", "Name": "Fulad/Shimbirole 2", "Latitude": -0.93790183031124996, "Longitude": 40.01370357737747 }, "geometry": { "type": "Point", "coordinates": [ 40.01370357737747, -0.93790183031125 ] } },
{ "type": "Feature", "properties": { "No.": 34, "Sub-county": "Bura", "ward": "Bura", "Name": "Farana/Dagega 2", "Latitude": -0.75263077853610583, "Longitude": 40.422267168953013 }, "geometry": { "type": "Point", "coordinates": [ 40.422267168953013, -0.752630778536106 ] } },
{ "type": "Feature", "properties": { "No.": 35, "Sub-county": "Bura", "ward": "Bura", "Name": "Farana/Dagega 5", "Latitude": -0.84612685751918582, "Longitude": 40.351429597870528 }, "geometry": { "type": "Point", "coordinates": [ 40.351429597870528, -0.846126857519186 ] } },
{ "type": "Feature", "properties": { "No.": 36, "Sub-county": "Bura", "ward": "Bura", "Name": "Fulad/Shimbirole 3", "Latitude": -0.94594839901049288, "Longitude": 40.01779597017039 }, "geometry": { "type": "Point", "coordinates": [ 40.01779597017039, -0.945948399010493 ] } },
{ "type": "Feature", "properties": { "No.": 37, "Sub-county": "Bura", "ward": "Bura", "Name": "Farana/Dagega 3", "Latitude": -0.95515721514904905, "Longitude": 40.52901971387741 }, "geometry": { "type": "Point", "coordinates": [ 40.52901971387741, -0.955157215149049 ] } },
{ "type": "Feature", "properties": { "No.": 38, "Sub-county": "Bura", "ward": "Bura", "Name": "Farana/Dagega 4", "Latitude": -1.023097115784469, "Longitude": 40.24221240987918 }, "geometry": { "type": "Point", "coordinates": [ 40.24221240987918, -1.023097115784469 ] } },
{ "type": "Feature", "properties": { "No.": 39, "Sub-county": "Bura", "ward": "Bura", "Name": "Arba Dabolo", "Latitude": -1.042457630260067, "Longitude": 40.088505150744354 }, "geometry": { "type": "Point", "coordinates": [ 40.088505150744354, -1.042457630260067 ] } },
{ "type": "Feature", "properties": { "No.": 40, "Sub-county": "Bura", "ward": "Bura", "Name": "Farana/Dagega 6", "Latitude": -1.031822713060913, "Longitude": 40.342354298106869 }, "geometry": { "type": "Point", "coordinates": [ 40.342354298106869, -1.031822713060913 ] } },
{ "type": "Feature", "properties": { "No.": 41, "Sub-county": "Bura", "ward": "Bura", "Name": "Handaraku/Garasweino/", "Latitude": -1.477883995757679, "Longitude": 40.140762274259167 }, "geometry": { "type": "Point", "coordinates": [ 40.140762274259167, -1.477883995757679 ] } },
{ "type": "Feature", "properties": { "No.": 42, "Sub-county": "Bura", "ward": "Nanighi", "Name": "Dad Abas/Gora 1", "Latitude": -0.68469949268009, "Longitude": 39.93992630945084 }, "geometry": { "type": "Point", "coordinates": [ 39.93992630945084, -0.68469949268009 ] } },
{ "type": "Feature", "properties": { "No.": 43, "Sub-county": "Bura", "ward": "Nanighi", "Name": "Dad Abas/Gora 2", "Latitude": -0.72867272469248978, "Longitude": 39.922395684871582 }, "geometry": { "type": "Point", "coordinates": [ 39.922395684871582, -0.72867272469249 ] } },
{ "type": "Feature", "properties": { "No.": 44, "Sub-county": "Dadaab", "ward": "Dadaab", "Name": "Dadaab centre 1", "Latitude": -1.1724690466376111, "Longitude": 40.752589942540091 }, "geometry": { "type": "Point", "coordinates": [ 40.752589942540091, -1.172469046637611 ] } },
{ "type": "Feature", "properties": { "No.": 45, "Sub-county": "Dadaab", "ward": "Dadaab", "Name": "Lebi", "Latitude": 0.06177961328463405, "Longitude": 40.251682034124421 }, "geometry": { "type": "Point", "coordinates": [ 40.251682034124421, 0.061779613284634 ] } },
{ "type": "Feature", "properties": { "No.": 46, "Sub-county": "Dadaab", "ward": "Dadaab", "Name": "Dadaab 1", "Latitude": 0.060806798498629293, "Longitude": 40.299582658521018 }, "geometry": { "type": "Point", "coordinates": [ 40.299582658521018, 0.060806798498629 ] } },
{ "type": "Feature", "properties": { "No.": 47, "Sub-county": "Dadaab", "ward": "Dadaab", "Name": "Dadaab centre 2", "Latitude": 0.057229768684233968, "Longitude": 40.311553208912038 }, "geometry": { "type": "Point", "coordinates": [ 40.311553208912038, 0.057229768684234 ] } },
{ "type": "Feature", "properties": { "No.": 48, "Sub-county": "Dadaab", "ward": "Dadaab", "Name": "Ege", "Latitude": 0.01071471298773956, "Longitude": 40.315291438970149 }, "geometry": { "type": "Point", "coordinates": [ 40.315291438970149, 0.01071471298774 ] } },
{ "type": "Feature", "properties": { "No.": 49, "Sub-county": "Dadaab", "ward": "abakaile", "Name": "Abakaile 13", "Latitude": -0.0039287394039758932, "Longitude": 40.128305852129458 }, "geometry": { "type": "Point", "coordinates": [ 40.128305852129458, -0.003928739403976 ] } },
{ "type": "Feature", "properties": { "No.": 50, "Sub-county": "Dadaab", "ward": "abakaile", "Name": "abakaile 12", "Latitude": 0.067055939000369588, "Longitude": 40.09541912447839 }, "geometry": { "type": "Point", "coordinates": [ 40.09541912447839, 0.06705593900037 ] } },
{ "type": "Feature", "properties": { "No.": 51, "Sub-county": "Dadaab", "ward": "abakaile", "Name": "abakaile 3", "Latitude": 0.065830455404109103, "Longitude": 40.093184075824261 }, "geometry": { "type": "Point", "coordinates": [ 40.093184075824261, 0.065830455404109 ] } },
{ "type": "Feature", "properties": { "No.": 52, "Sub-county": "Dadaab", "ward": "dertu", "Name": "dertu 1", "Latitude": -0.0073192440202966176, "Longitude": 39.847871438033742 }, "geometry": { "type": "Point", "coordinates": [ 39.847871438033742, -0.007319244020297 ] } },
{ "type": "Feature", "properties": { "No.": 53, "Sub-county": "Dadaab", "ward": "dertu", "Name": "dertu 2", "Latitude": 0.028616603530999069, "Longitude": 39.991486444243151 }, "geometry": { "type": "Point", "coordinates": [ 39.991486444243151, 0.028616603530999 ] } },
{ "type": "Feature", "properties": { "No.": 54, "Sub-county": "Dadaab", "ward": "dertu", "Name": "dertu 3", "Latitude": -0.09738645270926978, "Longitude": 39.979640102812603 }, "geometry": { "type": "Point", "coordinates": [ 39.979640102812603, -0.09738645270927 ] } },
{ "type": "Feature", "properties": { "No.": 55, "Sub-county": "Dadaab", "ward": "dertu", "Name": "dertu 4", "Latitude": -0.090558758387247057, "Longitude": 39.990792003538573 }, "geometry": { "type": "Point", "coordinates": [ 39.990792003538573, -0.090558758387247 ] } },
{ "type": "Feature", "properties": { "No.": 56, "Sub-county": "Dadaab", "ward": "dertu", "Name": "dertu 5", "Latitude": -0.092105201973004341, "Longitude": 39.990704468995979 }, "geometry": { "type": "Point", "coordinates": [ 39.990704468995979, -0.092105201973004 ] } },
{ "type": "Feature", "properties": { "No.": 57, "Sub-county": "Dadaab", "ward": "dertu", "Name": "dertu 6", "Latitude": -0.12902727203748099, "Longitude": 39.950251839047027 }, "geometry": { "type": "Point", "coordinates": [ 39.950251839047027, -0.129027272037481 ] } },
{ "type": "Feature", "properties": { "No.": 58, "Sub-county": "Dadaab", "ward": "dertu", "Name": "dertu 7", "Latitude": -0.12958457529197079, "Longitude": 39.749272529260367 }, "geometry": { "type": "Point", "coordinates": [ 39.749272529260367, -0.129584575291971 ] } },
{ "type": "Feature", "properties": { "No.": 59, "Sub-county": "Dadaab", "ward": "dertu", "Name": "dertu 8", "Latitude": 0.13665465381370639, "Longitude": 39.665472793820832 }, "geometry": { "type": "Point", "coordinates": [ 39.665472793820832, 0.136654653813706 ] } },
{ "type": "Feature", "properties": { "No.": 60, "Sub-county": "Dadaab", "ward": "dertu", "Name": "dertu 9", "Latitude": 0.048478191244678032, "Longitude": 39.652342612432321 }, "geometry": { "type": "Point", "coordinates": [ 39.652342612432321, 0.048478191244678 ] } },
{ "type": "Feature", "properties": { "No.": 61, "Sub-county": "Dadaab", "ward": "dertu", "Name": "dertu 10", "Latitude": 0.1695092854658328, "Longitude": 39.739818798660643 }, "geometry": { "type": "Point", "coordinates": [ 39.739818798660643, 0.169509285465833 ] } },
{ "type": "Feature", "properties": { "No.": 62, "Sub-county": "Dadaab", "ward": "dertu", "Name": "dertu 11", "Latitude": 0.16803870515032021, "Longitude": 39.736037306420748 }, "geometry": { "type": "Point", "coordinates": [ 39.736037306420748, 0.16803870515032 ] } },
{ "type": "Feature", "properties": { "No.": 63, "Sub-county": "Dadaab", "ward": "dertu", "Name": "dertu 12", "Latitude": -0.041644455987935057, "Longitude": 39.659867665276991 }, "geometry": { "type": "Point", "coordinates": [ 39.659867665276991, -0.041644455987935 ] } },
{ "type": "Feature", "properties": { "No.": 64, "Sub-county": "Dadaab", "ward": "dertu", "Name": "dertu 13", "Latitude": -0.039809148411630663, "Longitude": 39.663246498620943 }, "geometry": { "type": "Point", "coordinates": [ 39.663246498620943, -0.039809148411631 ] } },
{ "type": "Feature", "properties": { "No.": 65, "Sub-county": "Dadaab", "ward": "dertu", "Name": "dertu 14", "Latitude": 0.13612652874008049, "Longitude": 39.874526435706912 }, "geometry": { "type": "Point", "coordinates": [ 39.874526435706912, 0.13612652874008 ] } },
{ "type": "Feature", "properties": { "No.": 66, "Sub-county": "Dadaab", "ward": "abakaile", "Name": "Abakaile 4", "Latitude": 0.34736196910026568, "Longitude": 39.998386354562733 }, "geometry": { "type": "Point", "coordinates": [ 39.998386354562733, 0.347361969100266 ] } },
{ "type": "Feature", "properties": { "No.": 67, "Sub-county": "Dadaab", "ward": "abakaile", "Name": "Abakaile 2", "Latitude": 0.30515864829952349, "Longitude": 39.998433039652113 }, "geometry": { "type": "Point", "coordinates": [ 39.998433039652113, 0.305158648299523 ] } },
{ "type": "Feature", "properties": { "No.": 68, "Sub-county": "Dadaab", "ward": "abakaile", "Name": "abakaile 1", "Latitude": 0.23995638381181911, "Longitude": 40.189569351728842 }, "geometry": { "type": "Point", "coordinates": [ 40.189569351728842, 0.239956383811819 ] } },
{ "type": "Feature", "properties": { "No.": 69, "Sub-county": "Dadaab", "ward": "abakaile", "Name": "abakaile 5", "Latitude": 0.30858360056740858, "Longitude": 40.088929167366253 }, "geometry": { "type": "Point", "coordinates": [ 40.088929167366253, 0.308583600567409 ] } },
{ "type": "Feature", "properties": { "No.": 70, "Sub-county": "Dadaab", "ward": "abakaile", "Name": "abakaile 6", "Latitude": 0.20243204124778449, "Longitude": 40.159459395606333 }, "geometry": { "type": "Point", "coordinates": [ 40.159459395606333, 0.202432041247784 ] } },
{ "type": "Feature", "properties": { "No.": 71, "Sub-county": "Dadaab", "ward": "abakaile", "Name": "abakaile 7", "Latitude": 0.16692803077146121, "Longitude": 40.08313511010013 }, "geometry": { "type": "Point", "coordinates": [ 40.08313511010013, 0.166928030771461 ] } },
{ "type": "Feature", "properties": { "No.": 72, "Sub-county": "Dadaab", "ward": "abakaile", "Name": "abakaile 8", "Latitude": 0.2460534216407034, "Longitude": 39.936631463977797 }, "geometry": { "type": "Point", "coordinates": [ 39.936631463977797, 0.246053421640703 ] } },
{ "type": "Feature", "properties": { "No.": 73, "Sub-county": "Dadaab", "ward": "abakaile", "Name": "abakaile 9", "Latitude": -0.01626694135374979, "Longitude": 40.137060273388897 }, "geometry": { "type": "Point", "coordinates": [ 40.137060273388897, -0.01626694135375 ] } },
{ "type": "Feature", "properties": { "No.": 74, "Sub-county": "Dadaab", "ward": "abakaile", "Name": "abakaile 10", "Latitude": -0.016372237151191151, "Longitude": 40.134378327489372 }, "geometry": { "type": "Point", "coordinates": [ 40.134378327489372, -0.016372237151191 ] } },
{ "type": "Feature", "properties": { "No.": 75, "Sub-county": "Dadaab", "ward": "abakaile", "Name": "abakaile 11", "Latitude": -0.01793309250149842, "Longitude": 40.134372133618932 }, "geometry": { "type": "Point", "coordinates": [ 40.134372133618932, -0.017933092501498 ] } },
{ "type": "Feature", "properties": { "No.": 76, "Sub-county": "Dadaab", "ward": "dadaab", "Name": "dadaab 4", "Latitude": 0.01190097265783866, "Longitude": 40.312200859321038 }, "geometry": { "type": "Point", "coordinates": [ 40.312200859321038, 0.011900972657839 ] } },
{ "type": "Feature", "properties": { "No.": 77, "Sub-county": "Dadaab", "ward": "damajale", "Name": "damajale 1", "Latitude": 0.15018467471328811, "Longitude": 40.72361335893514 }, "geometry": { "type": "Point", "coordinates": [ 40.72361335893514, 0.150184674713288 ] } },
{ "type": "Feature", "properties": { "No.": 78, "Sub-county": "Dadaab", "ward": "damajale", "Name": "damajale 2", "Latitude": 0.1134480684592775, "Longitude": 40.758861741192398 }, "geometry": { "type": "Point", "coordinates": [ 40.758861741192398, 0.113448068459278 ] } },
{ "type": "Feature", "properties": { "No.": 79, "Sub-county": "Dadaab", "ward": "damajale", "Name": "damajale 3", "Latitude": 0.096789561140033328, "Longitude": 40.684155112270162 }, "geometry": { "type": "Point", "coordinates": [ 40.684155112270162, 0.096789561140033 ] } },
{ "type": "Feature", "properties": { "No.": 80, "Sub-county": "Dadaab", "ward": "damajale", "Name": "damajale 5", "Latitude": 0.065902450694864195, "Longitude": 40.425831923621431 }, "geometry": { "type": "Point", "coordinates": [ 40.425831923621431, 0.065902450694864 ] } },
{ "type": "Feature", "properties": { "No.": 81, "Sub-county": "Dadaab", "ward": "liboi", "Name": "liboi 1", "Latitude": 0.21568552774648089, "Longitude": 40.523967366228021 }, "geometry": { "type": "Point", "coordinates": [ 40.523967366228021, 0.215685527746481 ] } },
{ "type": "Feature", "properties": { "No.": 82, "Sub-county": "Dadaab", "ward": "liboi", "Name": "liboi 2", "Latitude": 0.22225252805097001, "Longitude": 40.530563384548813 }, "geometry": { "type": "Point", "coordinates": [ 40.530563384548813, 0.22225252805097 ] } },
{ "type": "Feature", "properties": { "No.": 83, "Sub-county": "Dadaab", "ward": "liboi", "Name": "liboi 3", "Latitude": 0.21950697727784901, "Longitude": 40.595013514831507 }, "geometry": { "type": "Point", "coordinates": [ 40.595013514831507, 0.219506977277849 ] } },
{ "type": "Feature", "properties": { "No.": 84, "Sub-county": "Dadaab", "ward": "liboi", "Name": "liboi 4", "Latitude": 0.23431732636700089, "Longitude": 40.664078625783667 }, "geometry": { "type": "Point", "coordinates": [ 40.664078625783667, 0.234317326367001 ] } },
{ "type": "Feature", "properties": { "No.": 85, "Sub-county": "Dadaab", "ward": "liboi", "Name": "liboi 5", "Latitude": 0.40657552563545762, "Longitude": 40.974547404540068 }, "geometry": { "type": "Point", "coordinates": [ 40.974547404540068, 0.406575525635458 ] } },
{ "type": "Feature", "properties": { "No.": 86, "Sub-county": "Dadaab", "ward": "liboi", "Name": "liboi", "Latitude": 0.37855193443127427, "Longitude": 40.907650832267741 }, "geometry": { "type": "Point", "coordinates": [ 40.907650832267741, 0.378551934431274 ] } },
{ "type": "Feature", "properties": { "No.": 87, "Sub-county": "Dadaab", "ward": "liboi", "Name": "liboi 7", "Latitude": 0.30664082572650952, "Longitude": 40.803543118399169 }, "geometry": { "type": "Point", "coordinates": [ 40.803543118399169, 0.30664082572651 ] } },
{ "type": "Feature", "properties": { "No.": 88, "Sub-county": "Dadaab", "ward": "liboi", "Name": "liboi 8", "Latitude": 0.31013191630306319, "Longitude": 40.967160087236358 }, "geometry": { "type": "Point", "coordinates": [ 40.967160087236358, 0.310131916303063 ] } },
{ "type": "Feature", "properties": { "No.": 89, "Sub-county": "Dadaab", "ward": "liboi", "Name": "liboi 9", "Latitude": 0.30292651963994621, "Longitude": 40.991445934725427 }, "geometry": { "type": "Point", "coordinates": [ 40.991445934725427, 0.302926519639946 ] } },
{ "type": "Feature", "properties": { "No.": 90, "Sub-county": "Dadaab", "ward": "liboi", "Name": "liboi 10", "Latitude": 0.27183706340577912, "Longitude": 40.70771669995235 }, "geometry": { "type": "Point", "coordinates": [ 40.70771669995235, 0.271837063405779 ] } },
{ "type": "Feature", "properties": { "No.": 91, "Sub-county": "Dadaab", "ward": "liboi", "Name": "liboi 11", "Latitude": 0.24626549457905361, "Longitude": 40.781726034451239 }, "geometry": { "type": "Point", "coordinates": [ 40.781726034451239, 0.246265494579054 ] } },
{ "type": "Feature", "properties": { "No.": 92, "Sub-county": "Dadaab", "ward": "Liboi", "Name": "Liboi 12", "Latitude": 0.20057774399024361, "Longitude": 40.512599558342892 }, "geometry": { "type": "Point", "coordinates": [ 40.512599558342892, 0.200577743990244 ] } },
{ "type": "Feature", "properties": { "No.": 93, "Sub-county": "Dadaab", "ward": "Liboi", "Name": "Liboi 13", "Latitude": 0.16416013353214129, "Longitude": 40.426353549585222 }, "geometry": { "type": "Point", "coordinates": [ 40.426353549585222, 0.164160133532141 ] } },
{ "type": "Feature", "properties": { "No.": 94, "Sub-county": "Fafi", "ward": "Dekaharja", "Name": "Kenisa?Doi", "Latitude": -1.2765412410761441, "Longitude": 40.76100713359758 }, "geometry": { "type": "Point", "coordinates": [ 40.76100713359758, -1.276541241076144 ] } },
{ "type": "Feature", "properties": { "No.": 95, "Sub-county": "Fafi", "ward": "Dekaharja", "Name": "Kenisa/Doi 2", "Latitude": -1.266186096310828, "Longitude": 40.746411679864693 }, "geometry": { "type": "Point", "coordinates": [ 40.746411679864693, -1.266186096310828 ] } },
{ "type": "Feature", "properties": { "No.": 96, "Sub-county": "Fafi", "ward": "Dekaharja", "Name": "Dekaharja/Kaldadole 1", "Latitude": -1.1712703998477161, "Longitude": 40.844927760618859 }, "geometry": { "type": "Point", "coordinates": [ 40.844927760618859, -1.171270399847716 ] } },
{ "type": "Feature", "properties": { "No.": 97, "Sub-county": "Fafi", "ward": "Dekaharja", "Name": "Tumtish 1", "Latitude": -1.2111073269317629, "Longitude": 40.913949131283069 }, "geometry": { "type": "Point", "coordinates": [ 40.913949131283069, -1.211107326931763 ] } },
{ "type": "Feature", "properties": { "No.": 98, "Sub-county": "Fafi", "ward": "Dekaharja", "Name": "Galmagala 1", "Latitude": -1.192872705594084, "Longitude": 40.763922346012741 }, "geometry": { "type": "Point", "coordinates": [ 40.763922346012741, -1.192872705594084 ] } },
{ "type": "Feature", "properties": { "No.": 99, "Sub-county": "Fafi", "ward": "Dekaharja", "Name": "Galmagala 2", "Latitude": -1.186977641907462, "Longitude": 40.769604101473853 }, "geometry": { "type": "Point", "coordinates": [ 40.769604101473853, -1.186977641907462 ] } },
{ "type": "Feature", "properties": { "No.": 100, "Sub-county": "Fafi", "ward": "Dekaharja", "Name": "Galmagala 3", "Latitude": -1.2006422961108809, "Longitude": 40.780925597139507 }, "geometry": { "type": "Point", "coordinates": [ 40.780925597139507, -1.200642296110881 ] } },
{ "type": "Feature", "properties": { "No.": 101, "Sub-county": "Fafi", "ward": "Dekaharja", "Name": "Tumtish 2", "Latitude": -1.17550424492966, "Longitude": 40.90991566665528 }, "geometry": { "type": "Point", "coordinates": [ 40.90991566665528, -1.17550424492966 ] } },
{ "type": "Feature", "properties": { "No.": 102, "Sub-county": "Fafi", "ward": "Dekaharja", "Name": "Tumtish 3", "Latitude": -1.1873622431019279, "Longitude": 40.905046744811052 }, "geometry": { "type": "Point", "coordinates": [ 40.905046744811052, -1.187362243101928 ] } },
{ "type": "Feature", "properties": { "No.": 103, "Sub-county": "Fafi", "ward": "Dekaharja", "Name": "Uftis 1", "Latitude": -1.10937223113818, "Longitude": 40.936647065642163 }, "geometry": { "type": "Point", "coordinates": [ 40.936647065642163, -1.10937223113818 ] } },
{ "type": "Feature", "properties": { "No.": 104, "Sub-county": "Fafi", "ward": "Dekaharja", "Name": "Uftis 2", "Latitude": -1.079883984933828, "Longitude": 40.928809604326332 }, "geometry": { "type": "Point", "coordinates": [ 40.928809604326332, -1.079883984933828 ] } },
{ "type": "Feature", "properties": { "No.": 105, "Sub-county": "Fafi", "ward": "Dekaharja", "Name": "Uftis 3", "Latitude": -1.077220864057854, "Longitude": 40.924388306561362 }, "geometry": { "type": "Point", "coordinates": [ 40.924388306561362, -1.077220864057854 ] } },
{ "type": "Feature", "properties": { "No.": 106, "Sub-county": "Fafi", "ward": "Dekaharja", "Name": "Bula Galol 1", "Latitude": -1.05380867033752, "Longitude": 40.95867921978234 }, "geometry": { "type": "Point", "coordinates": [ 40.95867921978234, -1.05380867033752 ] } },
{ "type": "Feature", "properties": { "No.": 107, "Sub-county": "Fafi", "ward": "Dekaharja", "Name": "Bula Galol 2", "Latitude": -1.0543181053230479, "Longitude": 40.958654576218407 }, "geometry": { "type": "Point", "coordinates": [ 40.958654576218407, -1.054318105323048 ] } },
{ "type": "Feature", "properties": { "No.": 108, "Sub-county": "Fafi", "ward": "Dekaharja", "Name": "Bula Galol 3", "Latitude": -1.037505538822058, "Longitude": 40.950141638855172 }, "geometry": { "type": "Point", "coordinates": [ 40.950141638855172, -1.037505538822058 ] } },
{ "type": "Feature", "properties": { "No.": 109, "Sub-county": "Fafi", "ward": "Dekaharja", "Name": "Bula Galol 4", "Latitude": -0.95016228436429329, "Longitude": 40.893653742410649 }, "geometry": { "type": "Point", "coordinates": [ 40.893653742410649, -0.950162284364293 ] } },
{ "type": "Feature", "properties": { "No.": 110, "Sub-county": "Fafi", "ward": "Dekaharja", "Name": "Dekaharja/Kaldadole 2", "Latitude": -1.1586072439227431, "Longitude": 40.849758303142188 }, "geometry": { "type": "Point", "coordinates": [ 40.849758303142188, -1.158607243922743 ] } },
{ "type": "Feature", "properties": { "No.": 111, "Sub-county": "Fafi", "ward": "Dekaharja", "Name": "Dekaharja/Kaldadole 3", "Latitude": -1.16203956718765, "Longitude": 40.838210571479742 }, "geometry": { "type": "Point", "coordinates": [ 40.838210571479742, -1.16203956718765 ] } },
{ "type": "Feature", "properties": { "No.": 112, "Sub-county": "Fafi", "ward": "Dekaharja", "Name": "Dekaharja/Kaldadole 4", "Latitude": -1.154987467974816, "Longitude": 40.869776956911331 }, "geometry": { "type": "Point", "coordinates": [ 40.869776956911331, -1.154987467974816 ] } },
{ "type": "Feature", "properties": { "No.": 113, "Sub-county": "Fafi", "ward": "Dekaharja", "Name": "Gubis 1", "Latitude": -1.1121836173905919, "Longitude": 40.791725538034171 }, "geometry": { "type": "Point", "coordinates": [ 40.791725538034171, -1.112183617390592 ] } },
{ "type": "Feature", "properties": { "No.": 114, "Sub-county": "Fafi", "ward": "Dekaharja", "Name": "Gubis 2", "Latitude": -1.113747877710946, "Longitude": 40.789637702978503 }, "geometry": { "type": "Point", "coordinates": [ 40.789637702978503, -1.113747877710946 ] } },
{ "type": "Feature", "properties": { "No.": 115, "Sub-county": "Fafi", "ward": "Dekaharja", "Name": "Gubis 3", "Latitude": -0.95597735746635115, "Longitude": 40.838090989595798 }, "geometry": { "type": "Point", "coordinates": [ 40.838090989595798, -0.955977357466351 ] } },
{ "type": "Feature", "properties": { "No.": 116, "Sub-county": "Fafi", "ward": "Dekaharja", "Name": "Dekaharja 1", "Latitude": -1.190057279413159, "Longitude": 40.714776211655547 }, "geometry": { "type": "Point", "coordinates": [ 40.714776211655547, -1.190057279413159 ] } },
{ "type": "Feature", "properties": { "No.": 117, "Sub-county": "Fafi", "ward": "Dekaharja", "Name": "Dekaharja 2", "Latitude": -1.1941295273545749, "Longitude": 40.711647691014839 }, "geometry": { "type": "Point", "coordinates": [ 40.711647691014839, -1.194129527354575 ] } },
{ "type": "Feature", "properties": { "No.": 118, "Sub-county": "Fafi", "ward": "Dekaharja", "Name": "Dekaharja 3", "Latitude": -1.1341818361312701, "Longitude": 40.76310668444593 }, "geometry": { "type": "Point", "coordinates": [ 40.76310668444593, -1.13418183613127 ] } },
{ "type": "Feature", "properties": { "No.": 119, "Sub-county": "Fafi", "ward": "Dekaharja", "Name": "Gubis 4", "Latitude": -1.015097870488272, "Longitude": 40.886139525519418 }, "geometry": { "type": "Point", "coordinates": [ 40.886139525519418, -1.015097870488272 ] } },
{ "type": "Feature", "properties": { "No.": 120, "Sub-county": "Fafi", "ward": "Fafi", "Name": "Yumbis Center 1", "Latitude": -0.0045404733709140813, "Longitude": 40.343028982626272 }, "geometry": { "type": "Point", "coordinates": [ 40.343028982626272, -0.004540473370914 ] } },
{ "type": "Feature", "properties": { "No.": 121, "Sub-county": "Fafi", "ward": "Jarajila", "Name": "Bula Hada", "Latitude": -0.15627961119814901, "Longitude": 40.571255330100698 }, "geometry": { "type": "Point", "coordinates": [ 40.571255330100698, -0.156279611198149 ] } },
{ "type": "Feature", "properties": { "No.": 122, "Sub-county": "Fafi", "ward": "Jarajila", "Name": "Bula Hada", "Latitude": -0.33675238767387239, "Longitude": 40.899082998554448 }, "geometry": { "type": "Point", "coordinates": [ 40.899082998554448, -0.336752387673872 ] } },
{ "type": "Feature", "properties": { "No.": 123, "Sub-county": "Fafi", "ward": "Jarajila", "Name": "Welmarer", "Latitude": -0.36003530368177372, "Longitude": 40.590561737850059 }, "geometry": { "type": "Point", "coordinates": [ 40.590561737850059, -0.360035303681774 ] } },
{ "type": "Feature", "properties": { "No.": 124, "Sub-county": "Fafi", "ward": "Jarajila", "Name": "Bula Athar", "Latitude": -0.47604912281276052, "Longitude": 40.787218993992333 }, "geometry": { "type": "Point", "coordinates": [ 40.787218993992333, -0.476049122812761 ] } },
{ "type": "Feature", "properties": { "No.": 125, "Sub-county": "Fafi", "ward": "Fafi", "Name": "Hagarbul 2", "Latitude": -0.096125786312825798, "Longitude": 39.993582481967593 }, "geometry": { "type": "Point", "coordinates": [ 39.993582481967593, -0.096125786312826 ] } },
{ "type": "Feature", "properties": { "No.": 126, "Sub-county": "Fafi", "ward": "Fafi", "Name": "Yumbis center 2", "Latitude": -0.18397787647559871, "Longitude": 40.390684073714603 }, "geometry": { "type": "Point", "coordinates": [ 40.390684073714603, -0.183977876475599 ] } },
{ "type": "Feature", "properties": { "No.": 127, "Sub-county": "Fafi", "ward": "Fafi", "Name": "Hagarbul 1", "Latitude": -0.2372410239732495, "Longitude": 39.9982037337777 }, "geometry": { "type": "Point", "coordinates": [ 39.9982037337777, -0.23724102397325 ] } },
{ "type": "Feature", "properties": { "No.": 128, "Sub-county": "Fafi", "ward": "Fafi", "Name": "Daddere 1", "Latitude": -0.41880227867502567, "Longitude": 39.974252123785227 }, "geometry": { "type": "Point", "coordinates": [ 39.974252123785227, -0.418802278675026 ] } },
{ "type": "Feature", "properties": { "No.": 129, "Sub-county": "Fafi", "ward": "Fafi", "Name": "Daddere 2", "Latitude": -0.42222393724533158, "Longitude": 39.975182009820223 }, "geometry": { "type": "Point", "coordinates": [ 39.975182009820223, -0.422223937245332 ] } },
{ "type": "Feature", "properties": { "No.": 130, "Sub-county": "Fafi", "ward": "Fafi", "Name": "Fafi center 1", "Latitude": -0.43208636488915442, "Longitude": 40.362143415757089 }, "geometry": { "type": "Point", "coordinates": [ 40.362143415757089, -0.432086364889154 ] } },
{ "type": "Feature", "properties": { "No.": 131, "Sub-county": "Fafi", "ward": "Fafi", "Name": "Fafi centre 2", "Latitude": -0.4329518432334083, "Longitude": 40.338864061036993 }, "geometry": { "type": "Point", "coordinates": [ 40.338864061036993, -0.432951843233408 ] } },
{ "type": "Feature", "properties": { "No.": 132, "Sub-county": "Fafi", "ward": "Fafi", "Name": "Fafi centre 3", "Latitude": -0.42745706211756418, "Longitude": 40.234636315504808 }, "geometry": { "type": "Point", "coordinates": [ 40.234636315504808, -0.427457062117564 ] } },
{ "type": "Feature", "properties": { "No.": 133, "Sub-county": "Fafi", "ward": "Fafi", "Name": "Fafi centre 5", "Latitude": -0.42908335630862732, "Longitude": 40.235111322223979 }, "geometry": { "type": "Point", "coordinates": [ 40.235111322223979, -0.429083356308627 ] } },
{ "type": "Feature", "properties": { "No.": 134, "Sub-county": "Fafi", "ward": "Fafi", "Name": "Fafi centre 4", "Latitude": -0.44523358476047098, "Longitude": 40.148849296926237 }, "geometry": { "type": "Point", "coordinates": [ 40.148849296926237, -0.445233584760471 ] } },
{ "type": "Feature", "properties": { "No.": 135, "Sub-county": "Fafi", "ward": "Fafi", "Name": "Dayu 1", "Latitude": -0.44256066559496149, "Longitude": 40.102093338933187 }, "geometry": { "type": "Point", "coordinates": [ 40.102093338933187, -0.442560665594961 ] } },
{ "type": "Feature", "properties": { "No.": 136, "Sub-county": "Fafi", "ward": "Fafi", "Name": "Dayu 2", "Latitude": -0.44433187709017868, "Longitude": 40.039464910654587 }, "geometry": { "type": "Point", "coordinates": [ 40.039464910654587, -0.444331877090179 ] } },
{ "type": "Feature", "properties": { "No.": 137, "Sub-county": "Fafi", "ward": "Fafi", "Name": "Dayu 3", "Latitude": -0.44601452801063513, "Longitude": 40.000723684677368 }, "geometry": { "type": "Point", "coordinates": [ 40.000723684677368, -0.446014528010635 ] } },
{ "type": "Feature", "properties": { "No.": 138, "Sub-county": "Fafi", "ward": "Fafi", "Name": "Dayu 4", "Latitude": -0.44301957039144979, "Longitude": 39.917557254015577 }, "geometry": { "type": "Point", "coordinates": [ 39.917557254015577, -0.44301957039145 ] } },
{ "type": "Feature", "properties": { "No.": 139, "Sub-county": "Fafi", "ward": "Fafi", "Name": "Dayu 5", "Latitude": -0.51960031467556522, "Longitude": 39.919143293399877 }, "geometry": { "type": "Point", "coordinates": [ 39.919143293399877, -0.519600314675565 ] } },
{ "type": "Feature", "properties": { "No.": 140, "Sub-county": "Fafi", "ward": "Fafi", "Name": "Dayu 6", "Latitude": -0.52038930888707102, "Longitude": 39.917017839605613 }, "geometry": { "type": "Point", "coordinates": [ 39.917017839605613, -0.520389308887071 ] } },
{ "type": "Feature", "properties": { "No.": 141, "Sub-county": "Fafi", "ward": "Fafi", "Name": "Fafi centre 6", "Latitude": -0.75725400288154199, "Longitude": 40.469638597589672 }, "geometry": { "type": "Point", "coordinates": [ 40.469638597589672, -0.757254002881542 ] } },
{ "type": "Feature", "properties": { "No.": 142, "Sub-county": "Fafi", "ward": "fafi", "Name": "Fafi", "Latitude": -0.14604398711698369, "Longitude": 39.939175801591269 }, "geometry": { "type": "Point", "coordinates": [ 39.939175801591269, -0.146043987116984 ] } },
{ "type": "Feature", "properties": { "No.": 143, "Sub-county": "Fafi", "ward": "Fafi", "Name": "Hagarbul 1", "Latitude": -0.095875022940547824, "Longitude": 39.99224872421815 }, "geometry": { "type": "Point", "coordinates": [ 39.99224872421815, -0.095875022940548 ] } },
{ "type": "Feature", "properties": { "No.": 144, "Sub-county": "Ijara", "ward": "Ijara", "Name": "Bula Iftin 1", "Latitude": -1.604450375609505, "Longitude": 40.521087558539833 }, "geometry": { "type": "Point", "coordinates": [ 40.521087558539833, -1.604450375609505 ] } },
{ "type": "Feature", "properties": { "No.": 145, "Sub-county": "Ijara", "ward": "Ijara", "Name": "Bula Daldos", "Latitude": -1.6084906542444131, "Longitude": 40.511390889816063 }, "geometry": { "type": "Point", "coordinates": [ 40.511390889816063, -1.608490654244413 ] } },
{ "type": "Feature", "properties": { "No.": 146, "Sub-county": "Ijara", "ward": "Ijara", "Name": "Ijara 1", "Latitude": -1.5997292352046391, "Longitude": 40.51506829157357 }, "geometry": { "type": "Point", "coordinates": [ 40.51506829157357, -1.599729235204639 ] } },
{ "type": "Feature", "properties": { "No.": 147, "Sub-county": "Ijara", "ward": "Ijara", "Name": "Ijara 2", "Latitude": -1.598322619679893, "Longitude": 40.514335055821313 }, "geometry": { "type": "Point", "coordinates": [ 40.514335055821313, -1.598322619679893 ] } },
{ "type": "Feature", "properties": { "No.": 148, "Sub-county": "Ijara", "ward": "Ijara", "Name": "Bula Iftin 2", "Latitude": -1.6113412952812649, "Longitude": 40.522475469070919 }, "geometry": { "type": "Point", "coordinates": [ 40.522475469070919, -1.611341295281265 ] } },
{ "type": "Feature", "properties": { "No.": 149, "Sub-county": "Ijara", "ward": "Ijara", "Name": "Bula Galol", "Latitude": -1.62366975661584, "Longitude": 40.522490433065883 }, "geometry": { "type": "Point", "coordinates": [ 40.522490433065883, -1.62366975661584 ] } },
{ "type": "Feature", "properties": { "No.": 150, "Sub-county": "Ijara", "ward": "Ijara", "Name": "Bula Mzuri 1", "Latitude": -1.585632216717614, "Longitude": 40.517530803991619 }, "geometry": { "type": "Point", "coordinates": [ 40.517530803991619, -1.585632216717614 ] } },
{ "type": "Feature", "properties": { "No.": 151, "Sub-county": "Ijara", "ward": "Ijara", "Name": "Bula Mzuri 2", "Latitude": -1.585209483860442, "Longitude": 40.519741734244619 }, "geometry": { "type": "Point", "coordinates": [ 40.519741734244619, -1.585209483860442 ] } },
{ "type": "Feature", "properties": { "No.": 152, "Sub-county": "Ijara", "ward": "Ijara", "Name": "Ruqa 1", "Latitude": -1.557301633289689, "Longitude": 40.454203177388202 }, "geometry": { "type": "Point", "coordinates": [ 40.454203177388202, -1.557301633289689 ] } },
{ "type": "Feature", "properties": { "No.": 153, "Sub-county": "Ijara", "ward": "Ijara", "Name": "Ruqa 2", "Latitude": -1.555535881886285, "Longitude": 40.453679437565157 }, "geometry": { "type": "Point", "coordinates": [ 40.453679437565157, -1.555535881886285 ] } },
{ "type": "Feature", "properties": { "No.": 154, "Sub-county": "Ijara", "ward": "Ijara", "Name": "Ruqa 3", "Latitude": -1.5488170481563821, "Longitude": 40.44971397890496 }, "geometry": { "type": "Point", "coordinates": [ 40.44971397890496, -1.548817048156382 ] } },
{ "type": "Feature", "properties": { "No.": 155, "Sub-county": "Ijara", "ward": "Ijara", "Name": "Ruqa 4", "Latitude": -1.552157760027653, "Longitude": 40.449758870889802 }, "geometry": { "type": "Point", "coordinates": [ 40.449758870889802, -1.552157760027653 ] } },
{ "type": "Feature", "properties": { "No.": 156, "Sub-county": "Ijara", "ward": "Ijara", "Name": "Ruqa 5", "Latitude": -1.5524495579290629, "Longitude": 40.448210097413082 }, "geometry": { "type": "Point", "coordinates": [ 40.448210097413082, -1.552449557929063 ] } },
{ "type": "Feature", "properties": { "No.": 157, "Sub-county": "Ijara", "ward": "Ijara", "Name": "Ruqa 6", "Latitude": -1.5505640945661061, "Longitude": 40.44882362120579 }, "geometry": { "type": "Point", "coordinates": [ 40.44882362120579, -1.550564094566106 ] } },
{ "type": "Feature", "properties": { "No.": 158, "Sub-county": "Ijara", "ward": "Ijara", "Name": "Ruqa 7", "Latitude": -1.5489629471070869, "Longitude": 40.446638877943947 }, "geometry": { "type": "Point", "coordinates": [ 40.446638877943947, -1.548962947107087 ] } },
{ "type": "Feature", "properties": { "No.": 159, "Sub-county": "Ijara", "ward": "Ijara", "Name": "Ruqa 8", "Latitude": -1.552232580002374, "Longitude": 40.446369526034957 }, "geometry": { "type": "Point", "coordinates": [ 40.446369526034957, -1.552232580002374 ] } },
{ "type": "Feature", "properties": { "No.": 160, "Sub-county": "Ijara", "ward": "Ijara", "Name": "Ruqa 8", "Latitude": -1.55105042440179, "Longitude": 40.451734118222419 }, "geometry": { "type": "Point", "coordinates": [ 40.451734118222419, -1.55105042440179 ] } },
{ "type": "Feature", "properties": { "No.": 161, "Sub-county": "Ijara", "ward": "Ijara", "Name": "Ruqa 9", "Latitude": -1.5499730167658139, "Longitude": 40.444341904720048 }, "geometry": { "type": "Point", "coordinates": [ 40.444341904720048, -1.549973016765814 ] } },
{ "type": "Feature", "properties": { "No.": 162, "Sub-county": "Ijara", "ward": "Ijara", "Name": "Ruqa 10", "Latitude": -1.5466285638958059, "Longitude": 40.440769250927147 }, "geometry": { "type": "Point", "coordinates": [ 40.440769250927147, -1.546628563895806 ] } },
{ "type": "Feature", "properties": { "No.": 163, "Sub-county": "Ijara", "ward": "Ijara", "Name": "Ruqa 11", "Latitude": -1.543635764906985, "Longitude": 40.443279461079037 }, "geometry": { "type": "Point", "coordinates": [ 40.443279461079037, -1.543635764906985 ] } },
{ "type": "Feature", "properties": { "No.": 164, "Sub-county": "Ijara", "ward": "Ijara", "Name": "Wange/", "Latitude": -1.5023014698726349, "Longitude": 40.578598867358643 }, "geometry": { "type": "Point", "coordinates": [ 40.578598867358643, -1.502301469872635 ] } },
{ "type": "Feature", "properties": { "No.": 165, "Sub-county": "Ijara", "ward": "Ijara", "Name": "Wange/Welmare 2", "Latitude": -1.503850243349349, "Longitude": 40.58873697393328 }, "geometry": { "type": "Point", "coordinates": [ 40.58873697393328, -1.503850243349349 ] } },
{ "type": "Feature", "properties": { "No.": 166, "Sub-county": "Ijara", "ward": "Ijara", "Name": "Wange/Welmare 3", "Latitude": -1.501085645283426, "Longitude": 40.592032793819712 }, "geometry": { "type": "Point", "coordinates": [ 40.592032793819712, -1.501085645283426 ] } },
{ "type": "Feature", "properties": { "No.": 167, "Sub-county": "Ijara", "ward": "Ijara", "Name": "Wange/Welmare 4", "Latitude": -1.5065811724266489, "Longitude": 40.595583001620213 }, "geometry": { "type": "Point", "coordinates": [ 40.595583001620213, -1.506581172426649 ] } },
{ "type": "Feature", "properties": { "No.": 168, "Sub-county": "Ijara", "ward": "Ijara", "Name": "Moit 2", "Latitude": -1.5604983167096269, "Longitude": 40.546878939075889 }, "geometry": { "type": "Point", "coordinates": [ 40.546878939075889, -1.560498316709627 ] } },
{ "type": "Feature", "properties": { "No.": 169, "Sub-county": "Ijara", "ward": "Ijara", "Name": "daldalwein/konodinto", "Latitude": -1.559286233119155, "Longitude": 40.548023684689113 }, "geometry": { "type": "Point", "coordinates": [ 40.548023684689113, -1.559286233119155 ] } },
{ "type": "Feature", "properties": { "No.": 170, "Sub-county": "Ijara", "ward": "Ijara", "Name": "Moit 1", "Latitude": -1.5621499676515831, "Longitude": 40.529365453493178 }, "geometry": { "type": "Point", "coordinates": [ 40.529365453493178, -1.562149967651583 ] } },
{ "type": "Feature", "properties": { "No.": 171, "Sub-county": "Ijara", "ward": "Ijara", "Name": "Moit 2", "Latitude": -1.564226221950078, "Longitude": 40.527367760168147 }, "geometry": { "type": "Point", "coordinates": [ 40.527367760168147, -1.564226221950078 ] } },
{ "type": "Feature", "properties": { "No.": 172, "Sub-county": "Ijara", "ward": "Ijara", "Name": "Wardegoga 2", "Latitude": -1.5776751124060919, "Longitude": 40.533961270440393 }, "geometry": { "type": "Point", "coordinates": [ 40.533961270440393, -1.577675112406092 ] } },
{ "type": "Feature", "properties": { "No.": 173, "Sub-county": "Ijara", "ward": "Ijara", "Name": "Wardegoga 3", "Latitude": -1.583458696451989, "Longitude": 40.529790056849713 }, "geometry": { "type": "Point", "coordinates": [ 40.529790056849713, -1.583458696451989 ] } },
{ "type": "Feature", "properties": { "No.": 174, "Sub-county": "Ijara", "ward": "Ijara", "Name": "Wardegoga 1", "Latitude": -1.5831799920461549, "Longitude": 40.533420696123038 }, "geometry": { "type": "Point", "coordinates": [ 40.533420696123038, -1.583179992046155 ] } },
{ "type": "Feature", "properties": { "No.": 175, "Sub-county": "Ijara", "ward": "Ijara", "Name": "Warable/wange 2", "Latitude": -1.5069814592914099, "Longitude": 40.626051565825847 }, "geometry": { "type": "Point", "coordinates": [ 40.626051565825847, -1.50698145929141 ] } },
{ "type": "Feature", "properties": { "No.": 176, "Sub-county": "Ijara", "ward": "Ijara", "Name": "Warable/Wange 1", "Latitude": -1.508316995840171, "Longitude": 40.629588680130759 }, "geometry": { "type": "Point", "coordinates": [ 40.629588680130759, -1.508316995840171 ] } },
{ "type": "Feature", "properties": { "No.": 177, "Sub-county": "Ijara", "ward": "Ijara", "Name": "Arbabuthu/Jede aley", "Latitude": -1.5806445301528169, "Longitude": 40.622011287190958 }, "geometry": { "type": "Point", "coordinates": [ 40.622011287190958, -1.580644530152817 ] } },
{ "type": "Feature", "properties": { "No.": 178, "Sub-county": "Ijara", "ward": "Ijara", "Name": "Damaa", "Latitude": -1.5793548208385739, "Longitude": 40.571647156457551 }, "geometry": { "type": "Point", "coordinates": [ 40.571647156457551, -1.579354820838574 ] } },
{ "type": "Feature", "properties": { "No.": 179, "Sub-county": "Ijara", "ward": "Ijara", "Name": "Kulan/Bilgan/Holon 3", "Latitude": -1.603181241788326, "Longitude": 40.578096638278481 }, "geometry": { "type": "Point", "coordinates": [ 40.578096638278481, -1.603181241788326 ] } },
{ "type": "Feature", "properties": { "No.": 180, "Sub-county": "Ijara", "ward": "Ijara", "Name": "Kulan/Bilgan/Holon 2", "Latitude": -1.6052574960868209, "Longitude": 40.585477628784652 }, "geometry": { "type": "Point", "coordinates": [ 40.585477628784652, -1.605257496086821 ] } },
{ "type": "Feature", "properties": { "No.": 181, "Sub-county": "Ijara", "ward": "Ijara", "Name": "Hursan/Kamuthu", "Latitude": -1.774179488263036, "Longitude": 40.447012042568119 }, "geometry": { "type": "Point", "coordinates": [ 40.447012042568119, -1.774179488263036 ] } },
{ "type": "Feature", "properties": { "No.": 182, "Sub-county": "Ijara", "ward": "Ijara", "Name": "Bula Kokon 1", "Latitude": -1.6909100002723549, "Longitude": 40.507314604068618 }, "geometry": { "type": "Point", "coordinates": [ 40.507314604068618, -1.690910000272355 ] } },
{ "type": "Feature", "properties": { "No.": 183, "Sub-county": "Ijara", "ward": "Ijara", "Name": "Bula Kokon 2", "Latitude": -1.6903839223251009, "Longitude": 40.506855864098611 }, "geometry": { "type": "Point", "coordinates": [ 40.506855864098611, -1.690383922325101 ] } },
{ "type": "Feature", "properties": { "No.": 184, "Sub-county": "Ijara", "ward": "Ijara", "Name": "Bula Kokon 3", "Latitude": -1.6870236871166751, "Longitude": 40.506514614870163 }, "geometry": { "type": "Point", "coordinates": [ 40.506514614870163, -1.687023687116675 ] } },
{ "type": "Feature", "properties": { "No.": 185, "Sub-county": "Ijara", "ward": "Masalani", "Name": "Warabesa 1", "Latitude": -1.7747762944676371, "Longitude": 40.389147852352977 }, "geometry": { "type": "Point", "coordinates": [ 40.389147852352977, -1.774776294467637 ] } },
{ "type": "Feature", "properties": { "No.": 186, "Sub-county": "Ijara", "ward": "Masalani", "Name": "Warabesa 2", "Latitude": -1.746283912844377, "Longitude": 40.363629564724818 }, "geometry": { "type": "Point", "coordinates": [ 40.363629564724818, -1.746283912844377 ] } },
{ "type": "Feature", "properties": { "No.": 187, "Sub-county": "Ijara", "ward": "Ijara", "Name": "Katolo/Bula Hil 1", "Latitude": -1.587199582856631, "Longitude": 40.494001696348448 }, "geometry": { "type": "Point", "coordinates": [ 40.494001696348448, -1.587199582856631 ] } },
{ "type": "Feature", "properties": { "No.": 188, "Sub-county": "Ijara", "ward": "IJara", "Name": "Katolo/Bula Hil 2", "Latitude": -1.5857518005727551, "Longitude": 40.489972596814248 }, "geometry": { "type": "Point", "coordinates": [ 40.489972596814248, -1.585751800572755 ] } },
{ "type": "Feature", "properties": { "No.": 189, "Sub-county": "Ijara", "ward": "Ijara", "Name": "Katolo/Bula Hil 3", "Latitude": -1.582522348230232, "Longitude": 40.481067052300638 }, "geometry": { "type": "Point", "coordinates": [ 40.481067052300638, -1.582522348230232 ] } },
{ "type": "Feature", "properties": { "No.": 190, "Sub-county": "Ijara", "ward": "Ijara", "Name": "Katolo/Bula Hil 4", "Latitude": -1.5821884604554619, "Longitude": 40.48161417932652 }, "geometry": { "type": "Point", "coordinates": [ 40.48161417932652, -1.582188460455462 ] } },
{ "type": "Feature", "properties": { "No.": 191, "Sub-county": "Ijara", "ward": "Ijara", "Name": "Bula Kokon 4", "Latitude": -1.691446921744755, "Longitude": 40.510294858601242 }, "geometry": { "type": "Point", "coordinates": [ 40.510294858601242, -1.691446921744755 ] } },
{ "type": "Feature", "properties": { "No.": 192, "Sub-county": "Ijara", "ward": "Ijara", "Name": "Bula Kokon 5", "Latitude": -1.6895614378401731, "Longitude": 40.504816573893351 }, "geometry": { "type": "Point", "coordinates": [ 40.504816573893351, -1.689561437840173 ] } },
{ "type": "Feature", "properties": { "No.": 193, "Sub-county": "Ijara", "ward": "Ijara", "Name": "Katolo/Bula Hil 5", "Latitude": -1.619113221698435, "Longitude": 40.440367816023837 }, "geometry": { "type": "Point", "coordinates": [ 40.440367816023837, -1.619113221698435 ] } },
{ "type": "Feature", "properties": { "No.": 194, "Sub-county": "Ijara", "ward": "Sangailu", "Name": "Handaro", "Latitude": -1.541129382942511, "Longitude": 40.440205080805903 }, "geometry": { "type": "Point", "coordinates": [ 40.440205080805903, -1.541129382942511 ] } },
{ "type": "Feature", "properties": { "No.": 195, "Sub-county": "Ijara", "ward": "Masalani", "Name": "Bula warde", "Latitude": -1.9047970698197081, "Longitude": 40.250558028093337 }, "geometry": { "type": "Point", "coordinates": [ 40.250558028093337, -1.904797069819708 ] } },
{ "type": "Feature", "properties": { "No.": 196, "Sub-county": "Ijara", "ward": "Masalani", "Name": "Waraft/Jirole", "Latitude": -1.8835260382114309, "Longitude": 40.251374093653041 }, "geometry": { "type": "Point", "coordinates": [ 40.251374093653041, -1.883526038211431 ] } },
{ "type": "Feature", "properties": { "No.": 197, "Sub-county": "Ijara", "ward": "Masalani", "Name": "Hara center 3", "Latitude": -1.825270269049502, "Longitude": 40.26060129037748 }, "geometry": { "type": "Point", "coordinates": [ 40.26060129037748, -1.825270269049502 ] } },
{ "type": "Feature", "properties": { "No.": 198, "Sub-county": "Ijara", "ward": "Masalani", "Name": "Hara center 1", "Latitude": -1.8229432702258339, "Longitude": 40.25691041168772 }, "geometry": { "type": "Point", "coordinates": [ 40.25691041168772, -1.822943270225834 ] } },
{ "type": "Feature", "properties": { "No.": 199, "Sub-county": "Ijara", "ward": "Masalani", "Name": "Hara center 2", "Latitude": -1.831616188758209, "Longitude": 40.266493122121261 }, "geometry": { "type": "Point", "coordinates": [ 40.266493122121261, -1.831616188758209 ] } },
{ "type": "Feature", "properties": { "No.": 200, "Sub-county": "Ijara", "ward": "Masalani", "Name": "Warabesa 3", "Latitude": -1.73181217879399, "Longitude": 40.347950200735212 }, "geometry": { "type": "Point", "coordinates": [ 40.347950200735212, -1.73181217879399 ] } },
{ "type": "Feature", "properties": { "No.": 201, "Sub-county": "Ijara", "ward": "Ijara", "Name": "Dama 2", "Latitude": -1.5676047586960411, "Longitude": 40.538768646116083 }, "geometry": { "type": "Point", "coordinates": [ 40.538768646116083, -1.567604758696041 ] } },
{ "type": "Feature", "properties": { "No.": 202, "Sub-county": "Ijara", "ward": "Sangailu", "Name": "Handaro/Korobo", "Latitude": -1.463203310083677, "Longitude": 40.655782751547008 }, "geometry": { "type": "Point", "coordinates": [ 40.655782751547008, -1.463203310083677 ] } },
{ "type": "Feature", "properties": { "No.": 203, "Sub-county": "Ijara", "ward": "Sangailu", "Name": "Age/Sabenal", "Latitude": -1.434212783072164, "Longitude": 40.653539783236418 }, "geometry": { "type": "Point", "coordinates": [ 40.653539783236418, -1.434212783072164 ] } },
{ "type": "Feature", "properties": { "No.": 204, "Sub-county": "Ijara", "ward": "Sangailu", "Name": "Bobta/Tumtumo 1", "Latitude": -1.391231175633356, "Longitude": 40.703712463428928 }, "geometry": { "type": "Point", "coordinates": [ 40.703712463428928, -1.391231175633356 ] } },
{ "type": "Feature", "properties": { "No.": 205, "Sub-county": "Ijara", "ward": "Sangailu", "Name": "Bobta?Tumtumo 2", "Latitude": -1.38396900013783, "Longitude": 40.715350689490073 }, "geometry": { "type": "Point", "coordinates": [ 40.715350689490073, -1.38396900013783 ] } },
{ "type": "Feature", "properties": { "No.": 206, "Sub-county": "Ijara", "ward": "Sangailu", "Name": "Bobta/Tumtumo 3", "Latitude": -1.384460255445048, "Longitude": 40.71088737646857 }, "geometry": { "type": "Point", "coordinates": [ 40.71088737646857, -1.384460255445048 ] } },
{ "type": "Feature", "properties": { "No.": 207, "Sub-county": "Ijara", "ward": "Sangailu", "Name": "Wakabharey", "Latitude": -1.319391550838271, "Longitude": 40.716052021080003 }, "geometry": { "type": "Point", "coordinates": [ 40.716052021080003, -1.319391550838271 ] } },
{ "type": "Feature", "properties": { "No.": 208, "Sub-county": "Ijara", "ward": "Sangailu", "Name": "Sangailu 1", "Latitude": -1.318644972049011, "Longitude": 40.73434158544547 }, "geometry": { "type": "Point", "coordinates": [ 40.73434158544547, -1.318644972049011 ] } },
{ "type": "Feature", "properties": { "No.": 209, "Sub-county": "Ijara", "ward": "Sangailu", "Name": "Sangailu 2", "Latitude": -1.3129987679588091, "Longitude": 40.735272384974941 }, "geometry": { "type": "Point", "coordinates": [ 40.735272384974941, -1.312998767958809 ] } },
{ "type": "Feature", "properties": { "No.": 210, "Sub-county": "Ijara", "ward": "Sangailu", "Name": "Sangailu 3", "Latitude": -1.310117490943117, "Longitude": 40.733263732518132 }, "geometry": { "type": "Point", "coordinates": [ 40.733263732518132, -1.310117490943117 ] } },
{ "type": "Feature", "properties": { "No.": 211, "Sub-county": "Ijara", "ward": "Sangailu", "Name": "Sangailu 4", "Latitude": -1.303744099720519, "Longitude": 40.731489395915077 }, "geometry": { "type": "Point", "coordinates": [ 40.731489395915077, -1.303744099720519 ] } },
{ "type": "Feature", "properties": { "No.": 212, "Sub-county": "Ijara", "ward": "Hulugho", "Name": "Mufti 1", "Latitude": -1.153863155869564, "Longitude": 40.965582649625993 }, "geometry": { "type": "Point", "coordinates": [ 40.965582649625993, -1.153863155869564 ] } },
{ "type": "Feature", "properties": { "No.": 213, "Sub-county": "Ijara", "ward": "Hulugho", "Name": "Mufti 2", "Latitude": -1.163980348845449, "Longitude": 40.990367207062206 }, "geometry": { "type": "Point", "coordinates": [ 40.990367207062206, -1.163980348845449 ] } },
{ "type": "Feature", "properties": { "No.": 214, "Sub-county": "Ijara", "ward": "Hulugho", "Name": "Keiro", "Latitude": -1.1525319994244301, "Longitude": 41.042989699905213 }, "geometry": { "type": "Point", "coordinates": [ 41.042989699905213, -1.15253199942443 ] } },
{ "type": "Feature", "properties": { "No.": 215, "Sub-county": "Ijara", "ward": "Hulugho", "Name": "Bula Nyayo", "Latitude": -1.1559675546321491, "Longitude": 41.056938765075977 }, "geometry": { "type": "Point", "coordinates": [ 41.056938765075977, -1.155967554632149 ] } },
{ "type": "Feature", "properties": { "No.": 216, "Sub-county": "Ijara", "ward": "Hulugho", "Name": "Kora Hindi 1", "Latitude": -1.2591958080042469, "Longitude": 40.796247026026258 }, "geometry": { "type": "Point", "coordinates": [ 40.796247026026258, -1.259195808004247 ] } },
{ "type": "Feature", "properties": { "No.": 217, "Sub-county": "Ijara", "ward": "Hulugho", "Name": "Kora Hindi 2", "Latitude": -1.261025087635073, "Longitude": 40.784582944422652 }, "geometry": { "type": "Point", "coordinates": [ 40.784582944422652, -1.261025087635073 ] } },
{ "type": "Feature", "properties": { "No.": 218, "Sub-county": "Ijara", "ward": "Hulugho", "Name": "Kora Hindi 3", "Latitude": -1.238637419785714, "Longitude": 40.781590165379967 }, "geometry": { "type": "Point", "coordinates": [ 40.781590165379967, -1.238637419785714 ] } },
{ "type": "Feature", "properties": { "No.": 219, "Sub-county": "Ijara", "ward": "Hulugho", "Name": "Kora Hindi 4", "Latitude": -1.2445421793007669, "Longitude": 40.795917367859573 }, "geometry": { "type": "Point", "coordinates": [ 40.795917367859573, -1.244542179300767 ] } },
{ "type": "Feature", "properties": { "No.": 220, "Sub-county": "Ijara", "ward": "Hulugho", "Name": "Kora Hindi 5", "Latitude": -1.225848622083979, "Longitude": 40.836539657046579 }, "geometry": { "type": "Point", "coordinates": [ 40.836539657046579, -1.225848622083979 ] } },
{ "type": "Feature", "properties": { "No.": 221, "Sub-county": "Ijara", "ward": "Hulugho", "Name": "Kora Hindi 6", "Latitude": -1.2354216366891191, "Longitude": 40.819549333690993 }, "geometry": { "type": "Point", "coordinates": [ 40.819549333690993, -1.235421636689119 ] } },
{ "type": "Feature", "properties": { "No.": 222, "Sub-county": "Ijara", "ward": "Hulugho", "Name": "Kora Hindi 7", "Latitude": -1.261605221369585, "Longitude": 40.78162248480804 }, "geometry": { "type": "Point", "coordinates": [ 40.78162248480804, -1.261605221369585 ] } },
{ "type": "Feature", "properties": { "No.": 223, "Sub-county": "Ijara", "ward": "Hulugho", "Name": "Kora Hindi 8", "Latitude": -1.2229366416115861, "Longitude": 40.86296886938063 }, "geometry": { "type": "Point", "coordinates": [ 40.86296886938063, -1.222936641611586 ] } },
{ "type": "Feature", "properties": { "No.": 224, "Sub-county": "Ijara", "ward": "Hulugho", "Name": "Kora Hindi 9", "Latitude": -1.2136965171159531, "Longitude": 40.869655759055853 }, "geometry": { "type": "Point", "coordinates": [ 40.869655759055853, -1.213696517115953 ] } },
{ "type": "Feature", "properties": { "No.": 225, "Sub-county": "Ijara", "ward": "Hulugho", "Name": "Haytagan", "Latitude": -1.6169573334002241, "Longitude": 41.554960952553849 }, "geometry": { "type": "Point", "coordinates": [ 41.554960952553849, -1.616957333400224 ] } },
{ "type": "Feature", "properties": { "No.": 226, "Sub-county": "Ijara", "ward": "Hulugho", "Name": "Gadudad", "Latitude": -1.190457232335997, "Longitude": 41.241721055345877 }, "geometry": { "type": "Point", "coordinates": [ 41.241721055345877, -1.190457232335997 ] } },
{ "type": "Feature", "properties": { "No.": 227, "Sub-county": "Ijara", "ward": "Hulugho", "Name": "Garabey", "Latitude": -1.150213080457819, "Longitude": 41.100239526867007 }, "geometry": { "type": "Point", "coordinates": [ 41.100239526867007, -1.150213080457819 ] } },
{ "type": "Feature", "properties": { "No.": 228, "Sub-county": "Ijara", "ward": "Hulugho", "Name": "Hulugho center 2", "Latitude": -1.153583996809324, "Longitude": 41.066155457985921 }, "geometry": { "type": "Point", "coordinates": [ 41.066155457985921, -1.153583996809324 ] } },
{ "type": "Feature", "properties": { "No.": 229, "Sub-county": "Ijara", "ward": "Hulugho", "Name": "Hulugho center 3", "Latitude": -1.151825819920332, "Longitude": 41.064623517093679 }, "geometry": { "type": "Point", "coordinates": [ 41.064623517093679, -1.151825819920332 ] } },
{ "type": "Feature", "properties": { "No.": 230, "Sub-county": "Ijara", "ward": "Hulugho", "Name": "Hulugho center 1", "Latitude": -1.1626722199928641, "Longitude": 41.06573207347774 }, "geometry": { "type": "Point", "coordinates": [ 41.06573207347774, -1.162672219992864 ] } },
{ "type": "Feature", "properties": { "No.": 231, "Sub-county": "Ijara", "ward": "Hulugho", "Name": "Gilomata", "Latitude": -1.1030089397369129, "Longitude": 41.079563172735803 }, "geometry": { "type": "Point", "coordinates": [ 41.079563172735803, -1.103008939736913 ] } },
{ "type": "Feature", "properties": { "No.": 232, "Sub-county": "Ijara", "ward": "Masalani", "Name": "Gababa 2", "Latitude": -1.516455223788939, "Longitude": 40.151474031308872 }, "geometry": { "type": "Point", "coordinates": [ 40.151474031308872, -1.516455223788939 ] } },
{ "type": "Feature", "properties": { "No.": 233, "Sub-county": "Ijara", "ward": "Masalani", "Name": "Gababa 1", "Latitude": -1.549505070970616, "Longitude": 40.153665288534491 }, "geometry": { "type": "Point", "coordinates": [ 40.153665288534491, -1.549505070970616 ] } },
{ "type": "Feature", "properties": { "No.": 234, "Sub-county": "Ijara", "ward": "Masalani", "Name": "Abdi Gure", "Latitude": -1.452920076045833, "Longitude": 40.257922915691744 }, "geometry": { "type": "Point", "coordinates": [ 40.257922915691744, -1.452920076045833 ] } },
{ "type": "Feature", "properties": { "No.": 235, "Sub-county": "Ijara", "ward": "Masalani", "Name": "Hara center 4", "Latitude": -1.8184091767020769, "Longitude": 40.205751278870871 }, "geometry": { "type": "Point", "coordinates": [ 40.205751278870871, -1.818409176702077 ] } },
{ "type": "Feature", "properties": { "No.": 236, "Sub-county": "Ijara", "ward": "Masalani", "Name": "Hara center 5", "Latitude": -1.7899131369406029, "Longitude": 40.26971627500776 }, "geometry": { "type": "Point", "coordinates": [ 40.26971627500776, -1.789913136940603 ] } },
{ "type": "Feature", "properties": { "No.": 237, "Sub-county": "Ijara", "ward": "Masalani", "Name": "Bula Dekaley", "Latitude": -1.672965286337335, "Longitude": 40.304685896218949 }, "geometry": { "type": "Point", "coordinates": [ 40.304685896218949, -1.672965286337335 ] } },
{ "type": "Feature", "properties": { "No.": 238, "Sub-county": "Ijara", "ward": "Ijara", "Name": "Sagar/Dubo 3", "Latitude": -1.42769637838014, "Longitude": 40.315653494146908 }, "geometry": { "type": "Point", "coordinates": [ 40.315653494146908, -1.42769637838014 ] } },
{ "type": "Feature", "properties": { "No.": 239, "Sub-county": "Ijara", "ward": "Ijara", "Name": "Sagar/Dubo 4", "Latitude": -1.4784540402213511, "Longitude": 40.302909943644558 }, "geometry": { "type": "Point", "coordinates": [ 40.302909943644558, -1.478454040221351 ] } },
{ "type": "Feature", "properties": { "No.": 240, "Sub-county": "Ijara", "ward": "Ijara", "Name": "Sagar/Dubo 1", "Latitude": -1.478751378959932, "Longitude": 40.33663041895943 }, "geometry": { "type": "Point", "coordinates": [ 40.33663041895943, -1.478751378959932 ] } },
{ "type": "Feature", "properties": { "No.": 241, "Sub-county": "Ijara", "ward": "Ijara", "Name": "Sagar/Dubo 2", "Latitude": -1.476350045451621, "Longitude": 40.344459800418242 }, "geometry": { "type": "Point", "coordinates": [ 40.344459800418242, -1.476350045451621 ] } },
{ "type": "Feature", "properties": { "No.": 242, "Sub-county": "Ijara", "ward": "Ijara", "Name": "Shewo", "Latitude": -1.494999971440458, "Longitude": 40.489494850017422 }, "geometry": { "type": "Point", "coordinates": [ 40.489494850017422, -1.494999971440458 ] } },
{ "type": "Feature", "properties": { "No.": 243, "Sub-county": "Ijara", "ward": "Ijara", "Name": "Kulan/Bilgan/Holon 1", "Latitude": -1.7218403414913439, "Longitude": 40.615133394838658 }, "geometry": { "type": "Point", "coordinates": [ 40.615133394838658, -1.721840341491344 ] } },
{ "type": "Feature", "properties": { "No.": 244, "Sub-county": "Ijara", "ward": "Sangailu", "Name": "Mare Marer/Kinisa 1", "Latitude": -1.216241672079339, "Longitude": 40.669042200920288 }, "geometry": { "type": "Point", "coordinates": [ 40.669042200920288, -1.216241672079339 ] } },
{ "type": "Feature", "properties": { "No.": 245, "Sub-county": "Ijara", "ward": "Sangailu", "Name": "Mare Marer/Kinisa 2", "Latitude": -1.255470993914972, "Longitude": 40.666821856209417 }, "geometry": { "type": "Point", "coordinates": [ 40.666821856209417, -1.255470993914972 ] } },
{ "type": "Feature", "properties": { "No.": 246, "Sub-county": "Ijara", "ward": "Sangailu", "Name": "Darow/Gedi Kardob 1", "Latitude": -1.2739124595925251, "Longitude": 40.616190240137811 }, "geometry": { "type": "Point", "coordinates": [ 40.616190240137811, -1.273912459592525 ] } },
{ "type": "Feature", "properties": { "No.": 247, "Sub-county": "Ijara", "ward": "Sangailu", "Name": "Mare Marer/Kinisa 3", "Latitude": -1.284513232011447, "Longitude": 40.680880807435713 }, "geometry": { "type": "Point", "coordinates": [ 40.680880807435713, -1.284513232011447 ] } },
{ "type": "Feature", "properties": { "No.": 248, "Sub-county": "Ijara", "ward": "Sangailu", "Name": "Habargolisa/Maderdo/Kandala", "Latitude": -1.3050813160584049, "Longitude": 40.696756110521633 }, "geometry": { "type": "Point", "coordinates": [ 40.696756110521633, -1.305081316058405 ] } },
{ "type": "Feature", "properties": { "No.": 249, "Sub-county": "Ijara", "ward": "Sangailu", "Name": "Sangailu 6", "Latitude": -1.319124107570667, "Longitude": 40.753292486108293 }, "geometry": { "type": "Point", "coordinates": [ 40.753292486108293, -1.319124107570667 ] } },
{ "type": "Feature", "properties": { "No.": 250, "Sub-county": "Ijara", "ward": "Sangailu", "Name": "Mata Arba", "Latitude": -1.3308819155158009, "Longitude": 40.757287167422241 }, "geometry": { "type": "Point", "coordinates": [ 40.757287167422241, -1.330881915515801 ] } },
{ "type": "Feature", "properties": { "No.": 251, "Sub-county": "Ijara", "ward": "Sangailu", "Name": "Dad Hamun1", "Latitude": -1.3749268321392989, "Longitude": 40.636296156362818 }, "geometry": { "type": "Point", "coordinates": [ 40.636296156362818, -1.374926832139299 ] } },
{ "type": "Feature", "properties": { "No.": 252, "Sub-county": "Ijara", "ward": "Sangailu", "Name": "Age/Sabenal 2", "Latitude": -1.397666781755011, "Longitude": 40.647827728311157 }, "geometry": { "type": "Point", "coordinates": [ 40.647827728311157, -1.397666781755011 ] } },
{ "type": "Feature", "properties": { "No.": 253, "Sub-county": "Ijara", "ward": "Sangailu", "Name": "Dad Hamun 2", "Latitude": -1.4059534831215099, "Longitude": 40.596245921053232 }, "geometry": { "type": "Point", "coordinates": [ 40.596245921053232, -1.40595348312151 ] } },
{ "type": "Feature", "properties": { "No.": 254, "Sub-county": "Ijara", "ward": "Sangailu", "Name": "Dad Hamun 3", "Latitude": -1.408293409716419, "Longitude": 40.59994326362861 }, "geometry": { "type": "Point", "coordinates": [ 40.59994326362861, -1.408293409716419 ] } },
{ "type": "Feature", "properties": { "No.": 255, "Sub-county": "Ijara", "ward": "Sangailu", "Name": "Handaro/Korobo", "Latitude": -1.450502582823469, "Longitude": 40.658376789645096 }, "geometry": { "type": "Point", "coordinates": [ 40.658376789645096, -1.450502582823469 ] } },
{ "type": "Feature", "properties": { "No.": 256, "Sub-county": "Ijara", "ward": "Hulugho", "Name": "Kora Hindi 11", "Latitude": -1.2085334884759411, "Longitude": 40.86446323893739 }, "geometry": { "type": "Point", "coordinates": [ 40.86446323893739, -1.208533488475941 ] } },
{ "type": "Feature", "properties": { "No.": 257, "Sub-county": "Ijara", "ward": "Hulugho", "Name": "Kora Hindi 10", "Latitude": -1.218639773644836, "Longitude": 40.871588864849159 }, "geometry": { "type": "Point", "coordinates": [ 40.871588864849159, -1.218639773644836 ] } },
{ "type": "Feature", "properties": { "No.": 258, "Sub-county": "Ijara", "ward": "Hulugho", "Name": "Ilkabere", "Latitude": -0.95815164699230249, "Longitude": 41.011027805471691 }, "geometry": { "type": "Point", "coordinates": [ 41.011027805471691, -0.958151646992302 ] } },
{ "type": "Feature", "properties": { "No.": 259, "Sub-county": "Ijara", "ward": "Hulugho", "Name": "Gilomata 2", "Latitude": -1.0263844236106829, "Longitude": 41.053678138772398 }, "geometry": { "type": "Point", "coordinates": [ 41.053678138772398, -1.026384423610683 ] } },
{ "type": "Feature", "properties": { "No.": 260, "Sub-county": "Ijara", "ward": "Hulugho", "Name": "Muhumed Gibas", "Latitude": -1.070834949056918, "Longitude": 41.131915394361137 }, "geometry": { "type": "Point", "coordinates": [ 41.131915394361137, -1.070834949056918 ] } },
{ "type": "Feature", "properties": { "No.": 261, "Sub-county": "Ijara", "ward": "Hulugho", "Name": "Kolbio 1", "Latitude": -1.134308689886621, "Longitude": 41.20861262920058 }, "geometry": { "type": "Point", "coordinates": [ 41.20861262920058, -1.134308689886621 ] } },
{ "type": "Feature", "properties": { "No.": 262, "Sub-county": "Ijara", "ward": "Hulugho", "Name": "Kolbio 2", "Latitude": -1.1413058460716721, "Longitude": 41.20403619818071 }, "geometry": { "type": "Point", "coordinates": [ 41.20403619818071, -1.141305846071672 ] } },
{ "type": "Feature", "properties": { "No.": 263, "Sub-county": "Ijara", "ward": "Hulugho", "Name": "Hulugho center 4", "Latitude": -1.185696580575911, "Longitude": 41.066685092613852 }, "geometry": { "type": "Point", "coordinates": [ 41.066685092613852, -1.185696580575911 ] } },
{ "type": "Feature", "properties": { "No.": 264, "Sub-county": "Ijara", "ward": "Hulugho", "Name": "Haytagan 2", "Latitude": -1.431246667557629, "Longitude": 41.340120382165622 }, "geometry": { "type": "Point", "coordinates": [ 41.340120382165622, -1.431246667557629 ] } },
{ "type": "Feature", "properties": { "No.": 265, "Sub-county": "Ijara", "ward": "Sangailu", "Name": "Darow/Gedi Kardob 2", "Latitude": -1.135494314442079, "Longitude": 40.570420629681493 }, "geometry": { "type": "Point", "coordinates": [ 40.570420629681493, -1.135494314442079 ] } },
{ "type": "Feature", "properties": { "No.": 266, "Sub-county": "Ijara", "ward": "sangailu", "Name": "Sangailu 5", "Latitude": -1.192054287091066, "Longitude": 40.652996842853938 }, "geometry": { "type": "Point", "coordinates": [ 40.652996842853938, -1.192054287091066 ] } },
{ "type": "Feature", "properties": { "No.": 267, "Sub-county": "Ijara", "ward": "ijara", "Name": "Ijara", "Latitude": -1.4264691711141, "Longitude": 40.316648183254827 }, "geometry": { "type": "Point", "coordinates": [ 40.316648183254827, -1.4264691711141 ] } },
{ "type": "Feature", "properties": { "No.": 268, "Sub-county": "Lagdera", "ward": "Benane", "Name": "Hagarjarir", "Latitude": 0.40032263524716999, "Longitude": 38.706324112813682 }, "geometry": { "type": "Point", "coordinates": [ 38.706324112813682, 0.40032263524717 ] } },
{ "type": "Feature", "properties": { "No.": 269, "Sub-county": "Lagdera", "ward": "Benane", "Name": "Lafagari 2", "Latitude": 0.43839145313017303, "Longitude": 38.693821558827352 }, "geometry": { "type": "Point", "coordinates": [ 38.693821558827352, 0.438391453130173 ] } },
{ "type": "Feature", "properties": { "No.": 270, "Sub-county": "Lagdera", "ward": "Modogashe", "Name": "Tubere", "Latitude": 0.72877343033062825, "Longitude": 39.210103530412539 }, "geometry": { "type": "Point", "coordinates": [ 39.210103530412539, 0.728773430330628 ] } },
{ "type": "Feature", "properties": { "No.": 271, "Sub-county": "Lagdera", "ward": "goreale", "Name": "goreale 1", "Latitude": 0.46945503871746991, "Longitude": 39.752810580424658 }, "geometry": { "type": "Point", "coordinates": [ 39.752810580424658, 0.46945503871747 ] } },
{ "type": "Feature", "properties": { "No.": 272, "Sub-county": "Lagdera", "ward": "goreale", "Name": "goreale 2", "Latitude": 0.39850397318075509, "Longitude": 39.896687836924961 }, "geometry": { "type": "Point", "coordinates": [ 39.896687836924961, 0.398503973180755 ] } },
{ "type": "Feature", "properties": { "No.": 273, "Sub-county": "Lagdera", "ward": "goreale", "Name": "goreale 3", "Latitude": 0.38470407102601789, "Longitude": 39.718083777010122 }, "geometry": { "type": "Point", "coordinates": [ 39.718083777010122, 0.384704071026018 ] } },
{ "type": "Feature", "properties": { "No.": 274, "Sub-county": "Lagdera", "ward": "goreale", "Name": "goreale 4", "Latitude": 0.1013115739462401, "Longitude": 39.436078581861992 }, "geometry": { "type": "Point", "coordinates": [ 39.436078581861992, 0.10131157394624 ] } },
{ "type": "Feature", "properties": { "No.": 275, "Sub-county": "Lagdera", "ward": "goreale", "Name": "goreale 5", "Latitude": 0.10215819371033449, "Longitude": 39.513921420898797 }, "geometry": { "type": "Point", "coordinates": [ 39.513921420898797, 0.102158193710334 ] } },
{ "type": "Feature", "properties": { "No.": 276, "Sub-county": "Lagdera", "ward": "baraki", "Name": "baraki 1", "Latitude": 0.55750878555680383, "Longitude": 39.55638325033982 }, "geometry": { "type": "Point", "coordinates": [ 39.55638325033982, 0.557508785556804 ] } },
{ "type": "Feature", "properties": { "No.": 277, "Sub-county": "Lagdera", "ward": "Baraki", "Name": "Baraki 2", "Latitude": 0.47811124477137762, "Longitude": 39.319260447503609 }, "geometry": { "type": "Point", "coordinates": [ 39.319260447503609, 0.478111244771378 ] } },
{ "type": "Feature", "properties": { "No.": 278, "Sub-county": "Lagdera", "ward": "Baraki", "Name": "Baraki 3", "Latitude": 0.43877421191423199, "Longitude": 39.34131874062993 }, "geometry": { "type": "Point", "coordinates": [ 39.34131874062993, 0.438774211914232 ] } },
{ "type": "Feature", "properties": { "No.": 279, "Sub-county": "Lagdera", "ward": "Baraki", "Name": "Baraki 4", "Latitude": 0.40510953147651851, "Longitude": 39.388290744450558 }, "geometry": { "type": "Point", "coordinates": [ 39.388290744450558, 0.405109531476519 ] } },
{ "type": "Feature", "properties": { "No.": 280, "Sub-county": "Lagdera", "ward": "baraki", "Name": "baraki 6", "Latitude": 0.37652456962337072, "Longitude": 39.360829477920653 }, "geometry": { "type": "Point", "coordinates": [ 39.360829477920653, 0.376524569623371 ] } },
{ "type": "Feature", "properties": { "No.": 281, "Sub-county": "Lagdera", "ward": "Baraki", "Name": "Baraki 7", "Latitude": 0.29392526682100611, "Longitude": 39.478663555996029 }, "geometry": { "type": "Point", "coordinates": [ 39.478663555996029, 0.293925266821006 ] } },
{ "type": "Feature", "properties": { "No.": 282, "Sub-county": "Lagdera", "ward": "Baraki", "Name": "Baraki 8", "Latitude": 0.26006047625723372, "Longitude": 39.391261610168257 }, "geometry": { "type": "Point", "coordinates": [ 39.391261610168257, 0.260060476257234 ] } },
{ "type": "Feature", "properties": { "No.": 283, "Sub-county": "Lagdera", "ward": "Baraki", "Name": "Baraki 9", "Latitude": 0.24280482615632959, "Longitude": 39.402098343148673 }, "geometry": { "type": "Point", "coordinates": [ 39.402098343148673, 0.24280482615633 ] } },
{ "type": "Feature", "properties": { "No.": 284, "Sub-county": "Lagdera", "ward": "Sabena", "Name": "Sabena 1", "Latitude": 0.91408194056340386, "Longitude": 39.497735590318023 }, "geometry": { "type": "Point", "coordinates": [ 39.497735590318023, 0.914081940563404 ] } },
{ "type": "Feature", "properties": { "No.": 285, "Sub-county": "Lagdera", "ward": "Baraki", "Name": "Baraki 5", "Latitude": 0.64980188465805599, "Longitude": 39.403837761936572 }, "geometry": { "type": "Point", "coordinates": [ 39.403837761936572, 0.649801884658056 ] } },
{ "type": "Feature", "properties": { "No.": 286, "Sub-county": "Lagdera", "ward": "Maalimin", "Name": "Garba adey", "Latitude": 0.62781478455736095, "Longitude": 39.451883433548907 }, "geometry": { "type": "Point", "coordinates": [ 39.451883433548907, 0.627814784557361 ] } },
{ "type": "Feature", "properties": { "No.": 287, "Sub-county": "Lagdera", "ward": "maalimin", "Name": "maalimin 1", "Latitude": 0.4588777412665907, "Longitude": 39.28473541505312 }, "geometry": { "type": "Point", "coordinates": [ 39.28473541505312, 0.458877741266591 ] } },
{ "type": "Feature", "properties": { "No.": 288, "Sub-county": "Lagdera", "ward": "maalimin", "Name": "maalimin 2", "Latitude": 0.44141751783796512, "Longitude": 39.086137044824859 }, "geometry": { "type": "Point", "coordinates": [ 39.086137044824859, 0.441417517837965 ] } },
{ "type": "Feature", "properties": { "No.": 289, "Sub-county": "Lagdera", "ward": "maalimin", "Name": "maalimin 3", "Latitude": 0.43861641247508398, "Longitude": 39.078258935991762 }, "geometry": { "type": "Point", "coordinates": [ 39.078258935991762, 0.438616412475084 ] } },
{ "type": "Feature", "properties": { "No.": 290, "Sub-county": "Lagdera", "ward": "maalimin", "Name": "maalimin 4", "Latitude": 0.39480245609068532, "Longitude": 39.020812933508012 }, "geometry": { "type": "Point", "coordinates": [ 39.020812933508012, 0.394802456090685 ] } },
{ "type": "Feature", "properties": { "No.": 291, "Sub-county": "Lagdera", "ward": "maalimin", "Name": "maalimin 6", "Latitude": 0.38712275888745312, "Longitude": 39.241388309562538 }, "geometry": { "type": "Point", "coordinates": [ 39.241388309562538, 0.387122758887453 ] } },
{ "type": "Feature", "properties": { "No.": 292, "Sub-county": "Lagdera", "ward": "maalimin", "Name": "maalimin 5", "Latitude": 0.3861657145551356, "Longitude": 39.247060547922359 }, "geometry": { "type": "Point", "coordinates": [ 39.247060547922359, 0.386165714555136 ] } },
{ "type": "Feature", "properties": { "No.": 293, "Sub-county": "Lagdera", "ward": "maalimin", "Name": "maalimin 7", "Latitude": 0.38562883602725001, "Longitude": 39.248741211140093 }, "geometry": { "type": "Point", "coordinates": [ 39.248741211140093, 0.38562883602725 ] } },
{ "type": "Feature", "properties": { "No.": 294, "Sub-county": "Lagdera", "ward": "Maalimin", "Name": "maalimin 8", "Latitude": 0.37749979483872231, "Longitude": 39.338219020575622 }, "geometry": { "type": "Point", "coordinates": [ 39.338219020575622, 0.377499794838722 ] } },
{ "type": "Feature", "properties": { "No.": 295, "Sub-county": "Lagdera", "ward": "maalimin", "Name": "maalimin 9", "Latitude": 0.3739283855010489, "Longitude": 39.346575651574888 }, "geometry": { "type": "Point", "coordinates": [ 39.346575651574888, 0.373928385501049 ] } },
{ "type": "Feature", "properties": { "No.": 296, "Sub-county": "Lagdera", "ward": "benane", "Name": "Lafagari 1", "Latitude": 0.43990764214585798, "Longitude": 38.689317933212124 }, "geometry": { "type": "Point", "coordinates": [ 38.689317933212124, 0.439907642145858 ] } },
{ "type": "Feature", "properties": { "No.": 297, "Sub-county": "Lagdera", "ward": "benane", "Name": "samaki 1", "Latitude": 0.56857419732885661, "Longitude": 38.606185634433757 }, "geometry": { "type": "Point", "coordinates": [ 38.606185634433757, 0.568574197328857 ] } },
{ "type": "Feature", "properties": { "No.": 298, "Sub-county": "Lagdera", "ward": "benane", "Name": "samaki 2", "Latitude": 0.56759359068343829, "Longitude": 38.608792464522203 }, "geometry": { "type": "Point", "coordinates": [ 38.608792464522203, 0.567593590683438 ] } },
{ "type": "Feature", "properties": { "No.": 299, "Sub-county": "Lagdera", "ward": "benane", "Name": "samaki 3", "Latitude": 0.56927158528475974, "Longitude": 38.611207436788703 }, "geometry": { "type": "Point", "coordinates": [ 38.611207436788703, 0.56927158528476 ] } },
{ "type": "Feature", "properties": { "No.": 300, "Sub-county": "Lagdera", "ward": "benane", "Name": "benane ", "Latitude": 0.56701801721764944, "Longitude": 38.784436777817731 }, "geometry": { "type": "Point", "coordinates": [ 38.784436777817731, 0.567018017217649 ] } },
{ "type": "Feature", "properties": { "No.": 301, "Sub-county": "Lagdera", "ward": "benane", "Name": "tokojo", "Latitude": 0.52261054484656033, "Longitude": 38.773479564432009 }, "geometry": { "type": "Point", "coordinates": [ 38.773479564432009, 0.52261054484656 ] } },
{ "type": "Feature", "properties": { "No.": 302, "Sub-county": "Lagdera", "ward": "modogashe", "Name": "Serbi", "Latitude": 0.6267414478563349, "Longitude": 39.232656288958722 }, "geometry": { "type": "Point", "coordinates": [ 39.232656288958722, 0.626741447856335 ] } },
{ "type": "Feature", "properties": { "No.": 303, "Sub-county": "Lagdera", "ward": "Maalimin", "Name": "skanska 1", "Latitude": 0.8348339799608927, "Longitude": 39.23678422735901 }, "geometry": { "type": "Point", "coordinates": [ 39.23678422735901, 0.834833979960893 ] } },
{ "type": "Feature", "properties": { "No.": 304, "Sub-county": "Lagdera", "ward": "Maalimin", "Name": "skanska 2", "Latitude": 0.90855510081057811, "Longitude": 39.300349216478821 }, "geometry": { "type": "Point", "coordinates": [ 39.300349216478821, 0.908555100810578 ] } },
{ "type": "Feature", "properties": { "No.": 305, "Sub-county": "Lagdera", "ward": "modogashe", "Name": "modogashe 1", "Latitude": 0.58894099210876694, "Longitude": 39.350305456835727 }, "geometry": { "type": "Point", "coordinates": [ 39.350305456835727, 0.588940992108767 ] } },
{ "type": "Feature", "properties": { "No.": 306, "Sub-county": "Lagdera", "ward": "modogashe", "Name": "modogashe 2", "Latitude": 0.56355066278412402, "Longitude": 39.288132039017988 }, "geometry": { "type": "Point", "coordinates": [ 39.288132039017988, 0.563550662784124 ] } },
{ "type": "Feature", "properties": { "No.": 307, "Sub-county": "Lagdera", "ward": "modogashe", "Name": "gababa 1", "Latitude": 0.68675381544843528, "Longitude": 39.174937970600503 }, "geometry": { "type": "Point", "coordinates": [ 39.174937970600503, 0.686753815448435 ] } },
{ "type": "Feature", "properties": { "No.": 308, "Sub-county": "Lagdera", "ward": "modogashe", "Name": "gababa 2", "Latitude": 0.63920505191352839, "Longitude": 39.13875119069381 }, "geometry": { "type": "Point", "coordinates": [ 39.13875119069381, 0.639205051913528 ] } },
{ "type": "Feature", "properties": { "No.": 309, "Sub-county": "Lagdera", "ward": "modogashe", "Name": "jilanqo", "Latitude": 0.63429144625614087, "Longitude": 39.376530022185356 }, "geometry": { "type": "Point", "coordinates": [ 39.376530022185356, 0.634291446256141 ] } },
{ "type": "Feature", "properties": { "No.": 310, "Sub-county": "Lagdera", "ward": "goreale", "Name": "Goreale 1", "Latitude": 0.25069757371809059, "Longitude": 39.763094233535227 }, "geometry": { "type": "Point", "coordinates": [ 39.763094233535227, 0.250697573718091 ] } },
{ "type": "Feature", "properties": { "No.": 311, "Sub-county": "Lagdera", "ward": "goreale", "Name": "Goreale 2", "Latitude": 0.28805148085934468, "Longitude": 39.788229047985418 }, "geometry": { "type": "Point", "coordinates": [ 39.788229047985418, 0.288051480859345 ] } },
{ "type": "Feature", "properties": { "No.": 312, "Sub-county": "Lagdera", "ward": "goreale", "Name": "Goreale 3", "Latitude": 0.31180252008210729, "Longitude": 39.777310572706362 }, "geometry": { "type": "Point", "coordinates": [ 39.777310572706362, 0.311802520082107 ] } },
{ "type": "Feature", "properties": { "No.": 313, "Sub-county": "Lagdera", "ward": "maalimin", "Name": "wayama jibril 1", "Latitude": 0.36375042838898208, "Longitude": 39.17357629679244 }, "geometry": { "type": "Point", "coordinates": [ 39.17357629679244, 0.363750428388982 ] } },
{ "type": "Feature", "properties": { "No.": 314, "Sub-county": "Lagdera", "ward": "maalimin", "Name": "wayama jibril 2", "Latitude": 0.36121138024453642, "Longitude": 39.167211044152538 }, "geometry": { "type": "Point", "coordinates": [ 39.167211044152538, 0.361211380244536 ] } },
{ "type": "Feature", "properties": { "No.": 315, "Sub-county": "Lagdera", "ward": "maalimin", "Name": "malka garas", "Latitude": 0.35263658266991282, "Longitude": 39.108911016381008 }, "geometry": { "type": "Point", "coordinates": [ 39.108911016381008, 0.352636582669913 ] } },
{ "type": "Feature", "properties": { "No.": 316, "Sub-county": "Lagdera", "ward": "Baraki", "Name": "Baraki 10", "Latitude": 0.36933638208512121, "Longitude": 39.344891773945967 }, "geometry": { "type": "Point", "coordinates": [ 39.344891773945967, 0.369336382085121 ] } },
{ "type": "Feature", "properties": { "No.": 317, "Sub-county": "Township", "ward": "Waberi", "Name": "Eldert 1", "Latitude": -0.44586961070648101, "Longitude": 39.871344735913098 }, "geometry": { "type": "Point", "coordinates": [ 39.871344735913098, -0.445869610706481 ] } },
{ "type": "Feature", "properties": { "No.": 318, "Sub-county": "Township", "ward": "Waberi", "Name": "Eldert 2", "Latitude": -0.44902558755250432, "Longitude": 39.871843895516292 }, "geometry": { "type": "Point", "coordinates": [ 39.871843895516292, -0.449025587552504 ] } },
{ "type": "Feature", "properties": { "No.": 319, "Sub-county": "Township", "ward": "Waberi", "Name": "Eldert 3", "Latitude": -0.44308397808218503, "Longitude": 39.86145815538525 }, "geometry": { "type": "Point", "coordinates": [ 39.86145815538525, -0.443083978082185 ] } },
{ "type": "Feature", "properties": { "No.": 320, "Sub-county": "Township", "ward": "waberi", "Name": "waberi 1", "Latitude": -0.4756985185176032, "Longitude": 39.732843341908513 }, "geometry": { "type": "Point", "coordinates": [ 39.732843341908513, -0.475698518517603 ] } },
{ "type": "Feature", "properties": { "No.": 321, "Sub-county": "Township", "ward": "waberi", "Name": "waberi 2", "Latitude": -0.49408940875672541, "Longitude": 39.841445416283591 }, "geometry": { "type": "Point", "coordinates": [ 39.841445416283591, -0.494089408756725 ] } },
{ "type": "Feature", "properties": { "No.": 322, "Sub-county": "Township", "ward": "waberi", "Name": "waberi 3", "Latitude": -0.53678983104032008, "Longitude": 39.815377224092771 }, "geometry": { "type": "Point", "coordinates": [ 39.815377224092771, -0.53678983104032 ] } },
{ "type": "Feature", "properties": { "No.": 323, "Sub-county": "Township", "ward": "waberi", "Name": "waberi 4", "Latitude": -0.53602787325263512, "Longitude": 39.81139041465822 }, "geometry": { "type": "Point", "coordinates": [ 39.81139041465822, -0.536027873252635 ] } },
{ "type": "Feature", "properties": { "No.": 324, "Sub-county": "Township", "ward": "township", "Name": "township 1", "Latitude": -0.39273362990801303, "Longitude": 39.721489016390613 }, "geometry": { "type": "Point", "coordinates": [ 39.721489016390613, -0.392733629908013 ] } },
{ "type": "Feature", "properties": { "No.": 325, "Sub-county": "Township", "ward": "township", "Name": "township 2", "Latitude": -0.43190711121982339, "Longitude": 39.731065440403917 }, "geometry": { "type": "Point", "coordinates": [ 39.731065440403917, -0.431907111219823 ] } }
]
}
