{"type":"FeatureCollection","features":[{"type":"Feature","properties":{"name":"Ifo2 main hospital","kephl_level":"Level 4","service":"in patient out patient","ward":null,"staff":30.0,"patients_per_day":110,"water_on_site":"on premises","water_available":"yes","rain_effects":"no effect","waterborne_cases":"no","camp":"Daadab","elev_m":122,"flooded_2023":false,"flooded_2024":false,"flood_exposure":"Low","dist_tana_km":99.04,"in_county":true},"geometry":{"type":"Point","coordinates":[40.33129,0.14709]}},{"type":"Feature","properties":{"name":"Ifo Health post","kephl_level":"Level 1","service":"out patient","ward":null,"staff":63.0,"patients_per_day":133,"water_on_site":"on premises","water_available":"yes","rain_effects":"no effect","waterborne_cases":"no","camp":"Daadab","elev_m":121,"flooded_2023":false,"flooded_2024":false,"flood_exposure":"Moderate","dist_tana_km":96.03,"in_county":true},"geometry":{"type":"Point","coordinates":[40.31883,0.11688]}},{"type":"Feature","properties":{"name":"Hagardera main hospital","kephl_level":"Level 4","service":"in patient out patient","ward":null,"staff":29.0,"patients_per_day":429,"water_on_site":"on premises","water_available":"yes","rain_effects":"flooding stagnant water affected sanitation facilities bathroom Infrastructure damage toilet Infrastructure damage classrooms Infrastructure damage busted sewer system raised quality concerns","waterborne_cases":"yes","camp":"Daadab","elev_m":125,"flooded_2023":false,"flooded_2024":false,"flood_exposure":"High","dist_tana_km":95.31,"in_county":true},"geometry":{"type":"Point","coordinates":[40.3724,0.00755]}},{"type":"Feature","properties":{"name":"Ifo main hospital","kephl_level":"Level 3","service":"in patient out patient","ward":null,"staff":80.0,"patients_per_day":150,"water_on_site":"on premises","water_available":"yes","rain_effects":"no effect","waterborne_cases":"no","camp":"Daadab","elev_m":120,"flooded_2023":false,"flooded_2024":false,"flood_exposure":"Moderate","dist_tana_km":95.81,"in_county":true},"geometry":{"type":"Point","coordinates":[40.31071,0.12555]}},{"type":"Feature","properties":{"name":"Ifo2 Health post","kephl_level":"Level 2","service":"out patient","ward":null,"staff":35.0,"patients_per_day":85,"water_on_site":"on premises","water_available":"yes","rain_effects":"no effect","waterborne_cases":"no","camp":"Daadab","elev_m":121,"flooded_2023":false,"flooded_2024":false,"flood_exposure":"Moderate","dist_tana_km":96.15,"in_county":true},"geometry":{"type":"Point","coordinates":[40.32437,0.11033]}},{"type":"Feature","properties":{"name":"Hagardera Health post2 L6","kephl_level":"Level 2","service":"out patient","ward":null,"staff":13.0,"patients_per_day":163,"water_on_site":"approx 50m fromcompound","water_available":"yes","rain_effects":"affected sanitation facilities cases waterborne affected","waterborne_cases":"yes","camp":"Daadab","elev_m":125,"flooded_2023":false,"flooded_2024":false,"flood_exposure":"Moderate","dist_tana_km":94.88,"in_county":true},"geometry":{"type":"Point","coordinates":[40.37622,-0.00822]}},{"type":"Feature","properties":{"name":"Hagardera Health post2 E6","kephl_level":"Level 2","service":"out patient","ward":null,"staff":32.0,"patients_per_day":192,"water_on_site":"approx 50m fromcompound","water_available":"yes","rain_effects":"cases waterborne affected water Infrastructure damage toilet Infrastructure damage","waterborne_cases":"yes","camp":"Daadab","elev_m":132,"flooded_2023":false,"flooded_2024":false,"flood_exposure":"Moderate","dist_tana_km":93.87,"in_county":true},"geometry":{"type":"Point","coordinates":[40.36129,0.00066]}},{"type":"Feature","properties":{"name":"Saka Health Centre","kephl_level":"Level 3","service":"out patient","ward":"Saka","staff":null,"patients_per_day":71,"water_on_site":"on premises","water_available":"yes","rain_effects":"affected sanitation facilities floods affected management cases waterborne affected","waterborne_cases":"no","camp":"Host community","elev_m":178,"flooded_2023":false,"flooded_2024":false,"flood_exposure":"High","dist_tana_km":0.51,"in_county":true},"geometry":{"type":"Point","coordinates":[39.32677,-0.14204]}},{"type":"Feature","properties":{"name":"Hagarbul Dispensary","kephl_level":"Level 2","service":"out patient","ward":"Dertu","staff":null,"patients_per_day":91,"water_on_site":"morethan 500m fromcompound","water_available":"yes","rain_effects":"no effect","waterborne_cases":"yes","camp":"Host community","elev_m":172,"flooded_2023":false,"flooded_2024":false,"flood_exposure":"Low","dist_tana_km":52.09,"in_county":true},"geometry":{"type":"Point","coordinates":[39.98586,-0.09676]}},{"type":"Feature","properties":{"name":"Bogyar Dispensaries","kephl_level":"Level 2","service":"out patient","ward":"Dadaab Dadaab","staff":null,"patients_per_day":93,"water_on_site":null,"water_available":"no","rain_effects":"water Infrastructure damage toilet Infrastructure damage flooding stagnant water","waterborne_cases":"no","camp":"Host community","elev_m":141,"flooded_2023":false,"flooded_2024":false,"flood_exposure":"Moderate","dist_tana_km":82.62,"in_county":true},"geometry":{"type":"Point","coordinates":[40.25605,-0.01461]}},{"type":"Feature","properties":{"name":"Kamuthe Health Centre","kephl_level":"Level 2","service":"out patient","ward":"Nanighi","staff":null,"patients_per_day":74,"water_on_site":"on premises","water_available":"yes","rain_effects":"floods affected management cases waterborne affected","waterborne_cases":"yes","camp":"Host community","elev_m":115,"flooded_2023":false,"flooded_2024":false,"flood_exposure":"High","dist_tana_km":1.85,"in_county":true},"geometry":{"type":"Point","coordinates":[39.83282,-0.73135]}},{"type":"Feature","properties":{"name":"Nanighi Health Centre","kephl_level":"Level 3","service":"out patient","ward":"Nanighi","staff":null,"patients_per_day":48,"water_on_site":"approx 500m fromcompound","water_available":"yes","rain_effects":"cases waterborne affected toilet Infrastructure damage","waterborne_cases":"yes","camp":"Host community","elev_m":111,"flooded_2023":false,"flooded_2024":false,"flood_exposure":"High","dist_tana_km":0.39,"in_county":true},"geometry":{"type":"Point","coordinates":[39.86797,-0.85698]}},{"type":"Feature","properties":{"name":"Danyere Health Centre","kephl_level":"Level 3","service":"out patient","ward":"Danyere","staff":null,"patients_per_day":51,"water_on_site":"morethan 500m fromcompound","water_available":"no","rain_effects":"increased water supply affected sanitation facilities flooding stagnant water","waterborne_cases":"no","camp":"Host community","elev_m":354,"flooded_2023":false,"flooded_2024":false,"flood_exposure":"High","dist_tana_km":7.92,"in_county":true},"geometry":{"type":"Point","coordinates":[38.74051,0.00681]}},{"type":"Feature","properties":{"name":"Bura Sub County Hospital","kephl_level":"Level 4","service":"out patient in patient","ward":"Bura Fafi","staff":null,"patients_per_day":47,"water_on_site":"on premises","water_available":"yes","rain_effects":"flooding stagnant water floods affected management","waterborne_cases":"no","camp":"Host community","elev_m":85,"flooded_2023":false,"flooded_2024":false,"flood_exposure":"Moderate","dist_tana_km":1.19,"in_county":true},"geometry":{"type":"Point","coordinates":[39.94474,-1.09674]}},{"type":"Feature","properties":{"name":"Mansabubu Health Centre","kephl_level":"Level 3","service":"out patient","ward":"Bura Fafi","staff":null,"patients_per_day":69,"water_on_site":"on premises","water_available":"yes","rain_effects":"flooding stagnant water water Infrastructure damage raised quality concerns","waterborne_cases":"no","camp":"Host community","elev_m":82,"flooded_2023":false,"flooded_2024":false,"flood_exposure":"Moderate","dist_tana_km":0.89,"in_county":true},"geometry":{"type":"Point","coordinates":[40.00362,-1.20965]}},{"type":"Feature","properties":{"name":"Gababa Dispensary","kephl_level":"Level 1","service":"out patient","ward":"Masalani","staff":null,"patients_per_day":61,"water_on_site":"morethan 500m fromcompound","water_available":"no","rain_effects":"flooding stagnant water","waterborne_cases":"no","camp":"Host community","elev_m":85,"flooded_2023":false,"flooded_2024":false,"flood_exposure":"Low","dist_tana_km":9.16,"in_county":true},"geometry":{"type":"Point","coordinates":[40.15914,-1.54508]}},{"type":"Feature","properties":{"name":"Damajale Dispensary","kephl_level":"Level 2","service":"out patient","ward":"Damajale","staff":null,"patients_per_day":43,"water_on_site":"approx 200m fromcompound","water_available":"yes","rain_effects":"flooding stagnant water affected sanitation facilities water Infrastructure damage toilet Infrastructure damage","waterborne_cases":"no","camp":"Host community","elev_m":107,"flooded_2023":false,"flooded_2024":false,"flood_exposure":"Low","dist_tana_km":137.65,"in_county":true},"geometry":{"type":"Point","coordinates":[40.78483,0.10295]}},{"type":"Feature","properties":{"name":"Ijara Health Center","kephl_level":"Level 4","service":"in patient out patient","ward":"Masalani","staff":null,"patients_per_day":217,"water_on_site":"approx 500m fromcompound","water_available":"yes","rain_effects":"flooding stagnant water floods affected management","waterborne_cases":"no","camp":"Host community","elev_m":76,"flooded_2023":false,"flooded_2024":false,"flood_exposure":"Low","dist_tana_km":6.09,"in_county":true},"geometry":{"type":"Point","coordinates":[40.1698,-1.69056]}},{"type":"Feature","properties":{"name":"Banane Health Center","kephl_level":"Level 2","service":"out patient","ward":"Damajale","staff":null,"patients_per_day":89,"water_on_site":"morethan 500m fromcompound","water_available":"yes","rain_effects":"no effect","waterborne_cases":"no","camp":"Host community","elev_m":137,"flooded_2023":false,"flooded_2024":false,"flood_exposure":"Moderate","dist_tana_km":113.65,"in_county":true},"geometry":{"type":"Point","coordinates":[40.57743,0.01965]}},{"type":"Feature","properties":{"name":"Liboi Health Centre","kephl_level":"Level 3","service":"out patient","ward":"Liboi","staff":null,"patients_per_day":59,"water_on_site":"on premises","water_available":"yes","rain_effects":"flooding stagnant water floods affected management","waterborne_cases":"no","camp":"Host community","elev_m":86,"flooded_2023":false,"flooded_2024":false,"flood_exposure":"Moderate","dist_tana_km":162.31,"in_county":true},"geometry":{"type":"Point","coordinates":[40.87283,0.35236]}},{"type":"Feature","properties":{"name":"Hamey Dispensary","kephl_level":"Level 2","service":"out patient","ward":"Damajale","staff":null,"patients_per_day":70,"water_on_site":null,"water_available":"no","rain_effects":"water Infrastructure damage bathroom Infrastructure damage cases waterborne affected","waterborne_cases":"no","camp":"Host community","elev_m":99,"flooded_2023":false,"flooded_2024":false,"flood_exposure":"High","dist_tana_km":136.43,"in_county":true},"geometry":{"type":"Point","coordinates":[40.89795,-0.1193]}},{"type":"Feature","properties":{"name":"Libahlow Dispensary","kephl_level":"Level 3","service":"out patient","ward":"Danyere","staff":null,"patients_per_day":64,"water_on_site":"approx 200m fromcompound","water_available":"yes","rain_effects":"increased water supply","waterborne_cases":"no","camp":"Host community","elev_m":348,"flooded_2023":false,"flooded_2024":false,"flood_exposure":"Moderate","dist_tana_km":28.39,"in_county":true},"geometry":{"type":"Point","coordinates":[38.89634,0.18352]}},{"type":"Feature","properties":{"name":"Kulan Health Centre","kephl_level":"Level 3","service":"in patient out patient","ward":"Liboi","staff":null,"patients_per_day":61,"water_on_site":"on premises","water_available":"yes","rain_effects":"floods affected management cases waterborne affected toilet Infrastructure damage","waterborne_cases":"yes","camp":"Host community","elev_m":104,"flooded_2023":false,"flooded_2024":false,"flood_exposure":"Moderate","dist_tana_km":132.9,"in_county":true},"geometry":{"type":"Point","coordinates":[40.64419,0.21895]}},{"type":"Feature","properties":{"name":"Balambala Sub-District Hospital","kephl_level":"Level 4","service":"in patient out patient","ward":"Balambala Balambala","staff":null,"patients_per_day":92,"water_on_site":"on premises","water_available":"yes","rain_effects":"increased water supply","waterborne_cases":"no","camp":"Host community","elev_m":202,"flooded_2023":false,"flooded_2024":false,"flood_exposure":"High","dist_tana_km":0.52,"in_county":true},"geometry":{"type":"Point","coordinates":[39.06366,-0.04434]}},{"type":"Feature","properties":{"name":"Jarajara Dispensary","kephl_level":"Level 2","service":"out patient","ward":"Jarajara","staff":null,"patients_per_day":27,"water_on_site":"on premises","water_available":"yes","rain_effects":"increased water supply floods affected management affected sanitation facilities","waterborne_cases":"no","camp":"Host community","elev_m":205,"flooded_2023":false,"flooded_2024":false,"flood_exposure":"High","dist_tana_km":0.94,"in_county":true},"geometry":{"type":"Point","coordinates":[39.01237,-0.04417]}},{"type":"Feature","properties":{"name":"Maleyley Dispensary","kephl_level":"Level 2","service":"out patient","ward":"Liboi","staff":null,"patients_per_day":84,"water_on_site":"on premises","water_available":"yes","rain_effects":"floods affected management water Infrastructure damage toilet Infrastructure damage","waterborne_cases":"yes","camp":"Host community","elev_m":108,"flooded_2023":false,"flooded_2024":false,"flood_exposure":"High","dist_tana_km":120.76,"in_county":true},"geometry":{"type":"Point","coordinates":[40.52787,0.20238]}},{"type":"Feature","properties":{"name":"Al Furqan Dispensary","kephl_level":"Level 3","service":"out patient","ward":"Masalani","staff":null,"patients_per_day":59,"water_on_site":"on premises","water_available":"yes","rain_effects":"increased water supply","waterborne_cases":"yes","camp":"Host community","elev_m":66,"flooded_2023":false,"flooded_2024":false,"flood_exposure":"Moderate","dist_tana_km":3.41,"in_county":true},"geometry":{"type":"Point","coordinates":[40.14596,-1.69623]}},{"type":"Feature","properties":{"name":"Labasigale Health Centre","kephl_level":"Level 2","service":"out patient","ward":"Labisigale","staff":null,"patients_per_day":91,"water_on_site":"on premises","water_available":"no","rain_effects":"affected sanitation facilities cases waterborne affected water Infrastructure damage","waterborne_cases":"no","camp":"Host community","elev_m":124,"flooded_2023":false,"flooded_2024":false,"flood_exposure":"Low","dist_tana_km":96.81,"in_county":true},"geometry":{"type":"Point","coordinates":[40.28966,0.17056]}},{"type":"Feature","properties":{"name":"Kuno Dispensary","kephl_level":"Level 2","service":"in patient out patient","ward":"Balambala Balambala","staff":null,"patients_per_day":58,"water_on_site":"morethan 500m fromcompound","water_available":"yes","rain_effects":"toilet Infrastructure damage","waterborne_cases":"yes","camp":"Host community","elev_m":202,"flooded_2023":false,"flooded_2024":false,"flood_exposure":"High","dist_tana_km":3.42,"in_county":true},"geometry":{"type":"Point","coordinates":[39.11341,-0.05951]}},{"type":"Feature","properties":{"name":"Kasha Dispensary","kephl_level":"Level 2","service":"in patient","ward":"Saka","staff":null,"patients_per_day":33,"water_on_site":"on premises","water_available":"yes","rain_effects":"toilet Infrastructure damage","waterborne_cases":"no","camp":"Host community","elev_m":209,"flooded_2023":false,"flooded_2024":false,"flood_exposure":"Low","dist_tana_km":5.12,"in_county":true},"geometry":{"type":"Point","coordinates":[39.13901,-0.06188]}},{"type":"Feature","properties":{"name":"Hadley Dispensary","kephl_level":"Level 2","service":"in patient","ward":"Saka","staff":null,"patients_per_day":36,"water_on_site":"approx 50m fromcompound","water_available":"no","rain_effects":"increased water supply","waterborne_cases":"no","camp":"Host community","elev_m":194,"flooded_2023":false,"flooded_2024":false,"flood_exposure":"Moderate","dist_tana_km":2.94,"in_county":true},"geometry":{"type":"Point","coordinates":[39.23965,-0.11066]}},{"type":"Feature","properties":{"name":"Dadaab Sub-District Hospital","kephl_level":"Level 4","service":"in patient out patient","ward":"Dadaab Dadaab","staff":null,"patients_per_day":145,"water_on_site":"on premises","water_available":"yes","rain_effects":"flooding stagnant water cases waterborne affected water Infrastructure damage toilet Infrastructure damage disrupted hygiene practices","waterborne_cases":"no","camp":"Host community","elev_m":125,"flooded_2023":false,"flooded_2024":false,"flood_exposure":"Moderate","dist_tana_km":91.44,"in_county":true},"geometry":{"type":"Point","coordinates":[40.30709,0.05724]}},{"type":"Feature","properties":{"name":"Kotile Disp","kephl_level":"Level 3","service":"out patient","ward":"Masalani","staff":null,"patients_per_day":76,"water_on_site":"morethan 500m fromcompound","water_available":"no","rain_effects":"increased water supply floods affected management","waterborne_cases":"no","camp":"Host community","elev_m":38,"flooded_2023":false,"flooded_2024":false,"flood_exposure":"Moderate","dist_tana_km":5.72,"in_county":true},"geometry":{"type":"Point","coordinates":[40.20645,-1.97006]}},{"type":"Feature","properties":{"name":"Korisa Dispensary","kephl_level":"Level 2","service":"out patient","ward":"Masalani","staff":null,"patients_per_day":28,"water_on_site":null,"water_available":"no","rain_effects":"affected sanitation facilities flooding stagnant water","waterborne_cases":"yes","camp":"Host community","elev_m":64,"flooded_2023":false,"flooded_2024":false,"flood_exposure":"Low","dist_tana_km":12.21,"in_county":true},"geometry":{"type":"Point","coordinates":[40.25355,-1.89801]}},{"type":"Feature","properties":{"name":"Hara Health Centre","kephl_level":"Level 3","service":"out patient","ward":"Masalani","staff":null,"patients_per_day":48,"water_on_site":"morethan 500m fromcompound","water_available":"no","rain_effects":"increased water supply flooding stagnant water floods affected management cases waterborne affected water Infrastructure damage toilet Infrastructure damage","waterborne_cases":"yes","camp":"Host community","elev_m":59,"flooded_2023":false,"flooded_2024":false,"flood_exposure":"Low","dist_tana_km":9.79,"in_county":true},"geometry":{"type":"Point","coordinates":[40.22898,-1.85076]}},{"type":"Feature","properties":{"name":"Ruqa Dispensary","kephl_level":"Level 2","service":"out patient","ward":"Ijara Ijara","staff":null,"patients_per_day":60,"water_on_site":"morethan 500m fromcompound","water_available":"yes","rain_effects":"floods affected management cases waterborne affected water Infrastructure damage toilet Infrastructure damage classrooms Infrastructure damage","waterborne_cases":"no","camp":"Host community","elev_m":66,"flooded_2023":false,"flooded_2024":false,"flood_exposure":"Moderate","dist_tana_km":38.47,"in_county":true},"geometry":{"type":"Point","coordinates":[40.4507,-1.55373]}},{"type":"Feature","properties":{"name":"Abakaile Dispensary","kephl_level":"Level 2","service":"out patient","ward":"Abakaile","staff":null,"patients_per_day":29,"water_on_site":"approx 500m fromcompound","water_available":"no","rain_effects":"cases waterborne affected","waterborne_cases":"yes","camp":"Host community","elev_m":167,"flooded_2023":false,"flooded_2024":false,"flood_exposure":"Moderate","dist_tana_km":73.66,"in_county":true},"geometry":{"type":"Point","coordinates":[40.0962,0.07826]}},{"type":"Feature","properties":{"name":"Dujis Dispensary","kephl_level":"Level 3","service":"out patient","ward":"Balambala Balambala","staff":null,"patients_per_day":70,"water_on_site":"approx 500m fromcompound","water_available":"yes","rain_effects":"increased water supply","waterborne_cases":"no","camp":"Host community","elev_m":252,"flooded_2023":false,"flooded_2024":false,"flood_exposure":"Moderate","dist_tana_km":43.83,"in_county":true},"geometry":{"type":"Point","coordinates":[39.39378,0.24965]}},{"type":"Feature","properties":{"name":"Ijara Sub County Hospital","kephl_level":"Level 3","service":"out patient","ward":"Ijara Ijara","staff":null,"patients_per_day":71,"water_on_site":"on premises","water_available":"yes","rain_effects":"flooding stagnant water floods affected management cases waterborne affected","waterborne_cases":"yes","camp":"Host community","elev_m":61,"flooded_2023":false,"flooded_2024":false,"flood_exposure":"Low","dist_tana_km":43.15,"in_county":true},"geometry":{"type":"Point","coordinates":[40.50021,-1.58174]}},{"type":"Feature","properties":{"name":"Balich Dispensary","kephl_level":"Level 2","service":"out patient","ward":"Sankuri","staff":null,"patients_per_day":45,"water_on_site":"on premises","water_available":"yes","rain_effects":"increased water supply flooding stagnant water","waterborne_cases":"no","camp":"Host community","elev_m":162,"flooded_2023":false,"flooded_2024":false,"flood_exposure":"High","dist_tana_km":0.85,"in_county":true},"geometry":{"type":"Point","coordinates":[39.47732,-0.22085]}},{"type":"Feature","properties":{"name":"Shimbirey Dispensary","kephl_level":"Level 2","service":"out patient","ward":"Sankuri","staff":null,"patients_per_day":58,"water_on_site":"on premises","water_available":"no","rain_effects":"increased water supply","waterborne_cases":"yes","camp":"Host community","elev_m":264,"flooded_2023":false,"flooded_2024":false,"flood_exposure":"Moderate","dist_tana_km":19.26,"in_county":true},"geometry":{"type":"Point","coordinates":[39.49796,-0.0306]}},{"type":"Feature","properties":{"name":"Abdisamad Dispensary","kephl_level":"Level 2","service":"out patient","ward":"Sankuri","staff":null,"patients_per_day":24,"water_on_site":"approx 50m fromcompound","water_available":"yes","rain_effects":"toilet Infrastructure damage","waterborne_cases":"yes","camp":"Host community","elev_m":228,"flooded_2023":false,"flooded_2024":false,"flood_exposure":"Moderate","dist_tana_km":36.56,"in_county":true},"geometry":{"type":"Point","coordinates":[39.65501,0.04882]}},{"type":"Feature","properties":{"name":"Alikune Dispensary","kephl_level":"Level 2","service":"out patient","ward":"Abakaile","staff":null,"patients_per_day":72,"water_on_site":"approx 200m fromcompound","water_available":"no","rain_effects":"toilet Infrastructure damage","waterborne_cases":"yes","camp":"Host community","elev_m":142,"flooded_2023":false,"flooded_2024":false,"flood_exposure":"Moderate","dist_tana_km":87.23,"in_county":true},"geometry":{"type":"Point","coordinates":[40.0133,0.34457]}},{"type":"Feature","properties":{"name":"Jalish Dispensary Garissa","kephl_level":"Level 2","service":"out patient","ward":"Ijara Ijara","staff":null,"patients_per_day":47,"water_on_site":"approx 50m fromcompound","water_available":"yes","rain_effects":"toilet Infrastructure damage disrupted hygiene practices","waterborne_cases":"yes","camp":"Host community","elev_m":54,"flooded_2023":false,"flooded_2024":false,"flood_exposure":"High","dist_tana_km":43.19,"in_county":true},"geometry":{"type":"Point","coordinates":[40.51288,-1.68399]}},{"type":"Feature","properties":{"name":"Bodhai Dispensary","kephl_level":"Level 2","service":"out patient","ward":"Sangailu","staff":null,"patients_per_day":42,"water_on_site":"approx 500m fromcompound","water_available":"yes","rain_effects":"flooding stagnant water","waterborne_cases":"no","camp":"Host community","elev_m":29,"flooded_2023":false,"flooded_2024":false,"flood_exposure":"High","dist_tana_km":59.64,"in_county":true},"geometry":{"type":"Point","coordinates":[40.67787,-1.82668]}},{"type":"Feature","properties":{"name":"Kumahumato Dispensary","kephl_level":"Level 2","service":"out patient","ward":"Abakaile","staff":null,"patients_per_day":24,"water_on_site":"approx 200m fromcompound","water_available":"yes","rain_effects":"increased water supply toilet Infrastructure damage","waterborne_cases":"yes","camp":"Host community","elev_m":140,"flooded_2023":false,"flooded_2024":false,"flood_exposure":"High","dist_tana_km":89.63,"in_county":true},"geometry":{"type":"Point","coordinates":[40.0765,0.3143]}},{"type":"Feature","properties":{"name":"Sankuri Health Centre","kephl_level":"Level 3","service":"out patient","ward":"Sankuri","staff":null,"patients_per_day":45,"water_on_site":"on premises","water_available":"yes","rain_effects":"increased water supply water Infrastructure damage floods affected management","waterborne_cases":"no","camp":"Host community","elev_m":157,"flooded_2023":false,"flooded_2024":false,"flood_exposure":"High","dist_tana_km":0.76,"in_county":true},"geometry":{"type":"Point","coordinates":[39.55887,-0.30239]}},{"type":"Feature","properties":{"name":"Raya Health Center","kephl_level":"Level 2","service":"out patient","ward":"Sankuri","staff":null,"patients_per_day":54,"water_on_site":"on premises","water_available":"yes","rain_effects":"increased water supply floods affected management cases waterborne affected","waterborne_cases":"no","camp":"Host community","elev_m":145,"flooded_2023":false,"flooded_2024":false,"flood_exposure":"High","dist_tana_km":1.13,"in_county":true},"geometry":{"type":"Point","coordinates":[39.60806,-0.36208]}},{"type":"Feature","properties":{"name":"Shantaabaq Health Centre","kephl_level":"Level 3","service":"out patient in patient","ward":"Goreale","staff":null,"patients_per_day":57,"water_on_site":"on premises","water_available":"no","rain_effects":"cases waterborne affected floods affected management affected sanitation facilities water Infrastructure damage toilet Infrastructure damage","waterborne_cases":"yes","camp":"Host community","elev_m":164,"flooded_2023":false,"flooded_2024":false,"flood_exposure":"Moderate","dist_tana_km":79.69,"in_county":true},"geometry":{"type":"Point","coordinates":[39.74149,0.45817]}},{"type":"Feature","properties":{"name":"Dertu Health Centre","kephl_level":"Level 3","service":"in patient out patient","ward":"Dertu","staff":null,"patients_per_day":36,"water_on_site":"approx 500m fromcompound","water_available":"yes","rain_effects":"water Infrastructure damage disrupted hygiene practices cases waterborne affected","waterborne_cases":"no","camp":"Host community","elev_m":166,"flooded_2023":false,"flooded_2024":false,"flood_exposure":"High","dist_tana_km":65.69,"in_county":true},"geometry":{"type":"Point","coordinates":[39.7982,0.27258]}},{"type":"Feature","properties":{"name":"Handaro Dispensary","kephl_level":"Level 2","service":"out patient","ward":"Sangailu","staff":null,"patients_per_day":28,"water_on_site":"morethan 500m fromcompound","water_available":"no","rain_effects":"flooding stagnant water cases waterborne affected","waterborne_cases":"yes","camp":"Host community","elev_m":63,"flooded_2023":false,"flooded_2024":false,"flood_exposure":"Moderate","dist_tana_km":63.27,"in_county":true},"geometry":{"type":"Point","coordinates":[40.65412,-1.45106]}},{"type":"Feature","properties":{"name":"Sangailu Health Centre","kephl_level":"Level 3","service":"out patient","ward":"Sangailu","staff":null,"patients_per_day":54,"water_on_site":"on premises","water_available":"yes","rain_effects":"affected sanitation facilities floods affected management","waterborne_cases":"no","camp":"Host community","elev_m":79,"flooded_2023":false,"flooded_2024":false,"flood_exposure":"Low","dist_tana_km":76.78,"in_county":true},"geometry":{"type":"Point","coordinates":[40.73018,-1.3135]}},{"type":"Feature","properties":{"name":"Hulugho Sub Health Centre","kephl_level":"Level 4","service":"in patient out patient","ward":"Hulugho","staff":null,"patients_per_day":42,"water_on_site":"on premises","water_available":"yes","rain_effects":"increased water supply","waterborne_cases":"no","camp":"Host community","elev_m":69,"flooded_2023":false,"flooded_2024":false,"flood_exposure":"Moderate","dist_tana_km":116.99,"in_county":true},"geometry":{"type":"Point","coordinates":[41.05979,-1.15217]}},{"type":"Feature","properties":{"name":"Baraki Dispensary","kephl_level":"Level 2","service":"out patient","ward":"Baraki","staff":null,"patients_per_day":79,"water_on_site":"morethan 500m fromcompound","water_available":"yes","rain_effects":"flooding stagnant water water Infrastructure damage","waterborne_cases":"no","camp":"Host community","elev_m":175,"flooded_2023":true,"flooded_2024":false,"flood_exposure":"Very High","dist_tana_km":92.21,"in_county":true},"geometry":{"type":"Point","coordinates":[39.58073,0.65187]}},{"type":"Feature","properties":{"name":"Gurufa Dispensary","kephl_level":"Level 2","service":"out patient","ward":"Sabena","staff":null,"patients_per_day":44,"water_on_site":"approx 200m fromcompound","water_available":"yes","rain_effects":"water Infrastructure damage toilet Infrastructure damage affected sanitation facilities floods affected management cases waterborne affected","waterborne_cases":"yes","camp":"Host community","elev_m":193,"flooded_2023":true,"flooded_2024":false,"flood_exposure":"Very High","dist_tana_km":103.34,"in_county":true},"geometry":{"type":"Point","coordinates":[39.46175,0.79916]}},{"type":"Feature","properties":{"name":"Ilan Dispensary","kephl_level":"Level 2","service":"out patient","ward":"Maalamin","staff":null,"patients_per_day":52,"water_on_site":null,"water_available":"no","rain_effects":"toilet Infrastructure damage","waterborne_cases":"no","camp":"Host community","elev_m":227,"flooded_2023":false,"flooded_2024":false,"flood_exposure":"Low","dist_tana_km":93.68,"in_county":true},"geometry":{"type":"Point","coordinates":[39.30954,0.76427]}},{"type":"Feature","properties":{"name":"Modogashe Sub-County Hospital","kephl_level":"Level 4","service":"in patient out patient","ward":"Modogashe","staff":null,"patients_per_day":88,"water_on_site":"on premises","water_available":"no","rain_effects":"water Infrastructure damage floods affected management toilet Infrastructure damage","waterborne_cases":"yes","camp":"Host community","elev_m":264,"flooded_2023":false,"flooded_2024":false,"flood_exposure":"Moderate","dist_tana_km":87.22,"in_county":true},"geometry":{"type":"Point","coordinates":[39.18544,0.7324]}},{"type":"Feature","properties":{"name":"Medina Health Centre","kephl_level":"Level 3","service":"out patient","ward":"Galbet","staff":null,"patients_per_day":100,"water_on_site":"on premises","water_available":"yes","rain_effects":"increased water supply affected sanitation facilities","waterborne_cases":"yes","camp":"Host community","elev_m":158,"flooded_2023":false,"flooded_2024":false,"flood_exposure":"Moderate","dist_tana_km":4.07,"in_county":true},"geometry":{"type":"Point","coordinates":[39.6508,-0.42378]}},{"type":"Feature","properties":{"name":"Galmagalla Health Centre","kephl_level":"Level 3","service":"out patient","ward":"Dekaharia","staff":null,"patients_per_day":93,"water_on_site":"approx 200m fromcompound","water_available":"yes","rain_effects":"increased water supply","waterborne_cases":"yes","camp":"Host community","elev_m":84,"flooded_2023":false,"flooded_2024":false,"flood_exposure":"Low","dist_tana_km":84.13,"in_county":true},"geometry":{"type":"Point","coordinates":[40.76711,-1.19195]}},{"type":"Feature","properties":{"name":"Muhumed Dahir Dispensary","kephl_level":"Level 2","service":"out patient","ward":"Masalani","staff":null,"patients_per_day":62,"water_on_site":null,"water_available":"no","rain_effects":"flooding stagnant water affected sanitation facilities","waterborne_cases":"no","camp":"Host community","elev_m":67,"flooded_2023":false,"flooded_2024":false,"flood_exposure":"Low","dist_tana_km":5.65,"in_county":true},"geometry":{"type":"Point","coordinates":[40.16919,-1.69843]}},{"type":"Feature","properties":{"name":"Bultohama Dispensary","kephl_level":"Level 1","service":"out patient","ward":"Masalani","staff":null,"patients_per_day":30,"water_on_site":"morethan 500m fromcompound","water_available":"yes","rain_effects":"recharged water sources water Infrastructure damage toilet Infrastructure damage","waterborne_cases":"no","camp":"Host community","elev_m":69,"flooded_2023":false,"flooded_2024":false,"flood_exposure":"Low","dist_tana_km":35.12,"in_county":true},"geometry":{"type":"Point","coordinates":[40.4425,-1.77015]}},{"type":"Feature","properties":{"name":"Police Line Dispensary","kephl_level":"Level 2","service":"out patient","ward":"Township","staff":null,"patients_per_day":105,"water_on_site":"on premises","water_available":"no","rain_effects":"toilet Infrastructure damage water Infrastructure damage","waterborne_cases":"yes","camp":"Host community","elev_m":140,"flooded_2023":false,"flooded_2024":false,"flood_exposure":"High","dist_tana_km":0.54,"in_county":true},"geometry":{"type":"Point","coordinates":[39.63891,-0.46113]}},{"type":"Feature","properties":{"name":"Benane Health Centre","kephl_level":"Level 3","service":"out patient in patient","ward":"Benane","staff":null,"patients_per_day":70,"water_on_site":"morethan 500m fromcompound","water_available":"yes","rain_effects":"increased water supply","waterborne_cases":"yes","camp":"Host community","elev_m":430,"flooded_2023":false,"flooded_2024":false,"flood_exposure":"High","dist_tana_km":59.33,"in_county":true},"geometry":{"type":"Point","coordinates":[38.66265,0.50461]}},{"type":"Feature","properties":{"name":"Gk Prison Dispensary","kephl_level":"Level 2","service":"out patient","ward":"Township","staff":null,"patients_per_day":47,"water_on_site":"on premises","water_available":"yes","rain_effects":"flooding stagnant water cases waterborne affected water Infrastructure damage","waterborne_cases":"no","camp":"Host community","elev_m":141,"flooded_2023":false,"flooded_2024":false,"flood_exposure":"Moderate","dist_tana_km":1.21,"in_county":true},"geometry":{"type":"Point","coordinates":[39.6397,-0.45391]}},{"type":"Feature","properties":{"name":"Gk Medium Dispensary","kephl_level":"Level 2","service":"out patient","ward":"Iftin","staff":null,"patients_per_day":72,"water_on_site":null,"water_available":"no","rain_effects":"increased water supply","waterborne_cases":"no","camp":"Host community","elev_m":138,"flooded_2023":false,"flooded_2024":false,"flood_exposure":"High","dist_tana_km":2.29,"in_county":true},"geometry":{"type":"Point","coordinates":[39.65834,-0.48744]}},{"type":"Feature","properties":{"name":"Utawala Dispensery","kephl_level":"Level 2","service":"out patient","ward":"Galbet","staff":null,"patients_per_day":60,"water_on_site":"on premises","water_available":"yes","rain_effects":"flooding stagnant water","waterborne_cases":"yes","camp":"Host community","elev_m":149,"flooded_2023":false,"flooded_2024":false,"flood_exposure":"Moderate","dist_tana_km":2.74,"in_county":true},"geometry":{"type":"Point","coordinates":[39.64529,-0.44066]}},{"type":"Feature","properties":{"name":"Garissa Teacher Training College Dispensary","kephl_level":"Level 2","service":"out patient","ward":"Waberi","staff":null,"patients_per_day":66,"water_on_site":"approx 50m fromcompound","water_available":"no","rain_effects":"flooding stagnant water toilet Infrastructure damage","waterborne_cases":"no","camp":"Host community","elev_m":161,"flooded_2023":false,"flooded_2024":false,"flood_exposure":"Moderate","dist_tana_km":3.38,"in_county":true},"geometry":{"type":"Point","coordinates":[39.65689,-0.44296]}},{"type":"Feature","properties":{"name":"Eldere Dispensary","kephl_level":"Level 2","service":"out patient","ward":"Benane","staff":null,"patients_per_day":34,"water_on_site":"morethan 500m fromcompound","water_available":"yes","rain_effects":"increased water supply","waterborne_cases":"yes","camp":"Host community","elev_m":354,"flooded_2023":false,"flooded_2024":false,"flood_exposure":"High","dist_tana_km":72.14,"in_county":true},"geometry":{"type":"Point","coordinates":[38.83717,0.59175]}},{"type":"Feature","properties":{"name":"Amuma Mobile Dispensary","kephl_level":"Level 2","service":"out patient","ward":"Fafi Fafi","staff":null,"patients_per_day":134,"water_on_site":"morethan 500m fromcompound","water_available":"no","rain_effects":"toilet Infrastructure damage classrooms Infrastructure damage","waterborne_cases":"yes","camp":"Host community","elev_m":191,"flooded_2023":false,"flooded_2024":false,"flood_exposure":"Low","dist_tana_km":32.78,"in_county":true},"geometry":{"type":"Point","coordinates":[40.01512,-0.44402]}},{"type":"Feature","properties":{"name":"Yumbis Dispensary","kephl_level":"Level 2","service":"out patient","ward":"Fafi Fafi","staff":null,"patients_per_day":55,"water_on_site":"approx 500m fromcompound","water_available":"yes","rain_effects":"increased water supply flooding stagnant water cases waterborne affected","waterborne_cases":"no","camp":"Host community","elev_m":144,"flooded_2023":false,"flooded_2024":false,"flood_exposure":"Moderate","dist_tana_km":82.5,"in_county":true},"geometry":{"type":"Point","coordinates":[40.38268,-0.1884]}},{"type":"Feature","properties":{"name":"Fafi Dispensary","kephl_level":"Level 2","service":"out patient","ward":"Fafi Fafi","staff":null,"patients_per_day":78,"water_on_site":"morethan 500m fromcompound","water_available":"yes","rain_effects":"increased water supply affected sanitation facilities","waterborne_cases":"yes","camp":"Host community","elev_m":136,"flooded_2023":true,"flooded_2024":false,"flood_exposure":"Very High","dist_tana_km":66.1,"in_county":true},"geometry":{"type":"Point","coordinates":[40.32719,-0.39341]}},{"type":"Feature","properties":{"name":"Al-Faruq Dispensary","kephl_level":"Level 2","service":"out patient","ward":"Waberi","staff":null,"patients_per_day":74,"water_on_site":"on premises","water_available":"yes","rain_effects":"disrupted hygiene practices","waterborne_cases":"yes","camp":"Host community","elev_m":163,"flooded_2023":false,"flooded_2024":false,"flood_exposure":"Low","dist_tana_km":3.6,"in_county":true},"geometry":{"type":"Point","coordinates":[39.65891,-0.44217]}},{"type":"Feature","properties":{"name":"Bulla Mzuri Dispensary","kephl_level":"Level 2","service":"in patient","ward":"Waberi","staff":null,"patients_per_day":56,"water_on_site":"on premises","water_available":"yes","rain_effects":"toilet Infrastructure damage water Infrastructure damage","waterborne_cases":"no","camp":"Host community","elev_m":169,"flooded_2023":false,"flooded_2024":false,"flood_exposure":"Low","dist_tana_km":4.31,"in_county":true},"geometry":{"type":"Point","coordinates":[39.67403,-0.46124]}},{"type":"Feature","properties":{"name":"Kora Kora Disp","kephl_level":"Level 2","service":"out patient","ward":"Iftin","staff":null,"patients_per_day":45,"water_on_site":"on premises","water_available":"yes","rain_effects":"increased water supply","waterborne_cases":"no","camp":"Host community","elev_m":133,"flooded_2023":false,"flooded_2024":false,"flood_exposure":"High","dist_tana_km":1.14,"in_county":true},"geometry":{"type":"Point","coordinates":[39.77859,-0.60675]}},{"type":"Feature","properties":{"name":"Garissa Provincial General Hospi","kephl_level":"Level 5","service":"in patient out patient","ward":"Waberi","staff":null,"patients_per_day":321,"water_on_site":"on premises","water_available":"yes","rain_effects":"water Infrastructure damage","waterborne_cases":"no","camp":"Host community","elev_m":158,"flooded_2023":false,"flooded_2024":false,"flood_exposure":"Moderate","dist_tana_km":2.6,"in_county":true},"geometry":{"type":"Point","coordinates":[39.65281,-0.44883]}},{"type":"Feature","properties":{"name":"Bourargy Dispensary","kephl_level":"Level 2","service":"out patient","ward":"Iftin","staff":null,"patients_per_day":49,"water_on_site":"on premises","water_available":"no","rain_effects":"increased water supply water Infrastructure damage","waterborne_cases":"yes","camp":"Host community","elev_m":137,"flooded_2023":false,"flooded_2024":false,"flood_exposure":"Moderate","dist_tana_km":2.54,"in_county":true},"geometry":{"type":"Point","coordinates":[39.67571,-0.50582]}},{"type":"Feature","properties":{"name":"Iftin Sub County Hospital","kephl_level":"Level 4","service":"in patient out patient","ward":"Iftin","staff":null,"patients_per_day":242,"water_on_site":"on premises","water_available":"yes","rain_effects":"toilet Infrastructure damage water Infrastructure damage","waterborne_cases":"no","camp":"Host community","elev_m":141,"flooded_2023":false,"flooded_2024":false,"flood_exposure":"High","dist_tana_km":2.65,"in_county":true},"geometry":{"type":"Point","coordinates":[39.6564,-0.4759]}},{"type":"Feature","properties":{"name":"Garissa University Dispensary","kephl_level":"Level 2","service":"out patient","ward":"Waberi","staff":null,"patients_per_day":52,"water_on_site":"on premises","water_available":"yes","rain_effects":"water Infrastructure damage","waterborne_cases":"yes","camp":"Host community","elev_m":169,"flooded_2023":false,"flooded_2024":false,"flood_exposure":"Low","dist_tana_km":4.31,"in_county":true},"geometry":{"type":"Point","coordinates":[39.67403,-0.46133]}},{"type":"Feature","properties":{"name":"Amuma Dispensary","kephl_level":"Level 2","service":"out patient","ward":"Jarajila","staff":null,"patients_per_day":78,"water_on_site":"on premises","water_available":"yes","rain_effects":"toilet Infrastructure damage","waterborne_cases":"no","camp":"Host community","elev_m":96,"flooded_2023":false,"flooded_2024":false,"flood_exposure":"High","dist_tana_km":129.08,"in_county":true},"geometry":{"type":"Point","coordinates":[40.9148,-0.34115]}},{"type":"Feature","properties":{"name":"Welmerer Dispensary","kephl_level":"Level 2","service":"out patient","ward":"Jarajila","staff":null,"patients_per_day":55,"water_on_site":null,"water_available":"no","rain_effects":"water Infrastructure damage","waterborne_cases":"no","camp":"Host community","elev_m":124,"flooded_2023":false,"flooded_2024":false,"flood_exposure":"Moderate","dist_tana_km":102.12,"in_county":true},"geometry":{"type":"Point","coordinates":[40.58322,-0.17761]}},{"type":"Feature","properties":{"name":"Borehole Five Dispensary","kephl_level":"Level 2","service":"out patient","ward":"Fafi Fafi","staff":null,"patients_per_day":119,"water_on_site":"approx 200m fromcompound","water_available":"yes","rain_effects":"no effect","waterborne_cases":"no","camp":"Host community","elev_m":129,"flooded_2023":false,"flooded_2024":false,"flood_exposure":"Moderate","dist_tana_km":92.99,"in_county":true},"geometry":{"type":"Point","coordinates":[40.35194,0.00209]}},{"type":"Feature","properties":{"name":"Alijugur Disp","kephl_level":"Level 3","service":"out patient","ward":"Jarajila","staff":null,"patients_per_day":42,"water_on_site":"morethan 500m fromcompound","water_available":"yes","rain_effects":"toilet Infrastructure damage","waterborne_cases":"yes","camp":"Host community","elev_m":121,"flooded_2023":false,"flooded_2024":false,"flood_exposure":"Low","dist_tana_km":99.61,"in_county":true},"geometry":{"type":"Point","coordinates":[40.45714,-0.03295]}},{"type":"Feature","properties":{"name":"Barquqe Dispensary","kephl_level":"Level 2","service":"out patient","ward":"Modogashe","staff":null,"patients_per_day":30,"water_on_site":"morethan 500m fromcompound","water_available":"no","rain_effects":"recharged water sources floods affected management","waterborne_cases":"no","camp":"Host community","elev_m":306,"flooded_2023":false,"flooded_2024":false,"flood_exposure":"Moderate","dist_tana_km":76.97,"in_county":true},"geometry":{"type":"Point","coordinates":[39.00832,0.65236]}},{"type":"Feature","properties":{"name":"Jilango Dispensary","kephl_level":"Level 2","service":"out patient","ward":"Sabena","staff":null,"patients_per_day":53,"water_on_site":"morethan 500m fromcompound","water_available":"no","rain_effects":"increased water supply","waterborne_cases":"no","camp":"Host community","elev_m":255,"flooded_2023":false,"flooded_2024":false,"flood_exposure":"Moderate","dist_tana_km":70.17,"in_county":true},"geometry":{"type":"Point","coordinates":[39.26998,0.55371]}},{"type":"Feature","properties":{"name":"Saretho Health Centers","kephl_level":"Level 2","service":"out patient","ward":"Abakaile","staff":null,"patients_per_day":81,"water_on_site":"on premises","water_available":"no","rain_effects":"flooding stagnant water affected sanitation facilities floods affected management water Infrastructure damage toilet Infrastructure damage","waterborne_cases":"no","camp":"Host community","elev_m":162,"flooded_2023":false,"flooded_2024":false,"flood_exposure":"Moderate","dist_tana_km":70.28,"in_county":true},"geometry":{"type":"Point","coordinates":[40.13493,-0.02593]}},{"type":"Feature","properties":{"name":"Afwein Dispensary","kephl_level":"Level 2","service":"out patient","ward":"Baraki","staff":null,"patients_per_day":49,"water_on_site":"morethan 500m fromcompound","water_available":"no","rain_effects":"increased water supply bathroom Infrastructure damage","waterborne_cases":"no","camp":"Host community","elev_m":259,"flooded_2023":false,"flooded_2024":false,"flood_exposure":"Low","dist_tana_km":54.66,"in_county":true},"geometry":{"type":"Point","coordinates":[39.35633,0.35348]}},{"type":"Feature","properties":{"name":"Maalimin Dispensary","kephl_level":"Level 2","service":"out patient","ward":"Maalamin","staff":null,"patients_per_day":46,"water_on_site":"morethan 500m fromcompound","water_available":"no","rain_effects":"affected sanitation facilities increased water supply floods affected management","waterborne_cases":"no","camp":"Host community","elev_m":241,"flooded_2023":false,"flooded_2024":false,"flood_exposure":"High","dist_tana_km":57.07,"in_county":true},"geometry":{"type":"Point","coordinates":[39.34445,0.38751]}}]}