{"type":"FeatureCollection","features":[{"type":"Feature","properties":{"name":"Alinjugur S/Chief's Office","kmd_number":"8940006","opened":1973,"in_county":true,"dist_tana_km":95.99,"source":"KMD Garissa County Observation Networks ledger (4 Apr 2013), digitised"},"geometry":{"type":"Point","coordinates":[40.36667,0.03333]}},{"type":"Feature","properties":{"name":"Bangale Police Station","kmd_number":"9039006","opened":"n/a","in_county":false,"dist_tana_km":67.04,"source":"KMD Garissa County Observation Networks ledger (4 Apr 2013), digitised"},"geometry":{"type":"Point","coordinates":[39.0,-0.71667]}},{"type":"Feature","properties":{"name":"Benane Primary School","kmd_number":"8938002","opened":1973,"in_county":true,"dist_tana_km":58.78,"source":"KMD Garissa County Observation Networks ledger (4 Apr 2013), digitised"},"geometry":{"type":"Point","coordinates":[38.66,0.5]}},{"type":"Feature","properties":{"name":"Bodhai Holding Ground","kmd_number":"9140011","opened":1976,"in_county":true,"dist_tana_km":60.35,"source":"KMD Garissa County Observation Networks ledger (4 Apr 2013), digitised"},"geometry":{"type":"Point","coordinates":[40.68333,-1.81667]}},{"type":"Feature","properties":{"name":"Bothei Police Station","kmd_number":"n/a","opened":"n/a","in_county":true,"dist_tana_km":63.79,"source":"KMD Garissa County Observation Networks ledger (4 Apr 2013), digitised"},"geometry":{"type":"Point","coordinates":[40.71667,-1.85]}},{"type":"Feature","properties":{"name":"Bura East Police Station","kmd_number":"9139000","opened":1920,"in_county":true,"dist_tana_km":1.55,"source":"KMD Garissa County Observation Networks ledger (4 Apr 2013), digitised"},"geometry":{"type":"Point","coordinates":[39.95,-1.1]}},{"type":"Feature","properties":{"name":"Bura Research Station","kmd_number":"9139003","opened":1983,"in_county":true,"dist_tana_km":3.48,"source":"KMD Garissa County Observation Networks ledger (4 Apr 2013), digitised"},"geometry":{"type":"Point","coordinates":[39.9,-1.13333]}},{"type":"Feature","properties":{"name":"Dadaab Police Station","kmd_number":"8940002","opened":"n/a","in_county":true,"dist_tana_km":161.99,"source":"KMD Garissa County Observation Networks ledger (4 Apr 2013), digitised"},"geometry":{"type":"Point","coordinates":[40.88333,0.33333]}},{"type":"Feature","properties":{"name":"Dadaab Water Department","kmd_number":"8940005","opened":1970,"in_county":true,"dist_tana_km":92.88,"source":"KMD Garissa County Observation Networks ledger (4 Apr 2013), digitised"},"geometry":{"type":"Point","coordinates":[40.31667,0.06667]}},{"type":"Feature","properties":{"name":"Dertu Millennium Village","kmd_number":"n/a","opened":"n/a","in_county":true,"dist_tana_km":65.62,"source":"KMD Garissa County Observation Networks ledger (4 Apr 2013), digitised"},"geometry":{"type":"Point","coordinates":[39.79833,0.27167]}},{"type":"Feature","properties":{"name":"Galole Tana Irrigation Scheme","kmd_number":"9140005","opened":1957,"in_county":true,"dist_tana_km":5.24,"source":"KMD Garissa County Observation Networks ledger (4 Apr 2013), digitised"},"geometry":{"type":"Point","coordinates":[40.0,-1.51667]}},{"type":"Feature","properties":{"name":"Garissa Farmers Training Centre","kmd_number":"9039008","opened":"n/a","in_county":true,"dist_tana_km":0.21,"source":"KMD Garissa County Observation Networks ledger (4 Apr 2013), digitised"},"geometry":{"type":"Point","coordinates":[39.63333,-0.473]}},{"type":"Feature","properties":{"name":"Garissa Met Station","kmd_number":"9039000","opened":1932,"in_county":true,"dist_tana_km":0.59,"source":"KMD Garissa County Observation Networks ledger (4 Apr 2013), digitised"},"geometry":{"type":"Point","coordinates":[39.63333,-0.48333]}},{"type":"Feature","properties":{"name":"Handampia Primary School","kmd_number":"9140009","opened":1971,"in_county":false,"dist_tana_km":1.16,"source":"KMD Garissa County Observation Networks ledger (4 Apr 2013), digitised"},"geometry":{"type":"Point","coordinates":[40.06667,-1.58333]}},{"type":"Feature","properties":{"name":"Hara AP Camp, Masalani","kmd_number":"n/a","opened":"n/a","in_county":true,"dist_tana_km":8.5,"source":"KMD Garissa County Observation Networks ledger (4 Apr 2013), digitised"},"geometry":{"type":"Point","coordinates":[40.21667,-1.85]}},{"type":"Feature","properties":{"name":"Ijara Police Station","kmd_number":"9140002","opened":"n/a","in_county":true,"dist_tana_km":43.09,"source":"KMD Garissa County Observation Networks ledger (4 Apr 2013), digitised"},"geometry":{"type":"Point","coordinates":[40.5,-1.58333]}},{"type":"Feature","properties":{"name":"Korakora AP Post","kmd_number":"n/a","opened":2012,"in_county":true,"dist_tana_km":0.92,"source":"KMD Garissa County Observation Networks ledger (4 Apr 2013), digitised"},"geometry":{"type":"Point","coordinates":[39.78,-0.61048]}},{"type":"Feature","properties":{"name":"Kotile AP Camp","kmd_number":"n/a","opened":2008,"in_county":true,"dist_tana_km":5.13,"source":"KMD Garissa County Observation Networks ledger (4 Apr 2013), digitised"},"geometry":{"type":"Point","coordinates":[40.2,-1.96667]}},{"type":"Feature","properties":{"name":"Liboi Police Post","kmd_number":"8940003","opened":1960,"in_county":true,"dist_tana_km":162.49,"source":"KMD Garissa County Observation Networks ledger (4 Apr 2013), digitised"},"geometry":{"type":"Point","coordinates":[40.86667,0.36667]}},{"type":"Feature","properties":{"name":"Modogashe Police Station","kmd_number":"9039010","opened":2009,"in_county":true,"dist_tana_km":0.01,"source":"KMD Garissa County Observation Networks ledger (4 Apr 2013), digitised"},"geometry":{"type":"Point","coordinates":[39.63333,-0.469]}},{"type":"Feature","properties":{"name":"Makere Full Primary School","kmd_number":"9140010","opened":1971,"in_county":true,"dist_tana_km":0.98,"source":"KMD Garissa County Observation Networks ledger (4 Apr 2013), digitised"},"geometry":{"type":"Point","coordinates":[40.0,-1.33333]}},{"type":"Feature","properties":{"name":"Masalani Police Station","kmd_number":"9140007","opened":1970,"in_county":true,"dist_tana_km":0.44,"source":"KMD Garissa County Observation Networks ledger (4 Apr 2013), digitised"},"geometry":{"type":"Point","coordinates":[40.11667,-1.7]}},{"type":"Feature","properties":{"name":"Mbalambala Police Post","kmd_number":"9039001","opened":1936,"in_county":true,"dist_tana_km":1.63,"source":"KMD Garissa County Observation Networks ledger (4 Apr 2013), digitised"},"geometry":{"type":"Point","coordinates":[39.06667,-0.03333]}},{"type":"Feature","properties":{"name":"Mlanjo School Garissa","kmd_number":"9039003","opened":1977,"in_county":true,"dist_tana_km":3.55,"source":"KMD Garissa County Observation Networks ledger (4 Apr 2013), digitised"},"geometry":{"type":"Point","coordinates":[39.48333,-0.3]}},{"type":"Feature","properties":{"name":"Mnazini Primary School","kmd_number":"9240011","opened":1965,"in_county":true,"dist_tana_km":0.98,"source":"KMD Garissa County Observation Networks ledger (4 Apr 2013), digitised"},"geometry":{"type":"Point","coordinates":[40.15,-2.01667]}},{"type":"Feature","properties":{"name":"Modika CCK Post","kmd_number":"9039007","opened":2009,"in_county":true,"dist_tana_km":7.97,"source":"KMD Garissa County Observation Networks ledger (4 Apr 2013), digitised"},"geometry":{"type":"Point","coordinates":[39.7,-0.43333]}},{"type":"Feature","properties":{"name":"Muddo Gashi Police Post","kmd_number":"8939000","opened":1962,"in_county":true,"dist_tana_km":89.11,"source":"KMD Garissa County Observation Networks ledger (4 Apr 2013), digitised"},"geometry":{"type":"Point","coordinates":[39.18333,0.75]}},{"type":"Feature","properties":{"name":"Saka Veterinary Station","kmd_number":"9039002","opened":1973,"in_county":true,"dist_tana_km":0.69,"source":"KMD Garissa County Observation Networks ledger (4 Apr 2013), digitised"},"geometry":{"type":"Point","coordinates":[39.31667,-0.13333]}},{"type":"Feature","properties":{"name":"Santabak AP Camp","kmd_number":"n/a","opened":2008,"in_county":true,"dist_tana_km":79.48,"source":"KMD Garissa County Observation Networks ledger (4 Apr 2013), digitised"},"geometry":{"type":"Point","coordinates":[39.73333,0.46]}},{"type":"Feature","properties":{"name":"Shangailu","kmd_number":"n/a","opened":"n/a","in_county":true,"dist_tana_km":79.42,"source":"KMD Garissa County Observation Networks ledger (4 Apr 2013), digitised"},"geometry":{"type":"Point","coordinates":[40.75,-1.3]}},{"type":"Feature","properties":{"name":"Tana Experimental Station","kmd_number":"9140006","opened":1966,"in_county":true,"dist_tana_km":3.95,"source":"KMD Garissa County Observation Networks ledger (4 Apr 2013), digitised"},"geometry":{"type":"Point","coordinates":[40.0,-1.46667]}},{"type":"Feature","properties":{"name":"Tana River Forest Station","kmd_number":"9140012","opened":1977,"in_county":true,"dist_tana_km":0.33,"source":"KMD Garissa County Observation Networks ledger (4 Apr 2013), digitised"},"geometry":{"type":"Point","coordinates":[40.03333,-1.46667]}},{"type":"Feature","properties":{"name":"Wenje Full Primary School","kmd_number":"9140008","opened":1971,"in_county":false,"dist_tana_km":1.16,"source":"KMD Garissa County Observation Networks ledger (4 Apr 2013), digitised"},"geometry":{"type":"Point","coordinates":[40.1,-1.78333]}}]}