{"type":"FeatureCollection","features":[{"type":"Feature","properties":{"site_id":"NBS-001","nbs_type":"Flood detention & retention basin (hafir)"},"geometry":{"type":"Polygon","coordinates":[[[40.36055,-0.01507],[40.36055,-0.01715],[40.35996,-0.01803],[40.35909,-0.01862],[40.35806,-0.01882],[40.35702,-0.01862],[40.35615,-0.01803],[40.35557,-0.01715],[40.35536,-0.01611],[40.35557,-0.01507],[40.35615,-0.01419],[40.35702,-0.0136],[40.35806,-0.0134],[40.35909,-0.0136],[40.35996,-0.01419],[40.36055,-0.01507]]]}},{"type":"Feature","properties":{"site_id":"NBS-002","nbs_type":"Flood detention & retention basin (hafir)"},"geometry":{"type":"Polygon","coordinates":[[[40.52409,-1.56278],[40.5233,-1.5647],[40.52139,-1.56549],[40.52036,-1.56529],[40.51948,-1.5647],[40.5189,-1.56382],[40.51869,-1.56278],[40.5189,-1.56174],[40.51948,-1.56086],[40.52036,-1.56027],[40.52139,-1.56007],[40.52242,-1.56027],[40.52329,-1.56086],[40.52388,-1.56174],[40.52409,-1.56278]]]}},{"type":"Feature","properties":{"site_id":"NBS-003","nbs_type":"Flood detention & retention basin (hafir)"},"geometry":{"type":"Polygon","coordinates":[[[40.32853,-0.06056],[40.32774,-0.06247],[40.32687,-0.06306],[40.32583,-0.06327],[40.3248,-0.06306],[40.32393,-0.06247],[40.32334,-0.06159],[40.32314,-0.06056],[40.32334,-0.05952],[40.32393,-0.05864],[40.3248,-0.05805],[40.32583,-0.05784],[40.32687,-0.05805],[40.32774,-0.05864],[40.32832,-0.05952],[40.32853,-0.06056]]]}},{"type":"Feature","properties":{"site_id":"NBS-004","nbs_type":"Flood detention & retention basin (hafir)"},"geometry":{"type":"Polygon","coordinates":[[[40.46631,-1.51833],[40.4661,-1.51937],[40.46552,-1.52025],[40.46465,-1.52084],[40.46361,-1.52105],[40.46258,-1.52084],[40.46171,-1.52025],[40.46112,-1.51937],[40.46092,-1.51834],[40.46112,-1.5173],[40.4617,-1.51642],[40.46258,-1.51583],[40.46361,-1.51562],[40.46552,-1.51641],[40.4661,-1.51729],[40.46631,-1.51833]]]}},{"type":"Feature","properties":{"site_id":"NBS-005","nbs_type":"Flood detention & retention basin (hafir)"},"geometry":{"type":"Polygon","coordinates":[[[40.36388,-0.11063],[40.36388,-0.11271],[40.3633,-0.11359],[40.36139,-0.11438],[40.35948,-0.11359],[40.3589,-0.11271],[40.35869,-0.11167],[40.3589,-0.11063],[40.35948,-0.10975],[40.36036,-0.10916],[40.36139,-0.10895],[40.36242,-0.10916],[40.3633,-0.10975],[40.36388,-0.11063]]]}},{"type":"Feature","properties":{"site_id":"NBS-006","nbs_type":"Flood detention & retention basin (hafir)"},"geometry":{"type":"Polygon","coordinates":[[[40.44853,-1.46722],[40.44833,-1.46826],[40.44774,-1.46914],[40.44687,-1.46973],[40.44584,-1.46994],[40.4448,-1.46973],[40.44393,-1.46914],[40.44334,-1.46826],[40.44314,-1.46722],[40.44334,-1.46619],[40.44393,-1.46531],[40.4448,-1.46472],[40.44583,-1.46451],[40.44774,-1.4653],[40.44832,-1.46618],[40.44853,-1.46722]]]}},{"type":"Feature","properties":{"site_id":"NBS-007","nbs_type":"Flood detention & retention basin (hafir)"},"geometry":{"type":"Polygon","coordinates":[[[40.26944,0.1627],[40.26944,0.16063],[40.26885,0.15975],[40.26798,0.15916],[40.26694,0.15895],[40.26591,0.15916],[40.26504,0.15975],[40.26445,0.16063],[40.26425,0.16167],[40.26445,0.1627],[40.26504,0.16359],[40.26591,0.16417],[40.26695,0.16438],[40.26798,0.16417],[40.26885,0.16358],[40.26944,0.1627]]]}},{"type":"Feature","properties":{"site_id":"NBS-008","nbs_type":"Flood detention & retention basin (hafir)"},"geometry":{"type":"Polygon","coordinates":[[[40.28277,-0.08396],[40.28277,-0.08604],[40.28218,-0.08692],[40.28131,-0.08751],[40.28028,-0.08771],[40.27925,-0.08751],[40.27837,-0.08692],[40.27779,-0.08604],[40.27758,-0.085],[40.27779,-0.08396],[40.27837,-0.08308],[40.27925,-0.08249],[40.28028,-0.08229],[40.28131,-0.08249],[40.28218,-0.08308],[40.28277,-0.08396]]]}},{"type":"Feature","properties":{"site_id":"NBS-009","nbs_type":"Flood detention & retention basin (hafir)"},"geometry":{"type":"Polygon","coordinates":[[[40.84853,0.35389],[40.84832,0.35285],[40.84774,0.35197],[40.84686,0.35138],[40.84583,0.35118],[40.8448,0.35138],[40.84393,0.35197],[40.84334,0.35285],[40.84314,0.35389],[40.84334,0.35493],[40.84393,0.35581],[40.8448,0.3564],[40.84583,0.3566],[40.84687,0.35639],[40.84774,0.35581],[40.84832,0.35493],[40.84853,0.35389]]]}},{"type":"Feature","properties":{"site_id":"NBS-010","nbs_type":"Flood detention & retention basin (hafir)"},"geometry":{"type":"Polygon","coordinates":[[[40.40964,-1.43722],[40.40944,-1.43826],[40.40885,-1.43914],[40.40798,-1.43973],[40.40695,-1.43994],[40.40591,-1.43973],[40.40504,-1.43914],[40.40445,-1.43826],[40.40425,-1.43722],[40.40445,-1.43619],[40.40504,-1.43531],[40.40591,-1.43472],[40.40694,-1.43451],[40.40798,-1.43472],[40.40885,-1.4353],[40.40944,-1.43618],[40.40964,-1.43722]]]}},{"type":"Feature","properties":{"site_id":"NBS-011","nbs_type":"Flood detention & retention basin (hafir)"},"geometry":{"type":"Polygon","coordinates":[[[40.20388,0.17159],[40.20388,0.16952],[40.2033,0.16864],[40.20242,0.16805],[40.20139,0.16784],[40.20036,0.16805],[40.19948,0.16864],[40.1989,0.16952],[40.19869,0.17056],[40.19948,0.17247],[40.20036,0.17306],[40.20139,0.17327],[40.20242,0.17306],[40.2033,0.17247],[40.20388,0.17159]]]}},{"type":"Feature","properties":{"site_id":"NBS-012","nbs_type":"Flood detention & retention basin (hafir)"},"geometry":{"type":"Polygon","coordinates":[[[39.11631,0.68722],[39.1161,0.68618],[39.11552,0.6853],[39.11464,0.68471],[39.11361,0.68451],[39.11258,0.68471],[39.1117,0.6853],[39.11112,0.68618],[39.11092,0.68722],[39.11112,0.68826],[39.11171,0.68914],[39.11258,0.68973],[39.11361,0.68994],[39.11464,0.68973],[39.11552,0.68914],[39.1161,0.68826],[39.11631,0.68722]]]}},{"type":"Feature","properties":{"site_id":"NBS-013","nbs_type":"Flood detention & retention basin (hafir)"},"geometry":{"type":"Polygon","coordinates":[[[38.73409,0.51833],[38.73388,0.51729],[38.7333,0.51641],[38.73139,0.51562],[38.72948,0.51641],[38.7289,0.51729],[38.72869,0.51833],[38.7289,0.51937],[38.72948,0.52025],[38.73036,0.52084],[38.73139,0.52105],[38.73242,0.52084],[38.7333,0.52025],[38.73388,0.51937],[38.73409,0.51833]]]}},{"type":"Feature","properties":{"site_id":"NBS-014","nbs_type":"Flood detention & retention basin (hafir)"},"geometry":{"type":"Polygon","coordinates":[[[40.27631,0.00167],[40.2761,0.00063],[40.27552,-0.00025],[40.27464,-0.00084],[40.27361,-0.00105],[40.27258,-0.00084],[40.27171,-0.00025],[40.27112,0.00063],[40.27092,0.00167],[40.27112,0.0027],[40.27171,0.00359],[40.27258,0.00417],[40.27361,0.00438],[40.27552,0.00359],[40.27631,0.00167]]]}},{"type":"Feature","properties":{"site_id":"NBS-031","nbs_type":"Off-channel water pan (diversion-fed)"},"geometry":{"type":"Polygon","coordinates":[[[41.06496,-1.71944],[41.06457,-1.7204],[41.06361,-1.7208],[41.06257,-1.72031],[41.06226,-1.71945],[41.06266,-1.71849],[41.06361,-1.71809],[41.06456,-1.71848],[41.06496,-1.71944]]]}},{"type":"Feature","properties":{"site_id":"NBS-032","nbs_type":"Off-channel water pan (diversion-fed)"},"geometry":{"type":"Polygon","coordinates":[[[40.84718,-0.64611],[40.84679,-0.64707],[40.84583,-0.64747],[40.84488,-0.64707],[40.84449,-0.64624],[40.84479,-0.64525],[40.8457,-0.64476],[40.84679,-0.64515],[40.84718,-0.64611]]]}},{"type":"Feature","properties":{"site_id":"NBS-033","nbs_type":"Off-channel water pan (diversion-fed)"},"geometry":{"type":"Polygon","coordinates":[[[40.29829,-1.22833],[40.2979,-1.22929],[40.29695,-1.22969],[40.29599,-1.22929],[40.2956,-1.22847],[40.2959,-1.22747],[40.29681,-1.22698],[40.2979,-1.22737],[40.29829,-1.22833]]]}},{"type":"Feature","properties":{"site_id":"NBS-034","nbs_type":"Off-channel water pan (diversion-fed)"},"geometry":{"type":"Polygon","coordinates":[[[38.98274,0.61611],[38.98234,0.61515],[38.98139,0.61475],[38.98044,0.61515],[38.98004,0.61611],[38.98044,0.61707],[38.98139,0.61747],[38.98234,0.61707],[38.98274,0.61611]]]}},{"type":"Feature","properties":{"site_id":"NBS-035","nbs_type":"Off-channel water pan (diversion-fed)"},"geometry":{"type":"Polygon","coordinates":[[[40.97496,-0.14722],[40.97456,-0.14818],[40.97361,-0.14858],[40.97266,-0.14818],[40.97226,-0.14722],[40.97266,-0.14626],[40.97348,-0.14587],[40.97447,-0.14617],[40.97496,-0.14722]]]}},{"type":"Feature","properties":{"site_id":"NBS-036","nbs_type":"Off-channel water pan (diversion-fed)"},"geometry":{"type":"Polygon","coordinates":[[[40.17718,-0.71167],[40.17679,-0.71263],[40.1757,-0.71302],[40.17479,-0.71253],[40.17449,-0.71153],[40.17488,-0.71071],[40.17583,-0.71031],[40.17679,-0.71071],[40.17718,-0.71167]]]}},{"type":"Feature","properties":{"site_id":"NBS-037","nbs_type":"Off-channel water pan (diversion-fed)"},"geometry":{"type":"Polygon","coordinates":[[[39.44496,0.81833],[39.44456,0.81737],[39.44374,0.81698],[39.44266,0.81737],[39.44226,0.81833],[39.44266,0.81929],[39.44361,0.81969],[39.44456,0.81929],[39.44496,0.81833]]]}},{"type":"Feature","properties":{"site_id":"NBS-038","nbs_type":"Off-channel water pan (diversion-fed)"},"geometry":{"type":"Polygon","coordinates":[[[40.67051,-1.065],[40.67012,-1.06596],[40.66917,-1.06636],[40.66821,-1.06596],[40.66782,-1.065],[40.66821,-1.06404],[40.66917,-1.06364],[40.67012,-1.06404],[40.67051,-1.065]]]}},{"type":"Feature","properties":{"site_id":"NBS-039","nbs_type":"Off-channel water pan (diversion-fed)"},"geometry":{"type":"Polygon","coordinates":[[[41.06607,-1.55167],[41.06568,-1.55263],[41.06459,-1.55302],[41.06368,-1.55253],[41.06338,-1.55154],[41.06377,-1.55071],[41.06472,-1.55031],[41.06567,-1.55071],[41.06607,-1.55167]]]}},{"type":"Feature","properties":{"site_id":"NBS-040","nbs_type":"Off-channel water pan (diversion-fed)"},"geometry":{"type":"Polygon","coordinates":[[[39.4694,0.97389],[39.46901,0.97293],[39.46806,0.97253],[39.4671,0.97293],[39.46671,0.97376],[39.4671,0.97485],[39.46806,0.97525],[39.46901,0.97485],[39.4694,0.97389]]]}},{"type":"Feature","properties":{"site_id":"NBS-041","nbs_type":"Off-channel water pan (diversion-fed)"},"geometry":{"type":"Polygon","coordinates":[[[40.59385,-0.80278],[40.59345,-0.80374],[40.59263,-0.80413],[40.59155,-0.80374],[40.59115,-0.80278],[40.59155,-0.80182],[40.5925,-0.80142],[40.59345,-0.80182],[40.59385,-0.80278]]]}},{"type":"Feature","properties":{"site_id":"NBS-042","nbs_type":"Off-channel water pan (diversion-fed)"},"geometry":{"type":"Polygon","coordinates":[[[40.35051,-0.68722],[40.35012,-0.68818],[40.34917,-0.68858],[40.34821,-0.68818],[40.34782,-0.68722],[40.34821,-0.68626],[40.34903,-0.68587],[40.35012,-0.68626],[40.35051,-0.68722]]]}},{"type":"Feature","properties":{"site_id":"NBS-043","nbs_type":"Off-channel water pan (diversion-fed)"},"geometry":{"type":"Polygon","coordinates":[[[41.00274,-0.56944],[41.00234,-0.5704],[41.00139,-0.5708],[41.00044,-0.5704],[41.00004,-0.56945],[41.00035,-0.56858],[41.00139,-0.56809],[41.00243,-0.56858],[41.00274,-0.56944]]]}},{"type":"Feature","properties":{"site_id":"NBS-044","nbs_type":"Off-channel water pan (diversion-fed)"},"geometry":{"type":"Polygon","coordinates":[[[40.21496,-0.92167],[40.21457,-0.92263],[40.21374,-0.92302],[40.21266,-0.92263],[40.21226,-0.92167],[40.21266,-0.92071],[40.21361,-0.92031],[40.21456,-0.92071],[40.21496,-0.92167]]]}},{"type":"Feature","properties":{"site_id":"NBS-045","nbs_type":"Off-channel water pan (diversion-fed)"},"geometry":{"type":"Polygon","coordinates":[[[39.66829,0.60722],[39.6679,0.60626],[39.66694,0.60586],[39.6659,0.60636],[39.6656,0.60736],[39.66599,0.60818],[39.66695,0.60858],[39.6679,0.60818],[39.66829,0.60722]]]}},{"type":"Feature","properties":{"site_id":"NBS-046","nbs_type":"Off-channel water pan (diversion-fed)"},"geometry":{"type":"Polygon","coordinates":[[[39.89051,-0.09611],[39.89012,-0.09707],[39.88917,-0.09747],[39.88821,-0.09707],[39.88782,-0.09611],[39.88821,-0.09515],[39.88917,-0.09475],[39.89012,-0.09515],[39.89051,-0.09611]]]}},{"type":"Feature","properties":{"site_id":"NBS-059","nbs_type":"Flood-spreading bunds & spate irrigation (Zai/half-moons)"},"geometry":{"type":"Polygon","coordinates":[[[40.95055,0.43048],[40.95055,0.42841],[40.94996,0.42753],[40.94909,0.42694],[40.94806,0.42673],[40.94702,0.42694],[40.94615,0.42753],[40.94536,0.42944],[40.94557,0.43048],[40.94615,0.43136],[40.94703,0.43195],[40.94806,0.43216],[40.94909,0.43195],[40.94996,0.43136],[40.95055,0.43048]]]}},{"type":"Feature","properties":{"site_id":"NBS-060","nbs_type":"Flood-spreading bunds & spate irrigation (Zai/half-moons)"},"geometry":{"type":"Polygon","coordinates":[[[40.65742,0.23055],[40.65663,0.22864],[40.65575,0.22805],[40.65472,0.22784],[40.65369,0.22805],[40.65282,0.22864],[40.65223,0.22952],[40.65203,0.23056],[40.65223,0.23159],[40.65282,0.23247],[40.65369,0.23306],[40.65472,0.23327],[40.65575,0.23306],[40.65663,0.23247],[40.65721,0.23159],[40.65742,0.23055]]]}},{"type":"Feature","properties":{"site_id":"NBS-061","nbs_type":"Flood-spreading bunds & spate irrigation (Zai/half-moons)"},"geometry":{"type":"Polygon","coordinates":[[[40.4652,0.185],[40.46499,0.18396],[40.46441,0.18308],[40.46353,0.18249],[40.4625,0.18229],[40.46147,0.18249],[40.46059,0.18308],[40.46001,0.18396],[40.45981,0.185],[40.46001,0.18604],[40.46059,0.18692],[40.46147,0.18751],[40.4625,0.18771],[40.46353,0.18751],[40.46441,0.18692],[40.46499,0.18604],[40.4652,0.185]]]}},{"type":"Feature","properties":{"site_id":"NBS-062","nbs_type":"Flood-spreading bunds & spate irrigation (Zai/half-moons)"},"geometry":{"type":"Polygon","coordinates":[[[40.34388,0.19382],[40.34388,0.19174],[40.3433,0.19086],[40.34242,0.19027],[40.34139,0.19006],[40.34036,0.19027],[40.33948,0.19086],[40.3389,0.19174],[40.33869,0.19278],[40.3389,0.19382],[40.33948,0.1947],[40.34139,0.19549],[40.3433,0.1947],[40.34388,0.19382]]]}},{"type":"Feature","properties":{"site_id":"NBS-063","nbs_type":"Flood-spreading bunds & spate irrigation (Zai/half-moons)"},"geometry":{"type":"Polygon","coordinates":[[[40.1752,0.23944],[40.17441,0.23753],[40.17353,0.23694],[40.1725,0.23673],[40.17147,0.23694],[40.17059,0.23753],[40.17001,0.23841],[40.16981,0.23944],[40.17001,0.24048],[40.17059,0.24136],[40.17147,0.24195],[40.1725,0.24216],[40.17353,0.24195],[40.17441,0.24136],[40.17499,0.24048],[40.1752,0.23944]]]}},{"type":"Feature","properties":{"site_id":"NBS-064","nbs_type":"Flood-spreading bunds & spate irrigation (Zai/half-moons)"},"geometry":{"type":"Polygon","coordinates":[[[40.0752,0.32278],[40.07499,0.32174],[40.07441,0.32086],[40.07353,0.32027],[40.0725,0.32006],[40.07147,0.32027],[40.07059,0.32086],[40.07001,0.32174],[40.0698,0.32278],[40.07001,0.32382],[40.07059,0.3247],[40.0725,0.32549],[40.07441,0.3247],[40.07499,0.32382],[40.0752,0.32278]]]}},{"type":"Feature","properties":{"site_id":"NBS-065","nbs_type":"Flood-spreading bunds & spate irrigation (Zai/half-moons)"},"geometry":{"type":"Polygon","coordinates":[[[40.24853,-0.22944],[40.24832,-0.23048],[40.24774,-0.23136],[40.24687,-0.23195],[40.24583,-0.23216],[40.2448,-0.23195],[40.24393,-0.23136],[40.24334,-0.23048],[40.24314,-0.22945],[40.24334,-0.22841],[40.24393,-0.22753],[40.2448,-0.22694],[40.24583,-0.22673],[40.24687,-0.22694],[40.24774,-0.22753],[40.24853,-0.22944]]]}},{"type":"Feature","properties":{"site_id":"NBS-066","nbs_type":"Flood-spreading bunds & spate irrigation (Zai/half-moons)"},"geometry":{"type":"Polygon","coordinates":[[[40.44853,-1.47055],[40.44833,-1.47159],[40.44774,-1.47247],[40.44687,-1.47306],[40.44584,-1.47327],[40.4448,-1.47306],[40.44393,-1.47248],[40.44334,-1.4716],[40.44314,-1.47056],[40.44334,-1.46952],[40.44393,-1.46864],[40.4448,-1.46805],[40.44583,-1.46784],[40.44686,-1.46805],[40.44774,-1.46864],[40.44853,-1.47055]]]}},{"type":"Feature","properties":{"site_id":"NBS-067","nbs_type":"Flood-spreading bunds & spate irrigation (Zai/half-moons)"},"geometry":{"type":"Polygon","coordinates":[[[39.45277,0.8227],[39.45277,0.82063],[39.45218,0.81975],[39.45131,0.81916],[39.45028,0.81895],[39.44925,0.81916],[39.44837,0.81975],[39.44779,0.82063],[39.44758,0.82167],[39.44779,0.82271],[39.44837,0.82359],[39.45028,0.82438],[39.45131,0.82417],[39.45218,0.82359],[39.45277,0.8227]]]}},{"type":"Feature","properties":{"site_id":"NBS-068","nbs_type":"Flood-spreading bunds & spate irrigation (Zai/half-moons)"},"geometry":{"type":"Polygon","coordinates":[[[41.25742,-1.36833],[41.25721,-1.36937],[41.25663,-1.37025],[41.25576,-1.37084],[41.25473,-1.37105],[41.25369,-1.37084],[41.25282,-1.37025],[41.25223,-1.36937],[41.25203,-1.36834],[41.25223,-1.3673],[41.25282,-1.36642],[41.25369,-1.36583],[41.25472,-1.36562],[41.25663,-1.36641],[41.25721,-1.36729],[41.25742,-1.36833]]]}},{"type":"Feature","properties":{"site_id":"NBS-069","nbs_type":"Garissa Town flash-flood interception (detention basin + green corridor)"},"geometry":{"type":"Polygon","coordinates":[[[39.62735,-0.4675],[39.62683,-0.46878],[39.62556,-0.46931],[39.62429,-0.46878],[39.62376,-0.4675],[39.62429,-0.46622],[39.62556,-0.46569],[39.62683,-0.46622],[39.62735,-0.4675]]]}},{"type":"Feature","properties":{"site_id":"NBS-070","nbs_type":"Garissa Town flash-flood interception (detention basin + green corridor)"},"geometry":{"type":"Polygon","coordinates":[[[39.60124,-0.42639],[39.60072,-0.42767],[39.59945,-0.4282],[39.59817,-0.42767],[39.59765,-0.42639],[39.59817,-0.42511],[39.59944,-0.42458],[39.60072,-0.42511],[39.60124,-0.42639]]]}},{"type":"Feature","properties":{"site_id":"NBS-071","nbs_type":"Garissa Town flash-flood interception (detention basin + green corridor)"},"geometry":{"type":"Polygon","coordinates":[[[39.59958,-0.38361],[39.59905,-0.38489],[39.59778,-0.38542],[39.59651,-0.38489],[39.59598,-0.38361],[39.59651,-0.38233],[39.59778,-0.3818],[39.59905,-0.38233],[39.59958,-0.38361]]]}},{"type":"Feature","properties":{"site_id":"NBS-072","nbs_type":"Garissa Town flash-flood interception (detention basin + green corridor)"},"geometry":{"type":"Polygon","coordinates":[[[39.62346,-0.41361],[39.62294,-0.41489],[39.62167,-0.41542],[39.6204,-0.41489],[39.61987,-0.41361],[39.6204,-0.41233],[39.62167,-0.4118],[39.62294,-0.41233],[39.62346,-0.41361]]]}},{"type":"Feature","properties":{"site_id":"NBS-073","nbs_type":"Garissa Town flash-flood interception (detention basin + green corridor)"},"geometry":{"type":"Polygon","coordinates":[[[39.63458,-0.42417],[39.63405,-0.42545],[39.63278,-0.42598],[39.63151,-0.42545],[39.63098,-0.42417],[39.63151,-0.42289],[39.63278,-0.42236],[39.63405,-0.42289],[39.63458,-0.42417]]]}},{"type":"Feature","properties":{"site_id":"NBS-074","nbs_type":"Garissa Town flash-flood interception (detention basin + green corridor)"},"geometry":{"type":"Polygon","coordinates":[[[39.65402,-0.41694],[39.65361,-0.41809],[39.6524,-0.41875],[39.65108,-0.41834],[39.65043,-0.41712],[39.65083,-0.4158],[39.65205,-0.41514],[39.65336,-0.41555],[39.65402,-0.41694]]]}},{"type":"Feature","properties":{"site_id":"NBS-075","nbs_type":"Garissa Town flash-flood interception (detention basin + green corridor)"},"geometry":{"type":"Polygon","coordinates":[[[39.61846,-0.39194],[39.61806,-0.39309],[39.61684,-0.39375],[39.61553,-0.39334],[39.61487,-0.39194],[39.61528,-0.3908],[39.61649,-0.39014],[39.61781,-0.39055],[39.61846,-0.39194]]]}},{"type":"Feature","properties":{"site_id":"NBS-076","nbs_type":"Garissa Town flash-flood interception (detention basin + green corridor)"},"geometry":{"type":"Polygon","coordinates":[[[39.67735,-0.40806],[39.67683,-0.40934],[39.67556,-0.40987],[39.67429,-0.40934],[39.67376,-0.40806],[39.67429,-0.40678],[39.67556,-0.40625],[39.67683,-0.40678],[39.67735,-0.40806]]]}}]}