{"type":"FeatureCollection","features":[{"type":"Feature","properties":{"name":"Garissa Town","kind":"County HQ","dist_tana_km":1.73},"geometry":{"type":"Point","coordinates":[39.6461,-0.4532]}},{"type":"Feature","properties":{"name":"Dadaab","kind":"Sub-county HQ","dist_tana_km":91.85},"geometry":{"type":"Point","coordinates":[40.3107,0.0585]}},{"type":"Feature","properties":{"name":"Hagadera","kind":"Refugee camp","dist_tana_km":94.47},"geometry":{"type":"Point","coordinates":[40.3689,-0.0028]}},{"type":"Feature","properties":{"name":"Ifo","kind":"Refugee camp","dist_tana_km":95.56},"geometry":{"type":"Point","coordinates":[40.315,0.115]}},{"type":"Feature","properties":{"name":"Dagahaley","kind":"Refugee camp","dist_tana_km":98.16},"geometry":{"type":"Point","coordinates":[40.29,0.19]}},{"type":"Feature","properties":{"name":"Modogashe","kind":"Town","dist_tana_km":75.82},"geometry":{"type":"Point","coordinates":[39.633,0.469]}},{"type":"Feature","properties":{"name":"Masalani","kind":"Ijara HQ","dist_tana_km":0.47},"geometry":{"type":"Point","coordinates":[40.117,-1.7]}},{"type":"Feature","properties":{"name":"Ijara","kind":"Town","dist_tana_km":45.58},"geometry":{"type":"Point","coordinates":[40.521,-1.574]}},{"type":"Feature","properties":{"name":"Hulugho","kind":"Town","dist_tana_km":115.73},"geometry":{"type":"Point","coordinates":[41.048,-1.148]}},{"type":"Feature","properties":{"name":"Bura (Fafi)","kind":"Town","dist_tana_km":48.62},"geometry":{"type":"Point","coordinates":[39.95,-0.1]}},{"type":"Feature","properties":{"name":"Balambala","kind":"Town","dist_tana_km":0.16},"geometry":{"type":"Point","coordinates":[39.089,-0.078]}},{"type":"Feature","properties":{"name":"Liboi","kind":"Border town","dist_tana_km":162.54},"geometry":{"type":"Point","coordinates":[40.867,0.367]}},{"type":"Feature","properties":{"name":"Bothai","kind":"Town","dist_tana_km":63.83},"geometry":{"type":"Point","coordinates":[40.717,-1.85]}},{"type":"Feature","properties":{"name":"Sankuri","kind":"Riverine village","dist_tana_km":0.32},"geometry":{"type":"Point","coordinates":[39.555,-0.305]}},{"type":"Feature","properties":{"name":"Saka","kind":"Riverine village","dist_tana_km":0.32},"geometry":{"type":"Point","coordinates":[39.327,-0.145]}},{"type":"Feature","properties":{"name":"Mbalambala","kind":"Riverine village","dist_tana_km":1.66},"geometry":{"type":"Point","coordinates":[39.067,-0.033]}},{"type":"Feature","properties":{"name":"Korakora","kind":"Riverine village","dist_tana_km":0.68},"geometry":{"type":"Point","coordinates":[39.781,-0.614]}},{"type":"Feature","properties":{"name":"Bour-Algi","kind":"Riverine village","dist_tana_km":0.98},"geometry":{"type":"Point","coordinates":[39.67,-0.52]}},{"type":"Feature","properties":{"name":"Nanighi","kind":"Riverine village","dist_tana_km":0.37},"geometry":{"type":"Point","coordinates":[39.864,-0.851]}},{"type":"Feature","properties":{"name":"Benane","kind":"Town","dist_tana_km":58.78},"geometry":{"type":"Point","coordinates":[38.66,0.5]}},{"type":"Feature","properties":{"name":"Shantabaq","kind":"Town","dist_tana_km":79.8},"geometry":{"type":"Point","coordinates":[39.74,0.46]}},{"type":"Feature","properties":{"name":"Kotile","kind":"Village","dist_tana_km":5.02},"geometry":{"type":"Point","coordinates":[40.2,-1.97]}},{"type":"Feature","properties":{"name":"Dertu","kind":"Village","dist_tana_km":65.6},"geometry":{"type":"Point","coordinates":[39.8,0.27]}},{"type":"Feature","properties":{"name":"Fafi","kind":"Village","dist_tana_km":65.5},"geometry":{"type":"Point","coordinates":[40.32,-0.39]}}]}