{"type":"FeatureCollection","features":[{"type":"Feature","properties":{"name":"Umoja Aep Primary-Ae","type":"day school","level":"accelerated program","sub_county":"Dadaab Sub County","ward":"","pupils":172,"host_refugee":"","risk":"HIGH","dist_tana_km":96.46,"in_county":true},"geometry":{"type":"Point","coordinates":[40.38279,0.00978]}},{"type":"Feature","properties":{"name":"Halgan Abe-Sci","type":"day school","level":"lower primary","sub_county":"Fafi Sub County","ward":"","pupils":362,"host_refugee":"","risk":"HIGH","dist_tana_km":94.22,"in_county":true},"geometry":{"type":"Point","coordinates":[40.36568,-0.0012]}},{"type":"Feature","properties":{"name":"Dwatobeer Abe-Sci","type":"day school","level":"lower primary","sub_county":"Fafi Sub County","ward":"","pupils":383,"host_refugee":"","risk":"HIGH","dist_tana_km":94.71,"in_county":true},"geometry":{"type":"Point","coordinates":[40.37339,-0.00752]}},{"type":"Feature","properties":{"name":"Umoja Primary","type":"day school","level":"upper primary pre primary lower primary","sub_county":"Dadaab Sub County","ward":"","pupils":1059,"host_refugee":"","risk":"HIGH","dist_tana_km":96.5,"in_county":true},"geometry":{"type":"Point","coordinates":[40.38332,0.00941]}},{"type":"Feature","properties":{"name":"Iftin Aep Primary-Ae","type":"day school","level":"accelerated program","sub_county":"Fafi Sub County","ward":"","pupils":430,"host_refugee":"","risk":"HIGH","dist_tana_km":94.4,"in_county":true},"geometry":{"type":"Point","coordinates":[40.36648,0.00079]}},{"type":"Feature","properties":{"name":"Iftin Primary","type":"day school","level":"pre primary lower primary upper primary","sub_county":"Fafi Sub County","ward":"","pupils":1388,"host_refugee":"","risk":"HIGH","dist_tana_km":94.4,"in_county":true},"geometry":{"type":"Point","coordinates":[40.36651,0.0008]}},{"type":"Feature","properties":{"name":"Amani Primary","type":"day school","level":"lower primary upper primary pre primary Junior secondary","sub_county":"Dadaab Sub County","ward":"","pupils":1243,"host_refugee":"","risk":"HIGH","dist_tana_km":96.45,"in_county":true},"geometry":{"type":"Point","coordinates":[40.38468,0.00547]}},{"type":"Feature","properties":{"name":"Undugu Primary","type":"day school","level":"pre primary lower primary upper primary Junior secondary","sub_county":"Fafi Sub County","ward":"","pupils":2029,"host_refugee":"","risk":"HIGH","dist_tana_km":94.0,"in_county":true},"geometry":{"type":"Point","coordinates":[40.36294,3e-05]}},{"type":"Feature","properties":{"name":"Upendo Primary","type":"day school","level":"pre primary lower primary upper primary Junior secondary","sub_county":"Fafi Sub County","ward":"","pupils":1920,"host_refugee":"","risk":"HIGH","dist_tana_km":94.42,"in_county":true},"geometry":{"type":"Point","coordinates":[40.36904,-0.00416]}},{"type":"Feature","properties":{"name":"Central Primary","type":"day school","level":"pre primary lower primary upper primary Junior secondary","sub_county":"Fafi Sub County","ward":"","pupils":761,"host_refugee":"","risk":"HIGH","dist_tana_km":94.97,"in_county":true},"geometry":{"type":"Point","coordinates":[40.3708,0.00375]}},{"type":"Feature","properties":{"name":"Bidii Primary","type":"day school","level":"pre primary lower primary upper primary","sub_county":"Fafi Sub County","ward":"","pupils":1491,"host_refugee":"","risk":"HIGH","dist_tana_km":94.95,"in_county":true},"geometry":{"type":"Point","coordinates":[40.37552,-0.00666]}},{"type":"Feature","properties":{"name":"Hilac Primary School","type":"day school","level":"pre primary lower primary upper primary","sub_county":"Dadaab Sub County","ward":"","pupils":3418,"host_refugee":"","risk":"HIGH","dist_tana_km":98.55,"in_county":true},"geometry":{"type":"Point","coordinates":[40.32541,0.14782]}},{"type":"Feature","properties":{"name":"Ifo Yep Aep  Primary-Ae","type":"day school","level":"pre primary lower primary","sub_county":"Dadaab Sub County","ward":"","pupils":1340,"host_refugee":"","risk":"HIGH","dist_tana_km":95.84,"in_county":true},"geometry":{"type":"Point","coordinates":[40.31468,0.12013]}},{"type":"Feature","properties":{"name":"Unity Abe-Sci","type":"day school","level":"alternative ABE","sub_county":"Dadaab Sub County","ward":"","pupils":429,"host_refugee":"","risk":"HIGH","dist_tana_km":94.52,"in_county":true},"geometry":{"type":"Point","coordinates":[40.31423,0.09899]}},{"type":"Feature","properties":{"name":"Waberi Abe-Sci","type":"day school","level":"alternative ABE","sub_county":"Dadaab Sub County","ward":"","pupils":373,"host_refugee":"","risk":"HIGH","dist_tana_km":96.72,"in_county":true},"geometry":{"type":"Point","coordinates":[40.3256,0.1179]}},{"type":"Feature","properties":{"name":"Friends Aep-Ae","type":"day school","level":"lower primary upper primary","sub_county":"Dadaab Sub County","ward":"","pupils":316,"host_refugee":"","risk":"HIGH","dist_tana_km":94.23,"in_county":true},"geometry":{"type":"Point","coordinates":[40.3116,0.09828]}},{"type":"Feature","properties":{"name":"Friends Primary-Ae","type":"day school","level":"pre primary lower primary upper primary Junior secondary","sub_county":"Dadaab Sub County","ward":"","pupils":1102,"host_refugee":"","risk":"HIGH","dist_tana_km":94.21,"in_county":true},"geometry":{"type":"Point","coordinates":[40.31093,0.09902]}},{"type":"Feature","properties":{"name":"Horseed Primary","type":"day school","level":"pre primary lower primary upper primary Junior secondary","sub_county":"Dadaab Sub County","ward":"","pupils":1821,"host_refugee":"","risk":"HIGH","dist_tana_km":95.86,"in_county":true},"geometry":{"type":"Point","coordinates":[40.32159,0.1099]}},{"type":"Feature","properties":{"name":"Hormud Primary","type":"day school","level":"lower primary upper primary pre primary","sub_county":"Dadaab Sub County","ward":"","pupils":2030,"host_refugee":"","risk":"HIGH","dist_tana_km":95.59,"in_county":true},"geometry":{"type":"Point","coordinates":[40.30817,0.12581]}},{"type":"Feature","properties":{"name":"Halane Primary","type":"day school","level":"pre primary lower primary upper primary","sub_county":"Dadaab Sub County","ward":"","pupils":1304,"host_refugee":"","risk":"HIGH","dist_tana_km":95.07,"in_county":true},"geometry":{"type":"Point","coordinates":[40.31297,0.11005]}},{"type":"Feature","properties":{"name":"Kulmiye Abe Centre","type":"day school","level":"lower primary","sub_county":"Dadaab Sub County","ward":"","pupils":571,"host_refugee":"","risk":"HIGH","dist_tana_km":98.69,"in_county":true},"geometry":{"type":"Point","coordinates":[40.32831,0.14589]}},{"type":"Feature","properties":{"name":"Abdul-Aziz Primary","type":"day school","level":"pre primary lower primary upper primary Junior secondary","sub_county":"Dadaab Sub County","ward":"","pupils":1858,"host_refugee":"","risk":"HIGH","dist_tana_km":96.22,"in_county":true},"geometry":{"type":"Point","coordinates":[40.32086,0.11695]}},{"type":"Feature","properties":{"name":"Liban Abe-Sci","type":"day school","level":"alternative ABE","sub_county":"Dadaab Sub County","ward":"","pupils":410,"host_refugee":"","risk":"HIGH","dist_tana_km":96.6,"in_county":true},"geometry":{"type":"Point","coordinates":[40.31996,0.12449]}},{"type":"Feature","properties":{"name":"Horyaal Primary","type":"day school","level":"pre primary lower primary upper primary Junior secondary","sub_county":"Dadaab Sub County","ward":"","pupils":1826,"host_refugee":"","risk":"HIGH","dist_tana_km":96.37,"in_county":true},"geometry":{"type":"Point","coordinates":[40.3177,0.12429]}},{"type":"Feature","properties":{"name":"Hornimo Primary","type":"day school","level":"pre primary lower primary upper primary Junior secondary","sub_county":"Dadaab Sub County","ward":"","pupils":1454,"host_refugee":"","risk":"HIGH","dist_tana_km":94.92,"in_county":true},"geometry":{"type":"Point","coordinates":[40.30798,0.11533]}},{"type":"Feature","properties":{"name":"Dagahley Aep Primary-Ae","type":"day school","level":"accelerated program","sub_county":"Dadaab Sub County","ward":"","pupils":206,"host_refugee":"","risk":"HIGH","dist_tana_km":97.18,"in_county":true},"geometry":{"type":"Point","coordinates":[40.28894,0.17698]}},{"type":"Feature","properties":{"name":"Elnino Primary","type":"day school","level":"pre primary lower primary upper primary","sub_county":"Dadaab Sub County","ward":"","pupils":1485,"host_refugee":"","risk":"HIGH","dist_tana_km":97.18,"in_county":true},"geometry":{"type":"Point","coordinates":[40.28903,0.17696]}},{"type":"Feature","properties":{"name":"Wadajir Primary","type":"day school","level":"pre primary lower primary upper primary","sub_county":"Dadaab Sub County","ward":"","pupils":1594,"host_refugee":"","risk":"HIGH","dist_tana_km":96.85,"in_county":true},"geometry":{"type":"Point","coordinates":[40.28048,0.18308]}},{"type":"Feature","properties":{"name":"Illeys Primary","type":"day school","level":"pre primary lower primary upper primary","sub_county":"Dadaab Sub County","ward":"","pupils":1853,"host_refugee":"","risk":"HIGH","dist_tana_km":97.48,"in_county":true},"geometry":{"type":"Point","coordinates":[40.28303,0.18904]}},{"type":"Feature","properties":{"name":"Unity Primary","type":"day school","level":"pre primary lower primary Junior secondary","sub_county":"Dadaab Sub County","ward":"","pupils":1600,"host_refugee":"","risk":"HIGH","dist_tana_km":98.37,"in_county":true},"geometry":{"type":"Point","coordinates":[40.29064,0.19228]}},{"type":"Feature","properties":{"name":"Horsed Abe-Sci","type":"day school","level":"alternative ABE","sub_county":"Dadaab Sub County","ward":"","pupils":353,"host_refugee":"","risk":"HIGH","dist_tana_km":97.67,"in_county":true},"geometry":{"type":"Point","coordinates":[40.2868,0.18704]}},{"type":"Feature","properties":{"name":"Juba Primary","type":"day school","level":"pre primary lower primary upper primary Junior secondary","sub_county":"Dadaab Sub County","ward":"","pupils":1651,"host_refugee":"","risk":"HIGH","dist_tana_km":97.55,"in_county":true},"geometry":{"type":"Point","coordinates":[40.28628,0.18587]}},{"type":"Feature","properties":{"name":"Daryel Abe-Sci","type":"day school","level":"alternative ABE","sub_county":"Dadaab Sub County","ward":"","pupils":581,"host_refugee":"","risk":"HIGH","dist_tana_km":96.74,"in_county":true},"geometry":{"type":"Point","coordinates":[40.27973,0.18237]}},{"type":"Feature","properties":{"name":"Badbado Abe-Sci","type":"day school","level":"alternative ABE","sub_county":"Dadaab Sub County","ward":"","pupils":608,"host_refugee":"","risk":"HIGH","dist_tana_km":97.72,"in_county":true},"geometry":{"type":"Point","coordinates":[40.27927,0.19711]}},{"type":"Feature","properties":{"name":"Bahati Primary","type":"day school","level":"pre primary lower primary upper primary Junior secondary","sub_county":"Dadaab Sub County","ward":"","pupils":2100,"host_refugee":"","risk":"HIGH","dist_tana_km":97.18,"in_county":true},"geometry":{"type":"Point","coordinates":[40.28071,0.18756]}},{"type":"Feature","properties":{"name":"Central Primary","type":"day school","level":"pre primary lower primary upper primary Junior secondary","sub_county":"Dadaab Sub County","ward":"","pupils":2163,"host_refugee":"","risk":"HIGH","dist_tana_km":98.2,"in_county":true},"geometry":{"type":"Point","coordinates":[40.28649,0.19514]}},{"type":"Feature","properties":{"name":"Waberi","type":"day school","level":"secondary school","sub_county":"Dadaab Sub County","ward":"","pupils":1387,"host_refugee":"","risk":"HIGH","dist_tana_km":91.15,"in_county":true},"geometry":{"type":"Point","coordinates":[40.30557,0.05475]}},{"type":"Feature","properties":{"name":"Ifo Secondary","type":"day school","level":"secondary school","sub_county":"Dadaab Sub County","ward":"","pupils":531,"host_refugee":"","risk":"HIGH","dist_tana_km":94.34,"in_county":true},"geometry":{"type":"Point","coordinates":[40.30876,0.10444]}},{"type":"Feature","properties":{"name":"Hagadera Secondary","type":"day school","level":"secondary school","sub_county":"Fafi Sub County","ward":"","pupils":1251,"host_refugee":"","risk":"HIGH","dist_tana_km":95.09,"in_county":true},"geometry":{"type":"Point","coordinates":[40.3698,0.00852]}},{"type":"Feature","properties":{"name":"Towfiq Secondary","type":"day school","level":"secondary school","sub_county":"Dadaab Sub County","ward":"","pupils":948,"host_refugee":"","risk":"HIGH","dist_tana_km":96.27,"in_county":true},"geometry":{"type":"Point","coordinates":[40.31724,0.12326]}},{"type":"Feature","properties":{"name":"Tawakal Secondary","type":"day school","level":"secondary school","sub_county":"Dadaab Sub County","ward":"","pupils":771,"host_refugee":"","risk":"HIGH","dist_tana_km":98.21,"in_county":true},"geometry":{"type":"Point","coordinates":[40.29763,0.18099]}},{"type":"Feature","properties":{"name":"Dagahaley Secondary","type":"day school","level":"secondary school","sub_county":"Dadaab Sub County","ward":"","pupils":845,"host_refugee":"","risk":"HIGH","dist_tana_km":98.3,"in_county":true},"geometry":{"type":"Point","coordinates":[40.29413,0.18679]}},{"type":"Feature","properties":{"name":"Saka Junction","type":"day school","level":"pre primary lower primary upper primary Junior secondary","sub_county":"Balambala Sub County","ward":"sankuri","pupils":0,"host_refugee":"host","risk":"LOW","dist_tana_km":19.81,"in_county":true},"geometry":{"type":"Point","coordinates":[39.37527,0.03034]}},{"type":"Feature","properties":{"name":"Danley Pri Sch","type":"day and boarding","level":"pre primary lower primary upper primary Junior secondary","sub_county":"Balambala Sub County","ward":"saka","pupils":0,"host_refugee":"host","risk":"HIGH","dist_tana_km":1.67,"in_county":true},"geometry":{"type":"Point","coordinates":[39.40145,-0.17727]}},{"type":"Feature","properties":{"name":"Saka Boarding Pri Sch","type":"day and boarding","level":"pre primary lower primary upper primary Junior secondary","sub_county":"Balambala Sub County","ward":"saka","pupils":0,"host_refugee":"host","risk":"HIGH","dist_tana_km":0.65,"in_county":true},"geometry":{"type":"Point","coordinates":[39.32888,-0.14256]}},{"type":"Feature","properties":{"name":"Mathahlibah Primary","type":"day school","level":"pre primary lower primary upper primary","sub_county":"Balambala Sub County","ward":"saka","pupils":0,"host_refugee":"host","risk":"MEDIUM","dist_tana_km":2.32,"in_county":true},"geometry":{"type":"Point","coordinates":[39.35857,-0.1445]}},{"type":"Feature","properties":{"name":"Bogyar Primary School","type":"day school","level":"Junior secondary upper primary lower primary pre primary","sub_county":"Dadaab Sub County","ward":"dadaab dadaab","pupils":0,"host_refugee":"host","risk":"HIGH","dist_tana_km":82.48,"in_county":true},"geometry":{"type":"Point","coordinates":[40.25395,-0.01338]}},{"type":"Feature","properties":{"name":"Alango Arba Primary","type":"day school","level":"Junior secondary pre primary lower primary upper primary","sub_county":"Dadaab Sub County","ward":"dertu","pupils":0,"host_refugee":"host","risk":"LOW","dist_tana_km":51.98,"in_county":true},"geometry":{"type":"Point","coordinates":[39.9838,-0.09541]}},{"type":"Feature","properties":{"name":"Saretho Pre-School","type":"day and boarding","level":"pre primary lower primary upper primary Junior secondary","sub_county":"Dadaab Sub County","ward":"abakaile","pupils":0,"host_refugee":"host","risk":"LOW","dist_tana_km":70.78,"in_county":true},"geometry":{"type":"Point","coordinates":[40.13872,-0.02346]}},{"type":"Feature","properties":{"name":"Warable Pre Primary","type":"day school","level":"pre primary lower primary upper primary Junior secondary","sub_county":"Fafi Sub County","ward":"bura fafi","pupils":0,"host_refugee":"host","risk":"HIGH","dist_tana_km":2.48,"in_county":true},"geometry":{"type":"Point","coordinates":[39.82249,-0.66814]}},{"type":"Feature","properties":{"name":"Abaqdera Primary Junior School","type":"day school","level":"pre primary lower primary upper primary","sub_county":"Fafi Sub County","ward":"nanighi","pupils":0,"host_refugee":"host","risk":"HIGH","dist_tana_km":1.77,"in_county":true},"geometry":{"type":"Point","coordinates":[39.84712,-0.78908]}},{"type":"Feature","properties":{"name":"Nanighi","type":"day and boarding","level":"pre primary lower primary upper primary","sub_county":"Fafi Sub County","ward":"nanighi","pupils":0,"host_refugee":"host","risk":"MEDIUM","dist_tana_km":0.72,"in_county":true},"geometry":{"type":"Point","coordinates":[39.87081,-0.8546]}},{"type":"Feature","properties":{"name":"Gora Primary School","type":"day school","level":"pre primary lower primary","sub_county":"Fafi Sub County","ward":"nanighi","pupils":0,"host_refugee":"host","risk":"HIGH","dist_tana_km":1.77,"in_county":true},"geometry":{"type":"Point","coordinates":[39.84087,-0.75597]}},{"type":"Feature","properties":{"name":"Nadir Primary School","type":"day school","level":"pre primary lower primary upper primary Junior secondary","sub_county":"Fafi Sub County","ward":"bura fafi","pupils":0,"host_refugee":"host","risk":"HIGH","dist_tana_km":2.18,"in_county":true},"geometry":{"type":"Point","coordinates":[39.83344,-0.70519]}},{"type":"Feature","properties":{"name":"Taqal Primary School","type":"day school","level":"pre primary lower primary upper primary","sub_county":"Fafi Sub County","ward":"nanighi","pupils":0,"host_refugee":"host","risk":"MEDIUM","dist_tana_km":1.35,"in_county":true},"geometry":{"type":"Point","coordinates":[39.85835,-0.82583]}},{"type":"Feature","properties":{"name":"Kamuthe Primary","type":"day and boarding","level":"pre primary lower primary upper primary Junior secondary","sub_county":"Fafi Sub County","ward":"nanighi","pupils":0,"host_refugee":"host","risk":"HIGH","dist_tana_km":1.83,"in_county":true},"geometry":{"type":"Point","coordinates":[39.83587,-0.73384]}},{"type":"Feature","properties":{"name":"Karbuna Primary School","type":"day school","level":"pre primary lower primary upper primary","sub_county":"Balambala Sub County","ward":"danyere","pupils":0,"host_refugee":"host","risk":"MEDIUM","dist_tana_km":1.09,"in_county":true},"geometry":{"type":"Point","coordinates":[38.92924,-0.08337]}},{"type":"Feature","properties":{"name":"Danyere Pri Sch","type":"day and boarding","level":"pre primary lower primary upper primary Junior secondary","sub_county":"Balambala Sub County","ward":"danyere","pupils":0,"host_refugee":"host","risk":"LOW","dist_tana_km":8.4,"in_county":true},"geometry":{"type":"Point","coordinates":[38.74234,0.01093]}},{"type":"Feature","properties":{"name":"Siqley Primary","type":"day school","level":"pre primary upper primary lower primary","sub_county":"Balambala Sub County","ward":"danyere","pupils":0,"host_refugee":"host","risk":"MEDIUM","dist_tana_km":0.59,"in_county":false},"geometry":{"type":"Point","coordinates":[38.74124,-0.06566]}},{"type":"Feature","properties":{"name":"Mudey Primary","type":"day school","level":"pre primary lower primary upper primary Junior secondary","sub_county":"Balambala Sub County","ward":"danyere","pupils":0,"host_refugee":"host","risk":"HIGH","dist_tana_km":1.79,"in_county":true},"geometry":{"type":"Point","coordinates":[38.96703,-0.05247]}},{"type":"Feature","properties":{"name":"Orahey Primary","type":"day school","level":"pre primary lower primary upper primary Junior secondary","sub_county":"Balambala Sub County","ward":"danyere","pupils":0,"host_refugee":"host","risk":"LOW","dist_tana_km":13.67,"in_county":true},"geometry":{"type":"Point","coordinates":[38.91214,0.04188]}},{"type":"Feature","properties":{"name":"Bulla Mobile Primary","type":"day school","level":"lower primary","sub_county":"Balambala Sub County","ward":"danyere","pupils":0,"host_refugee":"host","risk":"LOW","dist_tana_km":9.37,"in_county":true},"geometry":{"type":"Point","coordinates":[38.91376,-0.00082]}},{"type":"Feature","properties":{"name":"Bura Boarding Primray","type":"day and boarding","level":"pre primary Junior secondary upper primary lower primary","sub_county":"Fafi Sub County","ward":"bura fafi","pupils":0,"host_refugee":"host","risk":"LOW","dist_tana_km":1.79,"in_county":true},"geometry":{"type":"Point","coordinates":[39.94656,-1.09041]}},{"type":"Feature","properties":{"name":"Guys Primary School","type":"day school","level":"pre primary lower primary upper primary Junior secondary","sub_county":"Fafi Sub County","ward":"nanighi","pupils":0,"host_refugee":"host","risk":"HIGH","dist_tana_km":1.36,"in_county":true},"geometry":{"type":"Point","coordinates":[39.89216,-0.93813]}},{"type":"Feature","properties":{"name":"Mansabubu","type":"day school","level":"pre primary lower primary upper primary Junior secondary","sub_county":"Fafi Sub County","ward":"bura fafi","pupils":0,"host_refugee":"host","risk":"HIGH","dist_tana_km":1.18,"in_county":true},"geometry":{"type":"Point","coordinates":[40.00424,-1.20683]}},{"type":"Feature","properties":{"name":"Grasweno Primary Sch","type":"day school","level":"pre primary lower primary","sub_county":"Fafi Sub County","ward":"bura fafi","pupils":0,"host_refugee":"host","risk":"LOW","dist_tana_km":5.64,"in_county":true},"geometry":{"type":"Point","coordinates":[40.08612,-1.42839]}},{"type":"Feature","properties":{"name":"Kosar Primary","type":"day school","level":"pre primary lower primary upper primary Junior secondary","sub_county":"Dadaab Sub County","ward":"damajale","pupils":0,"host_refugee":"host","risk":"LOW","dist_tana_km":113.54,"in_county":true},"geometry":{"type":"Point","coordinates":[40.57705,0.01851]}},{"type":"Feature","properties":{"name":"Gababa","type":"day school","level":"pre primary lower primary upper primary Junior secondary","sub_county":"Ijara Sub County","ward":"masalani","pupils":0,"host_refugee":"host","risk":"LOW","dist_tana_km":9.26,"in_county":true},"geometry":{"type":"Point","coordinates":[40.16204,-1.54756]}},{"type":"Feature","properties":{"name":"Aliemij Primary Ecd","type":"day school","level":"pre primary lower primary","sub_county":"Fafi Sub County","ward":"bura fafi","pupils":0,"host_refugee":"host","risk":"HIGH","dist_tana_km":4.43,"in_county":true},"geometry":{"type":"Point","coordinates":[40.05529,-1.35277]}},{"type":"Feature","properties":{"name":"Jambele Primary Junior Secondary","type":"day school","level":"pre primary lower primary upper primary Junior secondary","sub_county":"Fafi Sub County","ward":"nanighi","pupils":0,"host_refugee":"host","risk":"HIGH","dist_tana_km":2.07,"in_county":true},"geometry":{"type":"Point","coordinates":[39.91653,-1.01388]}},{"type":"Feature","properties":{"name":"Damajale Primary","type":"day and boarding","level":"pre primary lower primary upper primary Junior secondary","sub_county":"Dadaab Sub County","ward":"damajale","pupils":0,"host_refugee":"host","risk":"LOW","dist_tana_km":137.74,"in_county":true},"geometry":{"type":"Point","coordinates":[40.78537,0.10358]}},{"type":"Feature","properties":{"name":"Hamey Primary","type":"day school","level":"upper primary Junior secondary lower primary pre primary","sub_county":"Dadaab Sub County","ward":"damajale","pupils":0,"host_refugee":"host","risk":"LOW","dist_tana_km":137.06,"in_county":true},"geometry":{"type":"Point","coordinates":[40.90402,-0.11919]}},{"type":"Feature","properties":{"name":"Liboi Boarding Primary","type":"day and boarding","level":"pre primary lower primary upper primary Junior secondary","sub_county":"Dadaab Sub County","ward":"liboi","pupils":0,"host_refugee":"host","risk":"HIGH","dist_tana_km":162.24,"in_county":true},"geometry":{"type":"Point","coordinates":[40.87769,0.34338]}},{"type":"Feature","properties":{"name":"Igaal Primary School","type":"day school","level":"pre primary lower primary upper primary Junior secondary","sub_county":"Dadaab Sub County","ward":"damajale","pupils":0,"host_refugee":"host","risk":"LOW","dist_tana_km":141.29,"in_county":true},"geometry":{"type":"Point","coordinates":[40.78439,0.15888]}},{"type":"Feature","properties":{"name":"Kone Primary","type":"day school","level":"pre primary lower primary upper primary Junior secondary","sub_county":"Balambala Sub County","ward":"jarajara","pupils":0,"host_refugee":"host","risk":"MEDIUM","dist_tana_km":2.87,"in_county":true},"geometry":{"type":"Point","coordinates":[38.98529,-0.02945]}},{"type":"Feature","properties":{"name":"Balambala Pri Sch","type":"day and boarding","level":"pre primary lower primary upper primary Junior secondary","sub_county":"Balambala Sub County","ward":"balambala balambala","pupils":0,"host_refugee":"host","risk":"HIGH","dist_tana_km":1.02,"in_county":true},"geometry":{"type":"Point","coordinates":[39.05825,-0.04104]}},{"type":"Feature","properties":{"name":"Malayley 1 Primary School","type":"day school","level":"pre primary lower primary upper primary Junior secondary","sub_county":"Dadaab Sub County","ward":"liboi","pupils":0,"host_refugee":"host","risk":"HIGH","dist_tana_km":120.07,"in_county":true},"geometry":{"type":"Point","coordinates":[40.52303,0.19832]}},{"type":"Feature","properties":{"name":"Weldoni Primary School","type":"day school","level":"pre primary lower primary upper primary Junior secondary","sub_county":"Dadaab Sub County","ward":"damajale","pupils":0,"host_refugee":"host","risk":"LOW","dist_tana_km":105.03,"in_county":true},"geometry":{"type":"Point","coordinates":[40.44426,0.05984]}},{"type":"Feature","properties":{"name":"Abdigab Primary","type":"day school","level":"pre primary lower primary upper primary","sub_county":"Balambala Sub County","ward":"balambala balambala","pupils":0,"host_refugee":"host","risk":"LOW","dist_tana_km":23.34,"in_county":true},"geometry":{"type":"Point","coordinates":[39.27573,0.07308]}},{"type":"Feature","properties":{"name":"Jarajara Pri Sch","type":"day school","level":"Junior secondary upper primary lower primary pre primary","sub_county":"Balambala Sub County","ward":"balambala balambala","pupils":0,"host_refugee":"host","risk":"HIGH","dist_tana_km":1.15,"in_county":true},"geometry":{"type":"Point","coordinates":[39.00985,-0.04369]}},{"type":"Feature","properties":{"name":"Kadakso","type":"day school","level":"Junior secondary upper primary lower primary pre primary","sub_county":"Dadaab Sub County","ward":"liboi","pupils":0,"host_refugee":"host","risk":"MEDIUM","dist_tana_km":127.44,"in_county":true},"geometry":{"type":"Point","coordinates":[40.59549,0.20549]}},{"type":"Feature","properties":{"name":"Dogob","type":"day school","level":"pre primary lower primary upper primary","sub_county":"Balambala Sub County","ward":"danyere","pupils":0,"host_refugee":"host","risk":"LOW","dist_tana_km":31.97,"in_county":true},"geometry":{"type":"Point","coordinates":[38.98753,0.24272]}},{"type":"Feature","properties":{"name":"Ohio Primary","type":"day school","level":"pre primary lower primary upper primary Junior secondary","sub_county":"Balambala Sub County","ward":"balambala balambala","pupils":0,"host_refugee":"host","risk":"LOW","dist_tana_km":22.48,"in_county":true},"geometry":{"type":"Point","coordinates":[39.21329,0.09423]}},{"type":"Feature","properties":{"name":"Labiley Primary School","type":"day school","level":"pre primary lower primary upper primary Junior secondary","sub_county":"Balambala Sub County","ward":"balambala balambala","pupils":0,"host_refugee":"host","risk":"MEDIUM","dist_tana_km":1.94,"in_county":true},"geometry":{"type":"Point","coordinates":[39.04397,-0.03601]}},{"type":"Feature","properties":{"name":"Bura Dansa","type":"day school","level":"pre primary lower primary upper primary Junior secondary","sub_county":"Balambala Sub County","ward":"balambala balambala","pupils":0,"host_refugee":"host","risk":"LOW","dist_tana_km":2.08,"in_county":true},"geometry":{"type":"Point","coordinates":[39.08813,-0.04408]}},{"type":"Feature","properties":{"name":"Libahlow","type":"day and boarding","level":"pre primary lower primary upper primary Junior secondary","sub_county":"Balambala Sub County","ward":"danyere","pupils":0,"host_refugee":"host","risk":"LOW","dist_tana_km":28.37,"in_county":true},"geometry":{"type":"Point","coordinates":[38.89504,0.1828]}},{"type":"Feature","properties":{"name":"Madahgisi Primary School","type":"day school","level":"Junior secondary upper primary lower primary pre primary","sub_county":"Dadaab Sub County","ward":"liboi","pupils":0,"host_refugee":"host","risk":"HIGH","dist_tana_km":108.94,"in_county":true},"geometry":{"type":"Point","coordinates":[40.42949,0.15947]}},{"type":"Feature","properties":{"name":"Torabora Primary School","type":"day school","level":"pre primary lower primary upper primary","sub_county":"Ijara Sub County","ward":"masalani","pupils":0,"host_refugee":"host","risk":"LOW","dist_tana_km":5.2,"in_county":true},"geometry":{"type":"Point","coordinates":[40.16291,-1.68421]}},{"type":"Feature","properties":{"name":"Sagar Primary","type":"day school","level":"pre primary lower primary upper primary","sub_county":"Ijara Sub County","ward":"ijara ijara","pupils":0,"host_refugee":"host","risk":"HIGH","dist_tana_km":26.21,"in_county":true},"geometry":{"type":"Point","coordinates":[40.30043,-1.47855]}},{"type":"Feature","properties":{"name":"Ijara Girls Primary Ecd","type":"day school","level":"pre primary lower primary Junior secondary upper primary","sub_county":"Ijara Sub County","ward":"masalani","pupils":0,"host_refugee":"host","risk":"LOW","dist_tana_km":5.68,"in_county":true},"geometry":{"type":"Point","coordinates":[40.16751,-1.69525]}},{"type":"Feature","properties":{"name":"Moi Boarding Masalani Primary","type":"day and boarding","level":"lower primary pre primary upper primary Junior secondary","sub_county":"Ijara Sub County","ward":"masalani","pupils":0,"host_refugee":"host","risk":"LOW","dist_tana_km":6.24,"in_county":true},"geometry":{"type":"Point","coordinates":[40.17134,-1.69092]}},{"type":"Feature","properties":{"name":"Dahir","type":"day school","level":"Junior secondary upper primary lower primary pre primary","sub_county":"Ijara Sub County","ward":"masalani","pupils":0,"host_refugee":"host","risk":"LOW","dist_tana_km":6.57,"in_county":true},"geometry":{"type":"Point","coordinates":[40.17838,-1.69756]}},{"type":"Feature","properties":{"name":"Gumarey","type":"day school","level":"pre primary lower primary upper primary Junior secondary","sub_county":"Ijara Sub County","ward":"masalani","pupils":0,"host_refugee":"host","risk":"LOW","dist_tana_km":6.31,"in_county":true},"geometry":{"type":"Point","coordinates":[40.17166,-1.68927]}},{"type":"Feature","properties":{"name":"Khalankhal/Ecd","type":"day school","level":"pre primary lower primary upper primary","sub_county":"Ijara Sub County","ward":"masalani","pupils":0,"host_refugee":"host","risk":"LOW","dist_tana_km":5.51,"in_county":true},"geometry":{"type":"Point","coordinates":[40.16623,-1.69622]}},{"type":"Feature","properties":{"name":"Masalani Girls","type":"day school","level":"pre primary lower primary upper primary Junior secondary","sub_county":"Ijara Sub County","ward":"masalani","pupils":0,"host_refugee":"host","risk":"LOW","dist_tana_km":6.31,"in_county":true},"geometry":{"type":"Point","coordinates":[40.17166,-1.68927]}},{"type":"Feature","properties":{"name":"Furqan Primary","type":"day and boarding","level":"pre primary lower primary upper primary Junior secondary","sub_county":"Ijara Sub County","ward":"masalani","pupils":0,"host_refugee":"host","risk":"MEDIUM","dist_tana_km":3.38,"in_county":true},"geometry":{"type":"Point","coordinates":[40.14595,-1.69684]}},{"type":"Feature","properties":{"name":"Hidaya Primary School","type":"day school","level":"upper primary lower primary","sub_county":"Ijara Sub County","ward":"masalani","pupils":0,"host_refugee":"host","risk":"LOW","dist_tana_km":3.45,"in_county":true},"geometry":{"type":"Point","coordinates":[40.14733,-1.68079]}},{"type":"Feature","properties":{"name":"Shabeley Primary School","type":"day school","level":"pre primary lower primary","sub_county":"Ijara Sub County","ward":"masalani","pupils":0,"host_refugee":"host","risk":"LOW","dist_tana_km":10.57,"in_county":true},"geometry":{"type":"Point","coordinates":[40.21865,-1.75691]}},{"type":"Feature","properties":{"name":"Warsame Ecd","type":"day school","level":"lower primary pre primary","sub_county":"Ijara Sub County","ward":"ijara ijara","pupils":0,"host_refugee":"host","risk":"HIGH","dist_tana_km":29.65,"in_county":true},"geometry":{"type":"Point","coordinates":[40.33924,-1.48136]}},{"type":"Feature","properties":{"name":"Kulan Primary","type":"day and boarding","level":"pre primary lower primary upper primary Junior secondary","sub_county":"Dadaab Sub County","ward":"liboi","pupils":0,"host_refugee":"host","risk":"HIGH","dist_tana_km":132.49,"in_county":true},"geometry":{"type":"Point","coordinates":[40.64201,0.21527]}},{"type":"Feature","properties":{"name":"Malayley Primary School","type":"day school","level":"pre primary upper primary lower primary","sub_county":"Dadaab Sub County","ward":"damajale","pupils":0,"host_refugee":"host","risk":"HIGH","dist_tana_km":119.23,"in_county":true},"geometry":{"type":"Point","coordinates":[40.51823,0.19157]}},{"type":"Feature","properties":{"name":"Welhar Primary School","type":"day school","level":"pre primary lower primary upper primary Junior secondary","sub_county":"Dadaab Sub County","ward":"labisigale","pupils":0,"host_refugee":"host","risk":"MEDIUM","dist_tana_km":87.19,"in_county":true},"geometry":{"type":"Point","coordinates":[40.14849,0.20933]}},{"type":"Feature","properties":{"name":"Kuno","type":"day and boarding","level":"pre primary lower primary upper primary Junior secondary","sub_county":"Balambala Sub County","ward":"balambala balambala","pupils":0,"host_refugee":"host","risk":"HIGH","dist_tana_km":3.44,"in_county":true},"geometry":{"type":"Point","coordinates":[39.11424,-0.05989]}},{"type":"Feature","properties":{"name":"Kasha","type":"day school","level":"pre primary lower primary upper primary Junior secondary","sub_county":"Balambala Sub County","ward":"saka","pupils":0,"host_refugee":"host","risk":"LOW","dist_tana_km":5.43,"in_county":true},"geometry":{"type":"Point","coordinates":[39.14067,-0.05948]}},{"type":"Feature","properties":{"name":"Dagahaley Ecd","type":"day school","level":"pre primary lower primary upper primary Junior secondary","sub_county":"Dadaab Sub County","ward":"damajale","pupils":0,"host_refugee":"host","risk":"HIGH","dist_tana_km":98.71,"in_county":true},"geometry":{"type":"Point","coordinates":[40.30553,0.17791]}},{"type":"Feature","properties":{"name":"Labisigale Primary","type":"day school","level":"Junior secondary upper primary lower primary pre primary","sub_county":"Dadaab Sub County","ward":"labisigale","pupils":0,"host_refugee":"host","risk":"HIGH","dist_tana_km":96.57,"in_county":true},"geometry":{"type":"Point","coordinates":[40.28884,0.16806]}},{"type":"Feature","properties":{"name":"Bulakheir Primary","type":"day school","level":"pre primary lower primary upper primary Junior secondary","sub_county":"Dadaab Sub County","ward":"dadaab dadaab","pupils":0,"host_refugee":"host","risk":"HIGH","dist_tana_km":93.47,"in_county":true},"geometry":{"type":"Point","coordinates":[40.29619,0.1094]}},{"type":"Feature","properties":{"name":"Hadley Primary","type":"day school","level":"pre primary lower primary upper primary Junior secondary","sub_county":"Balambala Sub County","ward":"saka","pupils":0,"host_refugee":"host","risk":"MEDIUM","dist_tana_km":3.03,"in_county":true},"geometry":{"type":"Point","coordinates":[39.24062,-0.11044]}},{"type":"Feature","properties":{"name":"Hirbaya","type":"day school","level":"pre primary lower primary upper primary","sub_county":"Balambala Sub County","ward":"saka","pupils":0,"host_refugee":"host","risk":"MEDIUM","dist_tana_km":4.74,"in_county":true},"geometry":{"type":"Point","coordinates":[39.19927,-0.09468]}},{"type":"Feature","properties":{"name":"Qabobey Primary","type":"day school","level":"pre primary lower primary upper primary","sub_county":"Balambala Sub County","ward":"saka","pupils":0,"host_refugee":"host","risk":"MEDIUM","dist_tana_km":1.93,"in_county":true},"geometry":{"type":"Point","coordinates":[39.29149,-0.1221]}},{"type":"Feature","properties":{"name":"Kiwanja Ndege Primary","type":"day school","level":"pre primary lower primary upper primary Junior secondary","sub_county":"Dadaab Sub County","ward":"dadaab dadaab","pupils":0,"host_refugee":"host","risk":"HIGH","dist_tana_km":92.84,"in_county":true},"geometry":{"type":"Point","coordinates":[40.31855,0.06266]}},{"type":"Feature","properties":{"name":"Dadaab Boarding","type":"day and boarding","level":"pre primary lower primary upper primary Junior secondary","sub_county":"Dadaab Sub County","ward":"dadaab dadaab","pupils":0,"host_refugee":"host","risk":"HIGH","dist_tana_km":91.64,"in_county":true},"geometry":{"type":"Point","coordinates":[40.30903,0.05759]}},{"type":"Feature","properties":{"name":"Daidai Primary","type":"day school","level":"pre primary lower primary upper primary Junior secondary","sub_county":"Dadaab Sub County","ward":"dadaab dadaab","pupils":0,"host_refugee":"host","risk":"HIGH","dist_tana_km":90.07,"in_county":true},"geometry":{"type":"Point","coordinates":[40.29718,0.04972]}},{"type":"Feature","properties":{"name":"Hara Primary School","type":"day and boarding","level":"pre primary Junior secondary upper primary lower primary","sub_county":"Ijara Sub County","ward":"masalani","pupils":0,"host_refugee":"host","risk":"LOW","dist_tana_km":9.44,"in_county":true},"geometry":{"type":"Point","coordinates":[40.22594,-1.85157]}},{"type":"Feature","properties":{"name":"Korisa","type":"day and boarding","level":"pre primary lower primary upper primary Junior secondary","sub_county":"Ijara Sub County","ward":"masalani","pupils":0,"host_refugee":"host","risk":"MEDIUM","dist_tana_km":12.3,"in_county":true},"geometry":{"type":"Point","coordinates":[40.25427,-1.89666]}},{"type":"Feature","properties":{"name":"Kotile Ecd","type":"day school","level":"upper primary","sub_county":"Ijara Sub County","ward":"masalani","pupils":0,"host_refugee":"host","risk":"MEDIUM","dist_tana_km":5.58,"in_county":true},"geometry":{"type":"Point","coordinates":[40.20472,-1.96825]}},{"type":"Feature","properties":{"name":"Kotile Primary","type":"day and boarding","level":"Junior secondary upper primary lower primary pre primary","sub_county":"Ijara Sub County","ward":"masalani","pupils":0,"host_refugee":"host","risk":"MEDIUM","dist_tana_km":2.79,"in_county":true},"geometry":{"type":"Point","coordinates":[40.18121,-1.98376]}},{"type":"Feature","properties":{"name":"Alijarire Primary School","type":"day school","level":"pre primary lower primary upper primary Junior secondary","sub_county":"Ijara Sub County","ward":"masalani","pupils":0,"host_refugee":"host","risk":"LOW","dist_tana_km":6.4,"in_county":true},"geometry":{"type":"Point","coordinates":[40.20378,-1.94507]}},{"type":"Feature","properties":{"name":"Ruqa Pre School","type":"day and boarding","level":"pre primary lower primary upper primary Junior secondary","sub_county":"Ijara Sub County","ward":"ijara ijara","pupils":0,"host_refugee":"host","risk":"LOW","dist_tana_km":38.23,"in_county":true},"geometry":{"type":"Point","coordinates":[40.44883,-1.55517]}},{"type":"Feature","properties":{"name":"Gurow Primary School","type":"day school","level":"pre primary lower primary upper primary","sub_county":"Dadaab Sub County","ward":"abakaile","pupils":0,"host_refugee":"host","risk":"HIGH","dist_tana_km":60.36,"in_county":true},"geometry":{"type":"Point","coordinates":[39.98713,0.02409]}},{"type":"Feature","properties":{"name":"Marothiley Primary School","type":"day school","level":"pre primary lower primary upper primary Junior secondary","sub_county":"Dadaab Sub County","ward":"abakaile","pupils":0,"host_refugee":"host","risk":"LOW","dist_tana_km":78.63,"in_county":true},"geometry":{"type":"Point","coordinates":[40.08799,0.16151]}},{"type":"Feature","properties":{"name":"Darusaalam Ecd","type":"day school","level":"pre primary","sub_county":"Dadaab Sub County","ward":"abakaile","pupils":0,"host_refugee":"host","risk":"LOW","dist_tana_km":74.88,"in_county":true},"geometry":{"type":"Point","coordinates":[39.97133,0.2293]}},{"type":"Feature","properties":{"name":"Abakaile","type":"day school","level":"pre primary lower primary Junior secondary upper primary","sub_county":"Dadaab Sub County","ward":"abakaile","pupils":0,"host_refugee":"host","risk":"LOW","dist_tana_km":73.73,"in_county":true},"geometry":{"type":"Point","coordinates":[40.1005,0.07419]}},{"type":"Feature","properties":{"name":"Ashadin Primary","type":"day school","level":"pre primary lower primary upper primary Junior secondary","sub_county":"Balambala Sub County","ward":"balambala balambala","pupils":0,"host_refugee":"host","risk":"LOW","dist_tana_km":23.02,"in_county":true},"geometry":{"type":"Point","coordinates":[39.09238,0.159]}},{"type":"Feature","properties":{"name":"Hifow","type":"day school","level":"pre primary lower primary upper primary","sub_county":"Balambala Sub County","ward":"danyere","pupils":0,"host_refugee":"host","risk":"LOW","dist_tana_km":21.66,"in_county":true},"geometry":{"type":"Point","coordinates":[38.98999,0.14861]}},{"type":"Feature","properties":{"name":"Shebta Primary School","type":"day school","level":"pre primary lower primary upper primary","sub_county":"Lagdera Sub County","ward":"balambala balambala","pupils":0,"host_refugee":"host","risk":"LOW","dist_tana_km":35.68,"in_county":true},"geometry":{"type":"Point","coordinates":[39.43635,0.16068]}},{"type":"Feature","properties":{"name":"Dujis Primary School","type":"day school","level":"pre primary lower primary upper primary Junior secondary","sub_county":"Lagdera Sub County","ward":"balambala balambala","pupils":0,"host_refugee":"host","risk":"LOW","dist_tana_km":43.63,"in_county":true},"geometry":{"type":"Point","coordinates":[39.39417,0.24779]}},{"type":"Feature","properties":{"name":"Ijara","type":"day and boarding","level":"Junior secondary upper primary lower primary pre primary","sub_county":"Ijara Sub County","ward":"ijara ijara","pupils":0,"host_refugee":"host","risk":"LOW","dist_tana_km":44.16,"in_county":true},"geometry":{"type":"Point","coordinates":[40.5119,-1.59699]}},{"type":"Feature","properties":{"name":"Dololo","type":"day school","level":"pre primary lower primary","sub_county":"Ijara Sub County","ward":"ijara ijara","pupils":0,"host_refugee":"host","risk":"MEDIUM","dist_tana_km":51.44,"in_county":true},"geometry":{"type":"Point","coordinates":[40.57829,-1.60061]}},{"type":"Feature","properties":{"name":"Debelwein Primary School","type":"day school","level":"pre primary lower primary","sub_county":"Ijara Sub County","ward":"ijara ijara","pupils":0,"host_refugee":"host","risk":"MEDIUM","dist_tana_km":51.05,"in_county":true},"geometry":{"type":"Point","coordinates":[40.57206,-1.58067]}},{"type":"Feature","properties":{"name":"Waragoga Ecd Centre","type":"day school","level":"lower primary pre primary","sub_county":"Ijara Sub County","ward":"ijara ijara","pupils":0,"host_refugee":"host","risk":"LOW","dist_tana_km":46.59,"in_county":true},"geometry":{"type":"Point","coordinates":[40.53206,-1.58439]}},{"type":"Feature","properties":{"name":"Waranwein","type":"day school","level":"pre primary lower primary upper primary Junior secondary","sub_county":"Ijara Sub County","ward":"ijara ijara","pupils":0,"host_refugee":"host","risk":"LOW","dist_tana_km":45.07,"in_county":true},"geometry":{"type":"Point","coordinates":[40.52215,-1.61464]}},{"type":"Feature","properties":{"name":"Gerille Primary School","type":"day school","level":"pre primary lower primary upper primary Junior secondary","sub_county":"Ijara Sub County","ward":"ijara ijara","pupils":0,"host_refugee":"host","risk":"LOW","dist_tana_km":43.27,"in_county":true},"geometry":{"type":"Point","coordinates":[40.50148,-1.58268]}},{"type":"Feature","properties":{"name":"Maslah Primary School","type":"day school","level":"pre primary lower primary upper primary Junior secondary","sub_county":"Lagdera Sub County","ward":"abakaile","pupils":0,"host_refugee":"host","risk":"LOW","dist_tana_km":83.1,"in_county":true},"geometry":{"type":"Point","coordinates":[39.87741,0.41013]}},{"type":"Feature","properties":{"name":"Kumahumato Bording Primary","type":"day and boarding","level":"pre primary lower primary upper primary Junior secondary","sub_county":"Dadaab Sub County","ward":"abakaile","pupils":0,"host_refugee":"host","risk":"HIGH","dist_tana_km":89.8,"in_county":true},"geometry":{"type":"Point","coordinates":[40.07761,0.31543]}},{"type":"Feature","properties":{"name":"Lago Primary","type":"day school","level":"pre primary lower primary upper primary","sub_county":"Fafi Sub County","ward":"sankuri","pupils":0,"host_refugee":"host","risk":"HIGH","dist_tana_km":34.91,"in_county":true},"geometry":{"type":"Point","coordinates":[39.87226,-0.20727]}},{"type":"Feature","properties":{"name":"Abdisamad Primary","type":"day school","level":"pre primary lower primary upper primary Junior secondary","sub_county":"Dadaab Sub County","ward":"sankuri","pupils":0,"host_refugee":"host","risk":"LOW","dist_tana_km":37.05,"in_county":true},"geometry":{"type":"Point","coordinates":[39.65646,0.05333]}},{"type":"Feature","properties":{"name":"Nunow Primary School","type":"day school","level":"lower primary pre primary upper primary","sub_county":"Garissa Sub County","ward":"sankuri","pupils":0,"host_refugee":"host","risk":"LOW","dist_tana_km":13.44,"in_county":true},"geometry":{"type":"Point","coordinates":[39.61482,-0.19546]}},{"type":"Feature","properties":{"name":"Balichi Primary","type":"day school","level":"pre primary lower primary Junior secondary upper primary","sub_county":"Garissa Sub County","ward":"sankuri","pupils":0,"host_refugee":"host","risk":"HIGH","dist_tana_km":0.94,"in_county":true},"geometry":{"type":"Point","coordinates":[39.47831,-0.22049]}},{"type":"Feature","properties":{"name":"Shimbirey Primary","type":"day school","level":"pre primary lower primary","sub_county":"Garissa Sub County","ward":"sankuri","pupils":0,"host_refugee":"host","risk":"LOW","dist_tana_km":18.91,"in_county":true},"geometry":{"type":"Point","coordinates":[39.49786,-0.03406]}},{"type":"Feature","properties":{"name":"Libahlow Primary","type":"day school","level":"pre primary lower primary upper primary","sub_county":"Dadaab Sub County","ward":"abakaile","pupils":0,"host_refugee":"host","risk":"MEDIUM","dist_tana_km":87.45,"in_county":true},"geometry":{"type":"Point","coordinates":[40.06063,0.30209]}},{"type":"Feature","properties":{"name":"Bodhai Primary Junior School","type":"day and boarding","level":"pre primary lower primary upper primary Junior secondary","sub_county":"Ijara Sub County","ward":"ijara ijara","pupils":0,"host_refugee":"host","risk":"LOW","dist_tana_km":59.59,"in_county":true},"geometry":{"type":"Point","coordinates":[40.67735,-1.82647]}},{"type":"Feature","properties":{"name":"Jalish","type":"day school","level":"pre primary lower primary","sub_county":"Ijara Sub County","ward":"ijara ijara","pupils":0,"host_refugee":"host","risk":"LOW","dist_tana_km":42.39,"in_county":true},"geometry":{"type":"Point","coordinates":[40.50707,-1.69939]}},{"type":"Feature","properties":{"name":"Bula Qoqon Ecd Primary School","type":"day school","level":"pre primary lower primary upper primary","sub_county":"Ijara Sub County","ward":"ijara ijara","pupils":0,"host_refugee":"host","risk":"LOW","dist_tana_km":42.4,"in_county":true},"geometry":{"type":"Point","coordinates":[40.5071,-1.69857]}},{"type":"Feature","properties":{"name":"Alikune Primary Sch","type":"day and boarding","level":"pre primary lower primary upper primary Junior secondary","sub_county":"Dadaab Sub County","ward":"abakaile","pupils":0,"host_refugee":"host","risk":"HIGH","dist_tana_km":87.67,"in_county":true},"geometry":{"type":"Point","coordinates":[40.0179,0.34563]}},{"type":"Feature","properties":{"name":"Raya Primary School","type":"day school","level":"pre primary lower primary upper primary Junior secondary","sub_county":"Garissa Sub County","ward":"sankuri","pupils":0,"host_refugee":"host","risk":"HIGH","dist_tana_km":1.34,"in_county":true},"geometry":{"type":"Point","coordinates":[39.60984,-0.35878]}},{"type":"Feature","properties":{"name":"Sankuri Primary","type":"day and boarding","level":"pre primary lower primary upper primary Junior secondary","sub_county":"Garissa Sub County","ward":"sankuri","pupils":0,"host_refugee":"host","risk":"HIGH","dist_tana_km":0.47,"in_county":true},"geometry":{"type":"Point","coordinates":[39.55625,-0.30153]}},{"type":"Feature","properties":{"name":"Dololo Midi Primary School","type":"day school","level":"lower primary pre primary upper primary Junior secondary","sub_county":"Garissa Sub County","ward":"sankuri","pupils":0,"host_refugee":"host","risk":"HIGH","dist_tana_km":0.9,"in_county":true},"geometry":{"type":"Point","coordinates":[39.49742,-0.24062]}},{"type":"Feature","properties":{"name":"Bahuri Primary School","type":"day school","level":"pre primary lower primary upper primary","sub_county":"Dadaab Sub County","ward":"dertu","pupils":0,"host_refugee":"host","risk":"MEDIUM","dist_tana_km":44.76,"in_county":true},"geometry":{"type":"Point","coordinates":[39.67494,0.12929]}},{"type":"Feature","properties":{"name":"Gari Gubane Primary School","type":"day school","level":"pre primary lower primary","sub_county":"Lagdera Sub County","ward":"dertu","pupils":0,"host_refugee":"host","risk":"LOW","dist_tana_km":68.33,"in_county":true},"geometry":{"type":"Point","coordinates":[39.7847,0.31297]}},{"type":"Feature","properties":{"name":"Modika Primary School","type":"day school","level":"pre primary lower primary upper primary Junior secondary","sub_county":"Garissa Sub County","ward":"sankuri","pupils":0,"host_refugee":"host","risk":"LOW","dist_tana_km":11.74,"in_county":true},"geometry":{"type":"Point","coordinates":[39.71383,-0.38113]}},{"type":"Feature","properties":{"name":"Dertu Primary School","type":"day and boarding","level":"pre primary lower primary upper primary Junior secondary","sub_county":"Lagdera Sub County","ward":"dertu","pupils":0,"host_refugee":"host","risk":"HIGH","dist_tana_km":66.05,"in_county":true},"geometry":{"type":"Point","coordinates":[39.80167,0.27389]}},{"type":"Feature","properties":{"name":"Boransis Primary","type":"day school","level":"pre primary lower primary upper primary","sub_county":"Lagdera Sub County","ward":"dertu","pupils":0,"host_refugee":"host","risk":"HIGH","dist_tana_km":71.07,"in_county":true},"geometry":{"type":"Point","coordinates":[39.84558,0.29608]}},{"type":"Feature","properties":{"name":"Aliqarsade Primary School","type":"day school","level":"pre primary lower primary upper primary","sub_county":"Dadaab Sub County","ward":"dertu","pupils":0,"host_refugee":"host","risk":"LOW","dist_tana_km":73.42,"in_county":true},"geometry":{"type":"Point","coordinates":[39.93373,0.2482]}},{"type":"Feature","properties":{"name":"Ahmed Tukale Primary","type":"day school","level":"pre primary lower primary upper primary","sub_county":"Lagdera Sub County","ward":"goreale","pupils":0,"host_refugee":"host","risk":"MEDIUM","dist_tana_km":70.46,"in_county":true},"geometry":{"type":"Point","coordinates":[39.76116,0.35188]}},{"type":"Feature","properties":{"name":"Goreale Pre-School","type":"day and boarding","level":"pre primary lower primary upper primary Junior secondary","sub_county":"Lagdera Sub County","ward":"goreale","pupils":0,"host_refugee":"host","risk":"HIGH","dist_tana_km":79.89,"in_county":true},"geometry":{"type":"Point","coordinates":[39.74447,0.4587]}},{"type":"Feature","properties":{"name":"Handaro","type":"day and boarding","level":"Junior secondary upper primary lower primary pre primary","sub_county":"Hulugho Sub County","ward":"sangailu","pupils":0,"host_refugee":"host","risk":"LOW","dist_tana_km":63.36,"in_county":true},"geometry":{"type":"Point","coordinates":[40.6557,-1.45349]}},{"type":"Feature","properties":{"name":"Wakabharey Ecd","type":"day school","level":"pre primary Junior secondary upper primary lower primary","sub_county":"Hulugho Sub County","ward":"sangailu","pupils":0,"host_refugee":"host","risk":"LOW","dist_tana_km":74.85,"in_county":true},"geometry":{"type":"Point","coordinates":[40.70551,-1.30316]}},{"type":"Feature","properties":{"name":"Sangailu Primary","type":"day and boarding","level":"pre primary lower primary upper primary Junior secondary","sub_county":"Hulugho Sub County","ward":"sangailu","pupils":0,"host_refugee":"host","risk":"LOW","dist_tana_km":76.75,"in_county":true},"geometry":{"type":"Point","coordinates":[40.73039,-1.31463]}},{"type":"Feature","properties":{"name":"Ege Ecd Primary School","type":"day school","level":"pre primary lower primary upper primary","sub_county":"Hulugho Sub County","ward":"sangailu","pupils":0,"host_refugee":"host","risk":"LOW","dist_tana_km":76.99,"in_county":true},"geometry":{"type":"Point","coordinates":[40.73281,-1.3146]}},{"type":"Feature","properties":{"name":"Elmaan","type":"day school","level":"pre primary lower primary","sub_county":"Ijara Sub County","ward":"ijara ijara","pupils":0,"host_refugee":"host","risk":"LOW","dist_tana_km":59.18,"in_county":true},"geometry":{"type":"Point","coordinates":[40.62406,-1.47978]}},{"type":"Feature","properties":{"name":"Mare Ecd","type":"day school","level":"upper primary lower primary pre primary","sub_county":"Hulugho Sub County","ward":"sangailu","pupils":0,"host_refugee":"host","risk":"LOW","dist_tana_km":74.84,"in_county":true},"geometry":{"type":"Point","coordinates":[40.70548,-1.30317]}},{"type":"Feature","properties":{"name":"Dalolo Weyn","type":"day school","level":"pre primary lower primary upper primary Junior secondary","sub_county":"Garissa Sub County","ward":"sankuri","pupils":0,"host_refugee":"host","risk":"HIGH","dist_tana_km":1.42,"in_county":true},"geometry":{"type":"Point","coordinates":[39.51899,-0.25959]}},{"type":"Feature","properties":{"name":"Shabah Primary School","type":"day school","level":"pre primary lower primary Junior secondary upper primary","sub_county":"Garissa Sub County","ward":"sankuri","pupils":0,"host_refugee":"host","risk":"HIGH","dist_tana_km":1.45,"in_county":true},"geometry":{"type":"Point","coordinates":[39.58654,-0.33053]}},{"type":"Feature","properties":{"name":"Atheley Primary School","type":"day school","level":"pre primary lower primary upper primary Junior secondary","sub_county":"Garissa Sub County","ward":"sankuri","pupils":0,"host_refugee":"host","risk":"HIGH","dist_tana_km":2.73,"in_county":true},"geometry":{"type":"Point","coordinates":[39.62632,-0.38253]}},{"type":"Feature","properties":{"name":"Tumaini Primary","type":"day school","level":"pre primary lower primary upper primary Junior secondary secondary school","sub_county":"Garissa Sub County","ward":"galbet","pupils":0,"host_refugee":"host","risk":"MEDIUM","dist_tana_km":3.35,"in_county":true},"geometry":{"type":"Point","coordinates":[39.64435,-0.42306]}},{"type":"Feature","properties":{"name":"Tetu Pre-School","type":"day school","level":"pre primary lower primary upper primary Junior secondary secondary school","sub_county":"Garissa Sub County","ward":"galbet","pupils":0,"host_refugee":"host","risk":"HIGH","dist_tana_km":3.07,"in_county":true},"geometry":{"type":"Point","coordinates":[39.64601,-0.4374]}},{"type":"Feature","properties":{"name":"Lafageri Primary School","type":"day school","level":"upper primary lower primary pre primary","sub_county":"Hulugho Sub County","ward":"hulugho","pupils":0,"host_refugee":"host","risk":"LOW","dist_tana_km":118.71,"in_county":true},"geometry":{"type":"Point","coordinates":[41.07537,-1.15215]}},{"type":"Feature","properties":{"name":"Hulugho","type":"day and boarding","level":"lower primary upper primary Junior secondary","sub_county":"Hulugho Sub County","ward":"hulugho","pupils":0,"host_refugee":"host","risk":"LOW","dist_tana_km":116.25,"in_county":true},"geometry":{"type":"Point","coordinates":[41.05293,-1.15015]}},{"type":"Feature","properties":{"name":"Tumtush Primary School","type":"day school","level":"pre primary lower primary upper primary","sub_county":"Hulugho Sub County","ward":"hulugho","pupils":0,"host_refugee":"host","risk":"LOW","dist_tana_km":93.96,"in_county":true},"geometry":{"type":"Point","coordinates":[40.85646,-1.20007]}},{"type":"Feature","properties":{"name":"Doi Primary School","type":"day school","level":"lower primary pre primary upper primary","sub_county":"Hulugho Sub County","ward":"hulugho","pupils":0,"host_refugee":"host","risk":"LOW","dist_tana_km":78.33,"in_county":true},"geometry":{"type":"Point","coordinates":[40.74104,-1.30403]}},{"type":"Feature","properties":{"name":"Koranhidi Primary","type":"day school","level":"pre primary lower primary upper primary","sub_county":"Hulugho Sub County","ward":"hulugho","pupils":0,"host_refugee":"host","risk":"LOW","dist_tana_km":78.33,"in_county":true},"geometry":{"type":"Point","coordinates":[40.74104,-1.30403]}},{"type":"Feature","properties":{"name":"Wardeijab Primary School","type":"day school","level":"pre primary lower primary upper primary","sub_county":"Fafi Sub County","ward":"hulugho","pupils":0,"host_refugee":"host","risk":"MEDIUM","dist_tana_km":99.54,"in_county":true},"geometry":{"type":"Point","coordinates":[40.90391,-1.1684]}},{"type":"Feature","properties":{"name":"Gesireb","type":"day school","level":"pre primary lower primary","sub_county":"Hulugho Sub County","ward":"hulugho","pupils":0,"host_refugee":"host","risk":"LOW","dist_tana_km":116.06,"in_county":true},"geometry":{"type":"Point","coordinates":[41.04826,-1.12543]}},{"type":"Feature","properties":{"name":"Haririderow Primary School","type":"day school","level":"pre primary lower primary upper primary","sub_county":"Hulugho Sub County","ward":"hulugho","pupils":0,"host_refugee":"host","risk":"LOW","dist_tana_km":107.34,"in_county":true},"geometry":{"type":"Point","coordinates":[40.9708,-1.13778]}},{"type":"Feature","properties":{"name":"Mataarba Ecd Primary School","type":"day school","level":"pre primary lower primary upper primary Junior secondary","sub_county":"Hulugho Sub County","ward":"sangailu","pupils":0,"host_refugee":"host","risk":"LOW","dist_tana_km":78.35,"in_county":true},"geometry":{"type":"Point","coordinates":[40.74765,-1.31723]}},{"type":"Feature","properties":{"name":"Hulugho Ecd","type":"day school","level":"pre primary","sub_county":"Hulugho Sub County","ward":"hulugho","pupils":0,"host_refugee":"host","risk":"LOW","dist_tana_km":116.24,"in_county":true},"geometry":{"type":"Point","coordinates":[41.05285,-1.15021]}},{"type":"Feature","properties":{"name":"Nasib","type":"day school","level":"pre primary lower primary","sub_county":"Hulugho Sub County","ward":"hulugho","pupils":0,"host_refugee":"host","risk":"LOW","dist_tana_km":120.49,"in_county":true},"geometry":{"type":"Point","coordinates":[41.08595,-1.10747]}},{"type":"Feature","properties":{"name":"Garabey Primary School","type":"day school","level":"pre primary lower primary upper primary","sub_county":"Hulugho Sub County","ward":"hulugho","pupils":0,"host_refugee":"host","risk":"LOW","dist_tana_km":121.72,"in_county":true},"geometry":{"type":"Point","coordinates":[41.1018,-1.14515]}},{"type":"Feature","properties":{"name":"Riigdam Primary School","type":"day school","level":"pre primary lower primary upper primary Junior secondary","sub_county":"Lagdera Sub County","ward":"maalamin","pupils":0,"host_refugee":"host","risk":"LOW","dist_tana_km":86.94,"in_county":true},"geometry":{"type":"Point","coordinates":[39.45227,0.63737]}},{"type":"Feature","properties":{"name":"Garafu Pri Sch","type":"day and boarding","level":"pre primary lower primary upper primary Junior secondary","sub_county":"Lagdera Sub County","ward":"sabena","pupils":0,"host_refugee":"host","risk":"HIGH","dist_tana_km":103.38,"in_county":true},"geometry":{"type":"Point","coordinates":[39.45823,0.80118]}},{"type":"Feature","properties":{"name":"Adc Primary School","type":"day school","level":"pre primary lower primary upper primary Junior secondary","sub_county":"Garissa Sub County","ward":"galbet","pupils":0,"host_refugee":"host","risk":"HIGH","dist_tana_km":2.55,"in_county":true},"geometry":{"type":"Point","coordinates":[39.63716,-0.42277]}},{"type":"Feature","properties":{"name":"Yathrib","type":"day school","level":"pre primary lower primary upper primary Junior secondary","sub_county":"Garissa Sub County","ward":"galbet","pupils":0,"host_refugee":"host","risk":"MEDIUM","dist_tana_km":4.28,"in_county":true},"geometry":{"type":"Point","coordinates":[39.65255,-0.42484]}},{"type":"Feature","properties":{"name":"Elan","type":"day school","level":"pre primary lower primary upper primary Junior secondary","sub_county":"Lagdera Sub County","ward":"sabena","pupils":0,"host_refugee":"host","risk":"LOW","dist_tana_km":93.76,"in_county":true},"geometry":{"type":"Point","coordinates":[39.31193,0.76429]}},{"type":"Feature","properties":{"name":"Bersaben Primary School","type":"day school","level":"pre primary lower primary","sub_county":"Lagdera Sub County","ward":"goreale","pupils":0,"host_refugee":"host","risk":"HIGH","dist_tana_km":84.11,"in_county":true},"geometry":{"type":"Point","coordinates":[39.6455,0.54654]}},{"type":"Feature","properties":{"name":"Baraki Primary School","type":"day and boarding","level":"pre primary lower primary Junior secondary upper primary","sub_county":"Lagdera Sub County","ward":"baraki","pupils":0,"host_refugee":"host","risk":"HIGH","dist_tana_km":93.15,"in_county":true},"geometry":{"type":"Point","coordinates":[39.58041,0.66088]}},{"type":"Feature","properties":{"name":"Hagar Primary School","type":"day school","level":"pre primary lower primary upper primary","sub_county":"Lagdera Sub County","ward":"sabena","pupils":0,"host_refugee":"host","risk":"MEDIUM","dist_tana_km":101.92,"in_county":true},"geometry":{"type":"Point","coordinates":[39.38951,0.81583]}},{"type":"Feature","properties":{"name":"Ilanle Primary School","type":"day school","level":"pre primary lower primary","sub_county":"Lagdera Sub County","ward":"modogashe","pupils":0,"host_refugee":"host","risk":"LOW","dist_tana_km":91.22,"in_county":true},"geometry":{"type":"Point","coordinates":[39.22085,0.76307]}},{"type":"Feature","properties":{"name":"Muftu Primary School","type":"day school","level":"lower primary upper primary pre primary","sub_county":"Hulugho Sub County","ward":"hulugho","pupils":0,"host_refugee":"host","risk":"LOW","dist_tana_km":111.98,"in_county":true},"geometry":{"type":"Point","coordinates":[41.01338,-1.14201]}},{"type":"Feature","properties":{"name":"Galmagalla Primary School","type":"day and boarding","level":"Junior secondary upper primary lower primary pre primary","sub_county":"Fafi Sub County","ward":"dekaharia","pupils":0,"host_refugee":"host","risk":"LOW","dist_tana_km":84.22,"in_county":true},"geometry":{"type":"Point","coordinates":[40.76813,-1.19361]}},{"type":"Feature","properties":{"name":"Domi Primary School","type":"day school","level":"pre primary lower primary","sub_county":"Hulugho Sub County","ward":"hulugho","pupils":0,"host_refugee":"host","risk":"LOW","dist_tana_km":117.03,"in_county":true},"geometry":{"type":"Point","coordinates":[41.04865,-1.07249]}},{"type":"Feature","properties":{"name":"Sarirah Primary School","type":"day school","level":"pre primary lower primary","sub_county":"Hulugho Sub County","ward":"hulugho","pupils":0,"host_refugee":"host","risk":"LOW","dist_tana_km":123.94,"in_county":true},"geometry":{"type":"Point","coordinates":[41.11548,-1.09578]}},{"type":"Feature","properties":{"name":"Bulagolol","type":"day school","level":"pre primary lower primary","sub_county":"Fafi Sub County","ward":"dekaharia","pupils":0,"host_refugee":"host","risk":"MEDIUM","dist_tana_km":104.23,"in_county":true},"geometry":{"type":"Point","coordinates":[40.93146,-1.07238]}},{"type":"Feature","properties":{"name":"Gubis Primary School","type":"day school","level":"pre primary lower primary upper primary","sub_county":"Fafi Sub County","ward":"dekaharia","pupils":0,"host_refugee":"host","risk":"MEDIUM","dist_tana_km":87.74,"in_county":true},"geometry":{"type":"Point","coordinates":[40.78826,-1.11191]}},{"type":"Feature","properties":{"name":"Dekaharja","type":"day school","level":"pre primary lower primary","sub_county":"Fafi Sub County","ward":"dekaharia","pupils":0,"host_refugee":"host","risk":"LOW","dist_tana_km":84.3,"in_county":true},"geometry":{"type":"Point","coordinates":[40.7682,-1.18697]}},{"type":"Feature","properties":{"name":"Doi Ecd","type":"day school","level":"pre primary lower primary","sub_county":"Fafi Sub County","ward":"dekaharia","pupils":0,"host_refugee":"host","risk":"LOW","dist_tana_km":80.72,"in_county":true},"geometry":{"type":"Point","coordinates":[40.742,-1.25356]}},{"type":"Feature","properties":{"name":"Boma Primary School","type":"day school","level":"pre primary lower primary","sub_county":"Hulugho Sub County","ward":"hulugho","pupils":0,"host_refugee":"host","risk":"LOW","dist_tana_km":113.0,"in_county":true},"geometry":{"type":"Point","coordinates":[41.02407,-1.15497]}},{"type":"Feature","properties":{"name":"Hadi Primary School","type":"day school","level":"pre primary lower primary","sub_county":"Hulugho Sub County","ward":"hulugho","pupils":0,"host_refugee":"host","risk":"LOW","dist_tana_km":118.68,"in_county":true},"geometry":{"type":"Point","coordinates":[41.07533,-1.15424]}},{"type":"Feature","properties":{"name":"Elkabere","type":"day school","level":"pre primary lower primary","sub_county":"Hulugho Sub County","ward":"hulugho","pupils":0,"host_refugee":"host","risk":"HIGH","dist_tana_km":116.13,"in_county":true},"geometry":{"type":"Point","coordinates":[41.01474,-0.9651]}},{"type":"Feature","properties":{"name":"Sinai Primary School","type":"day school","level":"pre primary lower primary","sub_county":"Hulugho Sub County","ward":"hulugho","pupils":0,"host_refugee":"host","risk":"LOW","dist_tana_km":118.33,"in_county":true},"geometry":{"type":"Point","coordinates":[41.07079,-1.14181]}},{"type":"Feature","properties":{"name":"Manderdoo Mobile Primary School","type":"day school","level":"pre primary lower primary","sub_county":"Hulugho Sub County","ward":"sangailu","pupils":0,"host_refugee":"host","risk":"MEDIUM","dist_tana_km":73.42,"in_county":true},"geometry":{"type":"Point","coordinates":[40.68449,-1.29139]}},{"type":"Feature","properties":{"name":"Gedilun Primary School","type":"day school","level":"lower primary pre primary upper primary Junior secondary","sub_county":"Hulugho Sub County","ward":"sangailu","pupils":0,"host_refugee":"host","risk":"LOW","dist_tana_km":64.73,"in_county":true},"geometry":{"type":"Point","coordinates":[40.63838,-1.37294]}},{"type":"Feature","properties":{"name":"Bulto Hama Primary School","type":"day school","level":"pre primary lower primary upper primary","sub_county":"Ijara Sub County","ward":"ijara ijara","pupils":0,"host_refugee":"host","risk":"LOW","dist_tana_km":35.05,"in_county":true},"geometry":{"type":"Point","coordinates":[40.44201,-1.77085]}},{"type":"Feature","properties":{"name":"Mai Primary School","type":"day school","level":"pre primary lower primary","sub_county":"Ijara Sub County","ward":"ijara ijara","pupils":0,"host_refugee":"host","risk":"LOW","dist_tana_km":24.85,"in_county":true},"geometry":{"type":"Point","coordinates":[40.35044,-1.73428]}},{"type":"Feature","properties":{"name":"Gololbenle Ecd","type":"day school","level":"pre primary lower primary","sub_county":"Ijara Sub County","ward":"ijara ijara","pupils":0,"host_refugee":"host","risk":"MEDIUM","dist_tana_km":55.87,"in_county":true},"geometry":{"type":"Point","coordinates":[40.59849,-1.49995]}},{"type":"Feature","properties":{"name":"Jaribu Primary School","type":"day school","level":"Junior secondary upper primary lower primary pre primary","sub_county":"Garissa Sub County","ward":"galbet","pupils":0,"host_refugee":"host","risk":"HIGH","dist_tana_km":1.66,"in_county":true},"geometry":{"type":"Point","coordinates":[39.63886,-0.44797]}},{"type":"Feature","properties":{"name":"Ap Goodwish Primary School","type":"day school","level":"Junior secondary upper primary lower primary pre primary","sub_county":"Garissa Sub County","ward":"township","pupils":0,"host_refugee":"host","risk":"HIGH","dist_tana_km":1.48,"in_county":true},"geometry":{"type":"Point","coordinates":[39.64169,-0.45246]}},{"type":"Feature","properties":{"name":"Hagar Jarer Primary School","type":"day school","level":"lower primary pre primary upper primary","sub_county":"Balambala Sub County","ward":"danyere","pupils":0,"host_refugee":"host","risk":"LOW","dist_tana_km":38.26,"in_county":true},"geometry":{"type":"Point","coordinates":[38.75604,0.29584]}},{"type":"Feature","properties":{"name":"Lafagari Primary School","type":"day school","level":"pre primary lower primary","sub_county":"Lagdera Sub County","ward":"benane","pupils":0,"host_refugee":"host","risk":"LOW","dist_tana_km":53.36,"in_county":true},"geometry":{"type":"Point","coordinates":[38.69182,0.44519]}},{"type":"Feature","properties":{"name":"Benane Primary School","type":"day and boarding","level":"pre primary lower primary upper primary Junior secondary","sub_county":"Lagdera Sub County","ward":"benane","pupils":0,"host_refugee":"host","risk":"LOW","dist_tana_km":59.48,"in_county":true},"geometry":{"type":"Point","coordinates":[38.66108,0.50617]}},{"type":"Feature","properties":{"name":"Hadun Primary School","type":"day school","level":"pre primary lower primary upper primary","sub_county":"Lagdera Sub County","ward":"benane","pupils":0,"host_refugee":"host","risk":"LOW","dist_tana_km":62.19,"in_county":true},"geometry":{"type":"Point","coordinates":[38.71133,0.52289]}},{"type":"Feature","properties":{"name":"Hagarjarer Primary School","type":"day school","level":"pre primary lower primary upper primary Junior secondary","sub_county":"Balambala Sub County","ward":"maalamin","pupils":0,"host_refugee":"host","risk":"LOW","dist_tana_km":38.96,"in_county":true},"geometry":{"type":"Point","coordinates":[38.73022,0.30634]}},{"type":"Feature","properties":{"name":"Kazuko Girls Primary","type":"day school","level":"pre primary lower primary upper primary Junior secondary","sub_county":"Garissa Sub County","ward":"galbet","pupils":0,"host_refugee":"host","risk":"HIGH","dist_tana_km":1.46,"in_county":true},"geometry":{"type":"Point","coordinates":[39.63671,-0.44851]}},{"type":"Feature","properties":{"name":"Hyuga Girls","type":"day school","level":"pre primary lower primary upper primary Junior secondary","sub_county":"Garissa Sub County","ward":"galbet","pupils":0,"host_refugee":"host","risk":"HIGH","dist_tana_km":2.0,"in_county":true},"geometry":{"type":"Point","coordinates":[39.63721,-0.4426]}},{"type":"Feature","properties":{"name":"Bullo Primary","type":"day school","level":"pre primary lower primary upper primary","sub_county":"Lagdera Sub County","ward":"benane","pupils":0,"host_refugee":"host","risk":"LOW","dist_tana_km":75.12,"in_county":true},"geometry":{"type":"Point","coordinates":[38.94137,0.63036]}},{"type":"Feature","properties":{"name":"Al-Farour Boys Primary","type":"day school","level":"pre primary lower primary upper primary Junior secondary","sub_county":"Garissa Sub County","ward":"waberi","pupils":0,"host_refugee":"host","risk":"LOW","dist_tana_km":3.62,"in_county":true},"geometry":{"type":"Point","coordinates":[39.65899,-0.44199]}},{"type":"Feature","properties":{"name":"Boystown","type":"day school","level":"pre primary lower primary upper primary Junior secondary","sub_county":"Garissa Sub County","ward":"waberi","pupils":0,"host_refugee":"host","risk":"MEDIUM","dist_tana_km":3.21,"in_county":true},"geometry":{"type":"Point","coordinates":[39.65617,-0.44443]}},{"type":"Feature","properties":{"name":"Tokojo Primary","type":"day school","level":"pre primary upper primary Junior secondary","sub_county":"Lagdera Sub County","ward":"benane","pupils":0,"host_refugee":"host","risk":"LOW","dist_tana_km":63.04,"in_county":true},"geometry":{"type":"Point","coordinates":[38.77187,0.52057]}},{"type":"Feature","properties":{"name":"Sarta Primary School","type":"day school","level":"pre primary lower primary upper primary","sub_county":"Lagdera Sub County","ward":"benane","pupils":0,"host_refugee":"host","risk":"LOW","dist_tana_km":72.15,"in_county":true},"geometry":{"type":"Point","coordinates":[38.83694,0.59191]}},{"type":"Feature","properties":{"name":"Medina Primary","type":"day and boarding","level":"pre primary lower primary upper primary Junior secondary","sub_county":"Lagdera Sub County","ward":"benane","pupils":0,"host_refugee":"host","risk":"LOW","dist_tana_km":71.98,"in_county":true},"geometry":{"type":"Point","coordinates":[38.83562,0.59067]}},{"type":"Feature","properties":{"name":"Elhumo Primary School","type":"day school","level":"pre primary lower primary","sub_county":"Fafi Sub County","ward":"fafi fafi","pupils":0,"host_refugee":"host","risk":"HIGH","dist_tana_km":55.76,"in_county":true},"geometry":{"type":"Point","coordinates":[40.23987,-0.42545]}},{"type":"Feature","properties":{"name":"Dadbilal Primary School","type":"day school","level":"pre primary lower primary","sub_county":"Fafi Sub County","ward":"fafi fafi","pupils":0,"host_refugee":"host","risk":"HIGH","dist_tana_km":66.05,"in_county":true},"geometry":{"type":"Point","coordinates":[40.32703,-0.39413]}},{"type":"Feature","properties":{"name":"Yumbis","type":"day school","level":"pre primary lower primary","sub_county":"Fafi Sub County","ward":"fafi fafi","pupils":0,"host_refugee":"host","risk":"LOW","dist_tana_km":83.42,"in_county":true},"geometry":{"type":"Point","coordinates":[40.38446,-0.17653]}},{"type":"Feature","properties":{"name":"Diiso 1 Primary School","type":"day school","level":"lower primary pre primary","sub_county":"Fafi Sub County","ward":"waberi","pupils":0,"host_refugee":"host","risk":"LOW","dist_tana_km":24.2,"in_county":true},"geometry":{"type":"Point","coordinates":[39.90846,-0.44417]}},{"type":"Feature","properties":{"name":"Fafi","type":"day and boarding","level":"pre primary lower primary upper primary Junior secondary","sub_county":"Fafi Sub County","ward":"fafi fafi","pupils":0,"host_refugee":"host","risk":"HIGH","dist_tana_km":65.97,"in_county":true},"geometry":{"type":"Point","coordinates":[40.32605,-0.39363]}},{"type":"Feature","properties":{"name":"Mathahmarub Primary School","type":"day school","level":"lower primary pre primary","sub_county":"Fafi Sub County","ward":"fafi fafi","pupils":0,"host_refugee":"host","risk":"HIGH","dist_tana_km":65.22,"in_county":true},"geometry":{"type":"Point","coordinates":[40.3365,-0.43489]}},{"type":"Feature","properties":{"name":"Diiso Primary School","type":"day school","level":"pre primary lower primary upper primary","sub_county":"Fafi Sub County","ward":"fafi fafi","pupils":0,"host_refugee":"host","risk":"LOW","dist_tana_km":34.2,"in_county":true},"geometry":{"type":"Point","coordinates":[40.03053,-0.44375]}},{"type":"Feature","properties":{"name":"Garissa Primary","type":"day and boarding","level":"pre primary lower primary upper primary Junior secondary","sub_county":"Garissa Sub County","ward":"iftin","pupils":0,"host_refugee":"host","risk":"HIGH","dist_tana_km":1.46,"in_county":true},"geometry":{"type":"Point","coordinates":[39.64579,-0.45647]}},{"type":"Feature","properties":{"name":"Bula Mzuri Primary","type":"day school","level":"pre primary lower primary upper primary Junior secondary","sub_county":"Garissa Sub County","ward":"galbet","pupils":0,"host_refugee":"host","risk":"LOW","dist_tana_km":4.32,"in_county":true},"geometry":{"type":"Point","coordinates":[39.6742,-0.46217]}},{"type":"Feature","properties":{"name":"Sambul Primary","type":"day school","level":"pre primary Junior secondary upper primary lower primary","sub_county":"Garissa Sub County","ward":"waberi","pupils":0,"host_refugee":"host","risk":"MEDIUM","dist_tana_km":3.05,"in_county":true},"geometry":{"type":"Point","coordinates":[39.6625,-0.46875]}},{"type":"Feature","properties":{"name":"Nasiib Pre-School","type":"day school","level":"pre primary Junior secondary upper primary lower primary","sub_county":"Garissa Sub County","ward":"waberi","pupils":0,"host_refugee":"host","risk":"LOW","dist_tana_km":4.32,"in_county":true},"geometry":{"type":"Point","coordinates":[39.66377,-0.43783]}},{"type":"Feature","properties":{"name":"Garissa Special School For Learners With Intellectual Disabilities","type":"day and boarding","level":"alternative ABE","sub_county":"Garissa Sub County","ward":"waberi","pupils":0,"host_refugee":"host","risk":"LOW","dist_tana_km":3.41,"in_county":true},"geometry":{"type":"Point","coordinates":[39.65873,-0.44452]}},{"type":"Feature","properties":{"name":"Bulla College Primary School","type":"day school","level":"pre primary lower primary upper primary Junior secondary","sub_county":"Garissa Sub County","ward":"waberi","pupils":0,"host_refugee":"host","risk":"LOW","dist_tana_km":3.67,"in_county":true},"geometry":{"type":"Point","coordinates":[39.66455,-0.44905]}},{"type":"Feature","properties":{"name":"Ama Pri Sch","type":"day school","level":"pre primary lower primary upper primary Junior secondary","sub_county":"Lagdera Sub County","ward":"modogashe","pupils":0,"host_refugee":"host","risk":"LOW","dist_tana_km":88.3,"in_county":true},"geometry":{"type":"Point","coordinates":[39.17978,0.74311]}},{"type":"Feature","properties":{"name":"Modogashe Ecd Sch","type":"day and boarding","level":"pre primary lower primary upper primary Junior secondary","sub_county":"Lagdera Sub County","ward":"modogashe","pupils":0,"host_refugee":"host","risk":"LOW","dist_tana_km":86.66,"in_county":true},"geometry":{"type":"Point","coordinates":[39.17763,0.72845]}},{"type":"Feature","properties":{"name":"Cheron Primary School","type":"day school","level":"pre primary lower primary","sub_county":"Lagdera Sub County","ward":"maalamin","pupils":0,"host_refugee":"host","risk":"HIGH","dist_tana_km":111.65,"in_county":true},"geometry":{"type":"Point","coordinates":[39.32965,0.92742]}},{"type":"Feature","properties":{"name":"Garisa School For Deaf","type":"day and boarding","level":"pre primary lower primary upper primary Junior secondary secondary school","sub_county":"Garissa Sub County","ward":"waberi","pupils":0,"host_refugee":"host","risk":"LOW","dist_tana_km":3.33,"in_county":true},"geometry":{"type":"Point","coordinates":[39.65916,-0.4462]}},{"type":"Feature","properties":{"name":"Iftin Primary School","type":"day school","level":"Junior secondary upper primary lower primary pre primary","sub_county":"Garissa Sub County","ward":"iftin","pupils":0,"host_refugee":"host","risk":"HIGH","dist_tana_km":2.62,"in_county":true},"geometry":{"type":"Point","coordinates":[39.65511,-0.47791]}},{"type":"Feature","properties":{"name":"Boulargy Primary School","type":"day school","level":"pre primary lower primary upper primary","sub_county":"Garissa Sub County","ward":"iftin","pupils":0,"host_refugee":"host","risk":"HIGH","dist_tana_km":2.23,"in_county":true},"geometry":{"type":"Point","coordinates":[39.67468,-0.50874]}},{"type":"Feature","properties":{"name":"Jarirot Primary School","type":"day school","level":"pre primary lower primary upper primary Junior secondary","sub_county":"Garissa Sub County","ward":"iftin","pupils":0,"host_refugee":"host","risk":"HIGH","dist_tana_km":2.47,"in_county":true},"geometry":{"type":"Point","coordinates":[39.71174,-0.56256]}},{"type":"Feature","properties":{"name":"Korokora Primary School","type":"day and boarding","level":"pre primary lower primary upper primary Junior secondary","sub_county":"Garissa Sub County","ward":"iftin","pupils":0,"host_refugee":"host","risk":"HIGH","dist_tana_km":0.99,"in_county":true},"geometry":{"type":"Point","coordinates":[39.77803,-0.60807]}},{"type":"Feature","properties":{"name":"Skanska Primary School","type":"day school","level":"pre primary lower primary upper primary Junior secondary","sub_county":"Lagdera Sub County","ward":"maalamin","pupils":0,"host_refugee":"host","risk":"MEDIUM","dist_tana_km":108.5,"in_county":true},"geometry":{"type":"Point","coordinates":[39.30672,0.90399]}},{"type":"Feature","properties":{"name":"Sadahgose Primary School","type":"day school","level":"pre primary lower primary","sub_county":"Fafi Sub County","ward":"jarajila","pupils":0,"host_refugee":"host","risk":"LOW","dist_tana_km":119.0,"in_county":true},"geometry":{"type":"Point","coordinates":[40.79009,-0.2656]}},{"type":"Feature","properties":{"name":"Welmarer Primary School","type":"day school","level":"pre primary lower primary upper primary Junior secondary","sub_county":"Fafi Sub County","ward":"jarajila","pupils":0,"host_refugee":"host","risk":"LOW","dist_tana_km":101.69,"in_county":true},"geometry":{"type":"Point","coordinates":[40.57898,-0.17795]}},{"type":"Feature","properties":{"name":"Alinjugur Pre-School","type":"day school","level":"pre primary","sub_county":"Dadaab Sub County","ward":"jarajila","pupils":0,"host_refugee":"host","risk":"LOW","dist_tana_km":99.82,"in_county":true},"geometry":{"type":"Point","coordinates":[40.45849,-0.03167]}},{"type":"Feature","properties":{"name":"Alinjugur Primary School","type":"day and boarding","level":"Junior secondary upper primary lower primary pre primary","sub_county":"Dadaab Sub County","ward":"jarajila","pupils":0,"host_refugee":"host","risk":"LOW","dist_tana_km":99.81,"in_county":true},"geometry":{"type":"Point","coordinates":[40.45855,-0.03186]}},{"type":"Feature","properties":{"name":"Amuma","type":"day and boarding","level":"pre primary lower primary upper primary Junior secondary","sub_county":"Fafi Sub County","ward":"jarajila","pupils":0,"host_refugee":"host","risk":"LOW","dist_tana_km":129.1,"in_county":true},"geometry":{"type":"Point","coordinates":[40.91549,-0.34285]}},{"type":"Feature","properties":{"name":"Najah Primary","type":"day and boarding","level":"pre primary upper primary lower primary Junior secondary","sub_county":"Garissa Sub County","ward":"iftin","pupils":0,"host_refugee":"host","risk":"HIGH","dist_tana_km":2.28,"in_county":true},"geometry":{"type":"Point","coordinates":[39.65322,-0.48366]}},{"type":"Feature","properties":{"name":"Garisa Children Rescure Center","type":"day school","level":"pre primary","sub_county":"Garissa Sub County","ward":"township","pupils":0,"host_refugee":"host","risk":"HIGH","dist_tana_km":2.91,"in_county":true},"geometry":{"type":"Point","coordinates":[39.64785,-0.4408]}},{"type":"Feature","properties":{"name":"Sheikh Hajir Primary School","type":"day school","level":"pre primary lower primary upper primary","sub_county":"Lagdera Sub County","ward":"maalamin","pupils":0,"host_refugee":"host","risk":"LOW","dist_tana_km":63.59,"in_county":true},"geometry":{"type":"Point","coordinates":[39.32071,0.46851]}},{"type":"Feature","properties":{"name":"Barfin Primary School","type":"day school","level":"pre primary lower primary upper primary","sub_county":"Lagdera Sub County","ward":"sabena","pupils":0,"host_refugee":"host","risk":"LOW","dist_tana_km":77.66,"in_county":true},"geometry":{"type":"Point","coordinates":[39.22702,0.63641]}},{"type":"Feature","properties":{"name":"Rarkuke Primary School","type":"day school","level":"pre primary lower primary upper primary Junior secondary","sub_county":"Lagdera Sub County","ward":"modogashe","pupils":0,"host_refugee":"host","risk":"LOW","dist_tana_km":77.89,"in_county":true},"geometry":{"type":"Point","coordinates":[39.01658,0.66085]}},{"type":"Feature","properties":{"name":"Gosmo Primary School","type":"day school","level":"pre primary lower primary upper primary Junior secondary","sub_county":"Lagdera Sub County","ward":"modogashe","pupils":0,"host_refugee":"host","risk":"LOW","dist_tana_km":76.47,"in_county":true},"geometry":{"type":"Point","coordinates":[39.00916,0.64787]}},{"type":"Feature","properties":{"name":"Janju Primary School","type":"day school","level":"pre primary lower primary upper primary","sub_county":"Lagdera Sub County","ward":"modogashe","pupils":0,"host_refugee":"host","risk":"LOW","dist_tana_km":81.15,"in_county":true},"geometry":{"type":"Point","coordinates":[39.08063,0.68847]}},{"type":"Feature","properties":{"name":"Jilango","type":"day and boarding","level":"pre primary lower primary upper primary Junior secondary","sub_county":"Lagdera Sub County","ward":"sabena","pupils":0,"host_refugee":"host","risk":"LOW","dist_tana_km":70.09,"in_county":true},"geometry":{"type":"Point","coordinates":[39.27212,0.55226]}},{"type":"Feature","properties":{"name":"Shabeldula Primarily School","type":"day school","level":"pre primary lower primary","sub_county":"Lagdera Sub County","ward":"sabena","pupils":0,"host_refugee":"host","risk":"LOW","dist_tana_km":74.3,"in_county":true},"geometry":{"type":"Point","coordinates":[39.32177,0.57418]}},{"type":"Feature","properties":{"name":"Geylab Primary School","type":"day school","level":"pre primary lower primary upper primary Junior secondary","sub_county":"Lagdera Sub County","ward":"sabena","pupils":0,"host_refugee":"host","risk":"LOW","dist_tana_km":77.19,"in_county":true},"geometry":{"type":"Point","coordinates":[39.36136,0.58531]}},{"type":"Feature","properties":{"name":"Dihiley Ecd","type":"day school","level":"pre primary lower primary upper primary Junior secondary","sub_county":"Lagdera Sub County","ward":"maalamin","pupils":0,"host_refugee":"host","risk":"LOW","dist_tana_km":68.98,"in_county":true},"geometry":{"type":"Point","coordinates":[39.2766,0.54002]}},{"type":"Feature","properties":{"name":"Toqdub Ecd","type":"day school","level":"pre primary lower primary Junior secondary upper primary","sub_county":"Lagdera Sub County","ward":"maalamin","pupils":0,"host_refugee":"host","risk":"LOW","dist_tana_km":60.94,"in_county":true},"geometry":{"type":"Point","coordinates":[39.3358,0.43346]}},{"type":"Feature","properties":{"name":"Borehole 5 Pre-School","type":"day school","level":"pre primary lower primary upper primary Junior secondary","sub_county":"Fafi Sub County","ward":"fafi fafi","pupils":0,"host_refugee":"host","risk":"HIGH","dist_tana_km":92.85,"in_county":true},"geometry":{"type":"Point","coordinates":[40.35086,0.00129]}},{"type":"Feature","properties":{"name":"Al-Fatah  Primary","type":"day school","level":"pre primary Junior secondary upper primary lower primary","sub_county":"Garissa Sub County","ward":"iftin","pupils":0,"host_refugee":"host","risk":"HIGH","dist_tana_km":3.26,"in_county":true},"geometry":{"type":"Point","coordinates":[39.66657,-0.48353]}},{"type":"Feature","properties":{"name":"Abdilugey Primary School","type":"day school","level":"pre primary lower primary","sub_county":"Garissa Sub County","ward":"waberi","pupils":0,"host_refugee":"host","risk":"LOW","dist_tana_km":9.77,"in_county":true},"geometry":{"type":"Point","coordinates":[39.71435,-0.4258]}},{"type":"Feature","properties":{"name":"Daddere Primary School","type":"day school","level":"pre primary lower primary","sub_county":"Fafi Sub County","ward":"fafi fafi","pupils":0,"host_refugee":"host","risk":"LOW","dist_tana_km":31.73,"in_county":true},"geometry":{"type":"Point","coordinates":[39.97976,-0.4168]}},{"type":"Feature","properties":{"name":"Maalimin Primary","type":"day and boarding","level":"pre primary lower primary upper primary Junior secondary","sub_county":"Lagdera Sub County","ward":"maalamin","pupils":0,"host_refugee":"host","risk":"LOW","dist_tana_km":56.49,"in_county":true},"geometry":{"type":"Point","coordinates":[39.34158,0.38304]}},{"type":"Feature","properties":{"name":"Afwein Primary School","type":"day and boarding","level":"pre primary lower primary upper primary Junior secondary","sub_county":"Lagdera Sub County","ward":"baraki","pupils":0,"host_refugee":"host","risk":"LOW","dist_tana_km":54.39,"in_county":true},"geometry":{"type":"Point","coordinates":[39.35408,0.35159]}},{"type":"Feature","properties":{"name":"Wayama Jibril Primary School","type":"day school","level":"pre primary lower primary upper primary","sub_county":"Lagdera Sub County","ward":"maalamin","pupils":0,"host_refugee":"host","risk":"MEDIUM","dist_tana_km":46.8,"in_county":true},"geometry":{"type":"Point","coordinates":[39.18672,0.35851]}},{"type":"Feature","properties":{"name":"Fafhagin Primary School","type":"day school","level":"pre primary lower primary upper primary","sub_county":"Fafi Sub County","ward":"fafi fafi","pupils":0,"host_refugee":"host","risk":"LOW","dist_tana_km":73.18,"in_county":true},"geometry":{"type":"Point","coordinates":[40.20083,-0.09619]}}]}