{"type":"FeatureCollection","features":[{"type":"Feature","properties":{"name":"Upper Tana / Seven Forks contributing catchment (indicative)","area_km2":18999,"note":"Indicative envelope of the HydroSHEDS Upper Tana network draining Mt Kenya & the Aberdares into the Seven Forks cascade.","source":"Derived from HydroSHEDS"},"geometry":{"type":"Polygon","coordinates":[[[37.92279,-1.58968],[37.86938,-1.60243],[36.92771,-1.0066],[36.69899,-0.82466],[36.6723,-0.76608],[36.759,-0.30904],[37.50555,0.05819],[37.69375,0.12138],[37.91963,0.00141],[38.01115,-0.11209],[37.98207,-1.47369],[37.92279,-1.58968]]]}}]}