{"type":"FeatureCollection","features":[{"type":"Feature","properties":{"name":"Masinga Dam","storage_mcm":1560,"capacity_mw":40,"commissioned":1981,"note":"Largest storage reservoir; regulates the whole cascade. Spill at full supply level ~1,056.5 m a.s.l.","order":1,"source":"KenGen / published figures (approx.)"},"geometry":{"type":"Point","coordinates":[37.5919,-0.8883]}},{"type":"Feature","properties":{"name":"Kamburu Dam","storage_mcm":150,"capacity_mw":94,"commissioned":1974,"note":"Run-of-river dam immediately below Masinga.","order":2,"source":"KenGen / published figures (approx.)"},"geometry":{"type":"Point","coordinates":[37.6836,-0.8122]}},{"type":"Feature","properties":{"name":"Gitaru Dam","storage_mcm":20,"capacity_mw":225,"commissioned":1978,"note":"Highest-output station of the cascade; small storage, spills fast.","order":3,"source":"KenGen / published figures (approx.)"},"geometry":{"type":"Point","coordinates":[37.7447,-0.7983]}},{"type":"Feature","properties":{"name":"Kindaruma Dam","storage_mcm":16,"capacity_mw":72,"commissioned":1968,"note":"Oldest dam of the cascade; minimal storage.","order":4,"source":"KenGen / published figures (approx.)"},"geometry":{"type":"Point","coordinates":[37.8133,-0.8117]}},{"type":"Feature","properties":{"name":"Kiambere Dam","storage_mcm":585,"capacity_mw":168,"commissioned":1988,"note":"Last dam; releases enter the free-flowing lower Tana toward Garissa.","order":5,"source":"KenGen / published figures (approx.)"},"geometry":{"type":"Point","coordinates":[37.8822,-0.6328]}}]}