{"type":"FeatureCollection","features":[{"type":"Feature","properties":{"site_ref":"GT-01","area_km2":467.5},"geometry":{"type":"Polygon","coordinates":[[[39.51639,-0.25056],[39.51639,-0.25111],[39.51472,-0.25111],[39.51528,-0.25167],[39.51472,-0.25278],[39.51139,-0.25222],[39.51139,-0.25333],[39.50917,-0.25389],[39.50806,-0.25611],[39.50583,-0.25667],[39.50583,-0.25611],[39.50361,-0.25611],[39.50194,-0.255],[39.50083,-0.25667],[39.50083,-0.26056],[39.50194,-0.26056],[39.50417,-0.26278],[39.50417,-0.26444],[39.5025,-0.265],[39.5025,-0.26611],[39.50528,-0.26667],[39.50472,-0.26889],[39.50583,-0.26889],[39.5075,-0.27222],[39.5075,-0.275],[39.50806,-0.275],[39.5075,-0.27778],[39.50861,-0.27833],[39.50861,-0.27944],[39.50972,-0.27944],[39.50917,-0.28111],[39.51028,-0.28167],[39.51028,-0.28278],[39.50806,-0.28278],[39.50694,-0.28389],[39.5075,-0.28722],[39.50694,-0.28833],[39.50417,-0.28889],[39.50417,-0.29056],[39.50306,-0.29056],[39.50306,-0.29278],[39.5025,-0.29278],[39.5025,-0.29611],[39.50139,-0.29611],[39.50139,-0.29722],[39.50028,-0.29778],[39.50028,-0.29889],[39.50139,-0.29889],[39.50139,-0.30167],[39.50028,-0.30167],[39.50028,-0.30333],[39.50083,-0.30333],[39.50028,-0.31222],[39.50139,-0.31278],[39.50083,-0.31556],[39.50028,-0.31556],[39.50028,-0.33167],[39.50083,-0.33167],[39.50028,-0.34611],[39.50194,-0.34667],[39.50194,-0.34889],[39.50028,-0.34944],[39.50028,-0.35111],[39.50083,-0.35111],[39.50028,-0.35222],[39.50028,-0.35722],[39.50083,-0.35722],[39.50028,-0.365],[39.50139,-0.365],[39.50083,-0.36889],[39.50028,-0.36889],[39.50028,-0.37444],[39.50083,-0.37444],[39.50028,-0.375],[39.50028,-0.37667],[39.50083,-0.37667],[39.50028,-0.38222],[39.50139,-0.38278],[39.50083,-0.38389],[39.50139,-0.38556],[39.5025,-0.38611],[39.5025,-0.38722],[39.50361,-0.38722],[39.50306,-0.39056],[39.50417,-0.39111],[39.50417,-0.39222],[39.5025,-0.39222],[39.50028,-0.39444],[39.50083,-0.405],[39.50139,-0.405],[39.50139,-0.40667],[39.5025,-0.40722],[39.5025,-0.40833],[39.50028,-0.40889],[39.50028,-0.41556],[39.50139,-0.41611],[39.50083,-0.41667],[39.50139,-0.41778],[39.5025,-0.41778],[39.50194,-0.41833],[39.5025,-0.41889],[39.50194,-0.42389],[39.50083,-0.42389],[39.50083,-0.42611],[39.50028,-0.42611],[39.50028,-0.42778],[39.50083,-0.42778],[39.50028,-0.42889],[39.50028,-0.43056],[39.50083,-0.43056],[39.50083,-0.43222],[39.50028,-0.43222],[39.50028,-0.455],[39.50083,-0.455],[39.50028,-0.46556],[39.50083,-0.46611],[39.50528,-0.46667],[39.50583,-0.46778],[39.50694,-0.46778],[39.50694,-0.46667],[39.50861,-0.46667],[39.50917,-0.46556],[39.51028,-0.46556],[39.51028,-0.46778],[39.51139,-0.46833],[39.51528,-0.46778],[39.51583,-0.46611],[39.51694,-0.46611],[39.5175,-0.46778],[39.51917,-0.46722],[39.51917,-0.47],[39.52083,-0.47],[39.52083,-0.47278],[39.52306,-0.47278],[39.52361,-0.47167],[39.52583,-0.47222],[39.52694,-0.47167],[39.52694,-0.47056],[39.52806,-0.47056],[39.52861,-0.47167],[39.52972,-0.47167],[39.53083,-0.47444],[39.53306,-0.47444],[39.53306,-0.47333],[39.53417,-0.47278],[39.53917,-0.47222],[39.53917,-0.47167],[39.54028,-0.47167],[39.54028,-0.47278],[39.54139,-0.47333],[39.54472,-0.47278],[39.54472,-0.47222],[39.54972,-0.47278],[39.54972,-0.47222],[39.55639,-0.47167],[39.55694,-0.47278],[39.56306,-0.47222],[39.56417,-0.47333],[39.57194,-0.47333],[39.57417,-0.47444],[39.57528,-0.47611],[39.57917,-0.47611],[39.58083,-0.47778],[39.5875,-0.47722],[39.58806,-0.47889],[39.58972,-0.47889],[39.59194,-0.47778],[39.59194,-0.475],[39.59306,-0.47444],[39.59306,-0.47278],[39.59194,-0.47222],[39.59194,-0.47111],[39.59361,-0.47111],[39.59417,-0.47],[39.59528,-0.47],[39.59583,-0.47111],[39.5975,-0.47111],[39.5975,-0.47],[39.59917,-0.47],[39.59917,-0.46833],[39.60139,-0.46778],[39.60139,-0.46667],[39.6025,-0.46667],[39.60306,-0.465],[39.60472,-0.465],[39.60528,-0.46222],[39.60694,-0.46111],[39.6075,-0.45667],[39.60917,-0.45611],[39.60972,-0.45722],[39.6125,-0.45722],[39.61417,-0.45389],[39.61528,-0.45389],[39.61639,-0.45222],[39.62083,-0.45278],[39.62194,-0.45444],[39.62361,-0.45444],[39.62361,-0.45389],[39.6275,-0.45444],[39.62917,-0.45278],[39.62917,-0.44944],[39.63028,-0.44722],[39.6275,-0.44556],[39.62694,-0.44278],[39.62528,-0.44222],[39.62528,-0.44111],[39.62361,-0.43944],[39.62361,-0.43778],[39.62639,-0.43778],[39.62639,-0.43833],[39.6275,-0.43778],[39.6275,-0.435],[39.62861,-0.435],[39.62806,-0.43444],[39.62861,-0.43167],[39.62361,-0.43111],[39.6225,-0.42833],[39.61917,-0.42611],[39.61917,-0.42333],[39.62139,-0.42056],[39.62417,-0.42056],[39.62417,-0.41944],[39.62694,-0.42],[39.62806,-0.41778],[39.63139,-0.41833],[39.63194,-0.42111],[39.63972,-0.42],[39.63972,-0.41833],[39.64083,-0.41722],[39.64306,-0.41722],[39.64306,-0.41611],[39.64528,-0.41667],[39.64639,-0.41889],[39.64917,-0.41833],[39.64972,-0.41944],[39.6525,-0.41889],[39.6525,-0.41833],[39.65528,-0.41889],[39.65583,-0.41778],[39.65861,-0.41833],[39.65972,-0.41556],[39.66083,-0.41611],[39.66083,-0.41722],[39.66528,-0.41611],[39.66583,-0.415],[39.66861,-0.415],[39.67028,-0.41667],[39.67139,-0.41667],[39.67194,-0.415],[39.67417,-0.415],[39.67528,-0.41278],[39.67583,-0.41389],[39.6775,-0.41389],[39.67917,-0.41222],[39.68306,-0.41333],[39.68361,-0.41111],[39.68528,-0.41167],[39.68639,-0.41111],[39.68639,-0.41],[39.68806,-0.41056],[39.68861,-0.40944],[39.69028,-0.40944],[39.69028,-0.40833],[39.69139,-0.40833],[39.69139,-0.40722],[39.69306,-0.40722],[39.69417,-0.40611],[39.6975,-0.40611],[39.69917,-0.40278],[39.69917,-0.39833],[39.70139,-0.39833],[39.70139,-0.39889],[39.70361,-0.39889],[39.70472,-0.39778],[39.70806,-0.39833],[39.71028,-0.39722],[39.71139,-0.395],[39.7125,-0.395],[39.71194,-0.39389],[39.7125,-0.39389],[39.71306,-0.39111],[39.71472,-0.39056],[39.71472,-0.38889],[39.71306,-0.38833],[39.7125,-0.385],[39.71417,-0.38389],[39.7175,-0.38444],[39.71639,-0.38],[39.71861,-0.37889],[39.71861,-0.37611],[39.71806,-0.37556],[39.71694,-0.37611],[39.71583,-0.37389],[39.71694,-0.37167],[39.71861,-0.37167],[39.71861,-0.36722],[39.7175,-0.36667],[39.71639,-0.36722],[39.71639,-0.36556],[39.71917,-0.365],[39.71917,-0.36444],[39.72139,-0.36556],[39.72139,-0.36333],[39.71972,-0.36333],[39.71917,-0.36111],[39.7175,-0.36],[39.7175,-0.35778],[39.71639,-0.35722],[39.71639,-0.35611],[39.7175,-0.35556],[39.71694,-0.35333],[39.71528,-0.35333],[39.71361,-0.35111],[39.71139,-0.35111],[39.71083,-0.35],[39.70806,-0.35],[39.70639,-0.35167],[39.70528,-0.35167],[39.70528,-0.35056],[39.7025,-0.34944],[39.7025,-0.34778],[39.70139,-0.34667],[39.6975,-0.345],[39.69806,-0.34111],[39.69917,-0.34],[39.70028,-0.34056],[39.70139,-0.34],[39.70139,-0.33778],[39.70083,-0.33667],[39.69972,-0.33667],[39.70028,-0.335],[39.69806,-0.33389],[39.69917,-0.33167],[39.69917,-0.32944],[39.69694,-0.32889],[39.69694,-0.32722],[39.69806,-0.32667],[39.69694,-0.32444],[39.70083,-0.32333],[39.70139,-0.32222],[39.6975,-0.32167],[39.6975,-0.32111],[39.69417,-0.32167],[39.69361,-0.32],[39.69139,-0.32056],[39.69083,-0.31833],[39.68917,-0.31833],[39.6875,-0.31278],[39.68306,-0.31222],[39.68361,-0.31],[39.6825,-0.30833],[39.68028,-0.30833],[39.68028,-0.30722],[39.67639,-0.30667],[39.67583,-0.30556],[39.67639,-0.30167],[39.67417,-0.30056],[39.67194,-0.30056],[39.67194,-0.29889],[39.6725,-0.29833],[39.67417,-0.29889],[39.67583,-0.29611],[39.67528,-0.29556],[39.67417,-0.29611],[39.67306,-0.295],[39.6725,-0.29222],[39.67139,-0.29278],[39.67139,-0.29056],[39.67194,-0.29056],[39.67139,-0.285],[39.67083,-0.285],[39.67083,-0.28333],[39.66972,-0.28333],[39.67083,-0.28222],[39.67083,-0.28056],[39.66972,-0.28056],[39.66972,-0.27889],[39.66806,-0.27722],[39.66806,-0.27556],[39.66694,-0.27556],[39.66528,-0.27389],[39.66361,-0.27389],[39.66361,-0.27222],[39.66472,-0.27167],[39.66472,-0.27],[39.66361,-0.27],[39.66361,-0.26889],[39.66472,-0.26833],[39.66639,-0.26833],[39.66694,-0.26944],[39.66972,-0.26889],[39.66972,-0.27056],[39.67083,-0.27111],[39.67083,-0.27222],[39.6725,-0.27167],[39.67417,-0.26722],[39.67583,-0.26667],[39.67806,-0.26444],[39.67806,-0.26278],[39.67972,-0.26333],[39.68083,-0.26111],[39.68083,-0.25889],[39.67917,-0.25722],[39.67583,-0.25778],[39.67528,-0.25944],[39.67417,-0.26],[39.67417,-0.25944],[39.67139,-0.25944],[39.67028,-0.25833],[39.66806,-0.25833],[39.6675,-0.25722],[39.66583,-0.25722],[39.66583,-0.25667],[39.66417,-0.25722],[39.66306,-0.25944],[39.66194,-0.25722],[39.66083,-0.25722],[39.66028,-0.25611],[39.65528,-0.25611],[39.65583,-0.25667],[39.65528,-0.26056],[39.65361,-0.26],[39.65361,-0.26111],[39.65194,-0.26111],[39.65194,-0.26222],[39.65083,-0.26222],[39.65028,-0.26167],[39.65083,-0.26],[39.6475,-0.25833],[39.64694,-0.25444],[39.64417,-0.25167],[39.64194,-0.25167],[39.64194,-0.25278],[39.64083,-0.25278],[39.64028,-0.25444],[39.63806,-0.25444],[39.63694,-0.25333],[39.6275,-0.25389],[39.6275,-0.25278],[39.62583,-0.25333],[39.62583,-0.25222],[39.62361,-0.25111],[39.62083,-0.25111],[39.62083,-0.25056],[39.61917,-0.25056],[39.61861,-0.25167],[39.61639,-0.25167],[39.61472,-0.25056],[39.61083,-0.25056],[39.60917,-0.25167],[39.60694,-0.25167],[39.6075,-0.25056],[39.60306,-0.25056],[39.60306,-0.25111],[39.59694,-0.25056],[39.59583,-0.25167],[39.59417,-0.25056],[39.59194,-0.25167],[39.59083,-0.25056],[39.58361,-0.25056],[39.58361,-0.25111],[39.57806,-0.25056],[39.57639,-0.25167],[39.57528,-0.25056],[39.56917,-0.25056],[39.56917,-0.25111],[39.56417,-0.25056],[39.5625,-0.25167],[39.56028,-0.25056],[39.55861,-0.25056],[39.5575,-0.25167],[39.55472,-0.25111],[39.55472,-0.25056],[39.55139,-0.25056],[39.55083,-0.25167],[39.54917,-0.25167],[39.54861,-0.25056],[39.54694,-0.25056],[39.54694,-0.25111],[39.53861,-0.25056],[39.5375,-0.25222],[39.53528,-0.25222],[39.53472,-0.25111],[39.53306,-0.25111],[39.53306,-0.25056],[39.53194,-0.25056],[39.53139,-0.25167],[39.52972,-0.25167],[39.52972,-0.25056],[39.5275,-0.25056],[39.52694,-0.25167],[39.52472,-0.25056],[39.52306,-0.25222],[39.52028,-0.25167],[39.52028,-0.25056],[39.51861,-0.25056],[39.51861,-0.25111],[39.51639,-0.25056]]]}},{"type":"Feature","properties":{"site_ref":"GT-02","area_km2":423.3},"geometry":{"type":"MultiPolygon","coordinates":[[[[39.61917,-0.42611],[39.61972,-0.42667],[39.61917,-0.42667],[39.61917,-0.42611]]],[[[39.61917,-0.42611],[39.61806,-0.42556],[39.61583,-0.42611],[39.61528,-0.42389],[39.61306,-0.425],[39.61306,-0.42667],[39.61139,-0.42944],[39.61139,-0.43111],[39.61194,-0.43111],[39.61139,-0.43389],[39.61028,-0.43389],[39.60972,-0.43278],[39.6075,-0.43333],[39.60694,-0.43222],[39.60417,-0.43222],[39.60417,-0.43056],[39.60139,-0.43],[39.60083,-0.42833],[39.59694,-0.42889],[39.59639,-0.42778],[39.59361,-0.42778],[39.59306,-0.42667],[39.5925,-0.42778],[39.59028,-0.42778],[39.59028,-0.42722],[39.5875,-0.42778],[39.5875,-0.43],[39.58583,-0.43111],[39.58583,-0.43222],[39.58472,-0.43222],[39.58472,-0.43333],[39.58306,-0.43333],[39.58306,-0.43222],[39.58083,-0.43222],[39.58083,-0.43056],[39.57972,-0.43],[39.57583,-0.43],[39.57583,-0.42944],[39.57194,-0.43],[39.57083,-0.42889],[39.56861,-0.42944],[39.56583,-0.43222],[39.56583,-0.43333],[39.56417,-0.43333],[39.56417,-0.43444],[39.56306,-0.43444],[39.5625,-0.43833],[39.56139,-0.43833],[39.56083,-0.43944],[39.55806,-0.43889],[39.5575,-0.44056],[39.55472,-0.44111],[39.55417,-0.44278],[39.5525,-0.44333],[39.55194,-0.44778],[39.55083,-0.44889],[39.54917,-0.44889],[39.54917,-0.44778],[39.5475,-0.44778],[39.5475,-0.44722],[39.54028,-0.44778],[39.54028,-0.44667],[39.5325,-0.44611],[39.53139,-0.44722],[39.52972,-0.44722],[39.52972,-0.44889],[39.52861,-0.44889],[39.52806,-0.45],[39.52639,-0.45],[39.52528,-0.45167],[39.5225,-0.45222],[39.5225,-0.45333],[39.52028,-0.455],[39.52028,-0.45722],[39.51861,-0.45778],[39.51806,-0.45944],[39.51639,-0.45889],[39.51528,-0.46],[39.51583,-0.46056],[39.51528,-0.46222],[39.51139,-0.46611],[39.51083,-0.46778],[39.51028,-0.46778],[39.51028,-0.46556],[39.50917,-0.46556],[39.50861,-0.46667],[39.50694,-0.46667],[39.50694,-0.46778],[39.50583,-0.46778],[39.50528,-0.46667],[39.50028,-0.46556],[39.50028,-0.46056],[39.50083,-0.46056],[39.50028,-0.46],[39.50028,-0.45611],[39.50083,-0.45611],[39.50028,-0.455],[39.50028,-0.43222],[39.50083,-0.43222],[39.50028,-0.42611],[39.50083,-0.42611],[39.50083,-0.42389],[39.50194,-0.42389],[39.50194,-0.41944],[39.5025,-0.41944],[39.50194,-0.41889],[39.5025,-0.41778],[39.50139,-0.41778],[39.50083,-0.41722],[39.50139,-0.41611],[39.50028,-0.41556],[39.50028,-0.40889],[39.5025,-0.40833],[39.5025,-0.40722],[39.50139,-0.40667],[39.50083,-0.40167],[39.50028,-0.40167],[39.50028,-0.39444],[39.5025,-0.39222],[39.50417,-0.39222],[39.50417,-0.39111],[39.50306,-0.39056],[39.50361,-0.38722],[39.5025,-0.38722],[39.5025,-0.38611],[39.50139,-0.38556],[39.50083,-0.38444],[39.50139,-0.38278],[39.50028,-0.38222],[39.50028,-0.37722],[39.50083,-0.37722],[39.50028,-0.37667],[39.50028,-0.375],[39.50083,-0.375],[39.50028,-0.36889],[39.50083,-0.36889],[39.50083,-0.36556],[39.50139,-0.36556],[39.50028,-0.365],[39.50028,-0.35833],[39.50083,-0.35833],[39.50028,-0.34944],[39.50194,-0.34889],[39.50194,-0.34667],[39.50028,-0.34611],[39.50028,-0.34278],[39.50083,-0.34278],[39.50083,-0.34111],[39.50028,-0.34111],[39.50028,-0.33944],[39.50083,-0.33944],[39.50028,-0.31556],[39.50139,-0.31389],[39.50139,-0.31278],[39.50028,-0.31222],[39.50028,-0.30944],[39.50083,-0.30944],[39.50028,-0.30889],[39.50028,-0.30611],[39.50083,-0.30611],[39.50028,-0.30167],[39.50139,-0.30167],[39.50139,-0.29889],[39.50028,-0.29889],[39.50028,-0.29778],[39.50139,-0.29722],[39.50139,-0.29611],[39.5025,-0.29611],[39.5025,-0.29278],[39.50306,-0.29278],[39.50306,-0.29056],[39.50417,-0.29056],[39.50417,-0.28889],[39.50694,-0.28833],[39.5075,-0.28722],[39.50694,-0.28389],[39.50806,-0.28278],[39.51028,-0.28278],[39.51028,-0.28167],[39.50917,-0.28111],[39.50972,-0.27944],[39.50861,-0.27944],[39.50861,-0.27833],[39.5075,-0.27778],[39.5075,-0.27611],[39.50806,-0.27611],[39.5075,-0.27222],[39.50583,-0.26889],[39.50472,-0.26889],[39.50528,-0.26667],[39.5025,-0.26611],[39.5025,-0.265],[39.50417,-0.26444],[39.50417,-0.26278],[39.50194,-0.26056],[39.50083,-0.26056],[39.50083,-0.25667],[39.50194,-0.255],[39.50639,-0.25667],[39.50861,-0.25556],[39.50917,-0.25389],[39.51083,-0.25389],[39.51139,-0.25222],[39.51472,-0.25278],[39.51528,-0.25222],[39.51472,-0.25111],[39.51639,-0.25111],[39.51639,-0.25056],[39.5175,-0.25111],[39.52028,-0.25056],[39.52028,-0.25167],[39.52139,-0.25222],[39.52306,-0.25222],[39.52472,-0.25056],[39.52583,-0.25056],[39.52639,-0.25167],[39.5275,-0.25056],[39.52972,-0.25056],[39.52972,-0.25167],[39.53139,-0.25167],[39.53194,-0.25056],[39.53306,-0.25056],[39.53306,-0.25111],[39.53472,-0.25111],[39.53528,-0.25222],[39.5375,-0.25222],[39.53861,-0.25056],[39.53972,-0.25111],[39.54861,-0.25056],[39.54917,-0.25167],[39.55083,-0.25167],[39.55139,-0.25056],[39.55472,-0.25056],[39.55639,-0.25167],[39.55861,-0.25056],[39.56028,-0.25056],[39.56139,-0.25167],[39.56417,-0.25111],[39.56417,-0.25056],[39.5675,-0.25056],[39.5675,-0.25111],[39.57528,-0.25056],[39.57583,-0.25167],[39.57806,-0.25056],[39.58028,-0.25056],[39.58028,-0.25111],[39.59083,-0.25056],[39.59139,-0.25167],[39.59306,-0.25056],[39.59528,-0.25167],[39.59694,-0.25056],[39.6025,-0.25056],[39.6025,-0.25111],[39.6075,-0.25056],[39.60694,-0.25167],[39.60917,-0.25167],[39.61083,-0.25056],[39.61472,-0.25056],[39.61639,-0.25167],[39.61861,-0.25167],[39.61917,-0.25056],[39.62083,-0.25056],[39.62083,-0.25111],[39.62361,-0.25111],[39.62583,-0.25222],[39.62583,-0.25333],[39.6275,-0.25278],[39.6275,-0.25389],[39.63694,-0.25333],[39.63806,-0.25444],[39.64028,-0.25444],[39.64083,-0.25278],[39.64194,-0.25278],[39.64194,-0.25167],[39.64417,-0.25167],[39.64694,-0.25444],[39.6475,-0.25833],[39.65083,-0.26],[39.65028,-0.26111],[39.65083,-0.26222],[39.65194,-0.26222],[39.65194,-0.26111],[39.65361,-0.26111],[39.65361,-0.26],[39.65528,-0.26056],[39.65583,-0.25944],[39.65528,-0.25611],[39.66028,-0.25611],[39.66083,-0.25722],[39.66194,-0.25722],[39.66306,-0.25944],[39.66417,-0.25722],[39.66528,-0.25667],[39.6675,-0.25722],[39.66806,-0.25833],[39.67028,-0.25833],[39.67139,-0.25944],[39.67417,-0.25944],[39.67417,-0.26],[39.67528,-0.25944],[39.67583,-0.25778],[39.6775,-0.25778],[39.6775,-0.25722],[39.67917,-0.25722],[39.68083,-0.25889],[39.68083,-0.26111],[39.67972,-0.26333],[39.67806,-0.26278],[39.67806,-0.26444],[39.67583,-0.26667],[39.67417,-0.26722],[39.67194,-0.27222],[39.67083,-0.27222],[39.67083,-0.27111],[39.66972,-0.27056],[39.66972,-0.26889],[39.66694,-0.26944],[39.66639,-0.26833],[39.66472,-0.26833],[39.66361,-0.26889],[39.66361,-0.27],[39.66472,-0.27],[39.66361,-0.27389],[39.66528,-0.27389],[39.66694,-0.27556],[39.66806,-0.27556],[39.66861,-0.27833],[39.66972,-0.27889],[39.66972,-0.28056],[39.67083,-0.28056],[39.67083,-0.28222],[39.66972,-0.28333],[39.67083,-0.28333],[39.67083,-0.285],[39.67139,-0.285],[39.67139,-0.28944],[39.67194,-0.28944],[39.67139,-0.29278],[39.6725,-0.29222],[39.67306,-0.295],[39.67417,-0.29611],[39.67472,-0.29556],[39.67583,-0.29611],[39.67417,-0.29889],[39.67306,-0.29833],[39.67194,-0.29889],[39.67194,-0.30056],[39.67417,-0.30056],[39.67639,-0.30167],[39.67583,-0.30278],[39.67639,-0.30667],[39.68028,-0.30722],[39.68028,-0.30833],[39.6825,-0.30833],[39.68361,-0.31],[39.68306,-0.31222],[39.6875,-0.31278],[39.68917,-0.31833],[39.69083,-0.31833],[39.69139,-0.32056],[39.69361,-0.32],[39.69417,-0.32167],[39.6975,-0.32111],[39.6975,-0.32167],[39.70139,-0.32222],[39.70083,-0.32333],[39.69694,-0.32444],[39.69806,-0.32556],[39.69806,-0.32667],[39.69694,-0.32722],[39.69694,-0.32889],[39.69917,-0.32944],[39.69917,-0.33167],[39.69806,-0.33389],[39.70028,-0.335],[39.69972,-0.33667],[39.70083,-0.33667],[39.70139,-0.33778],[39.70083,-0.34056],[39.69917,-0.34],[39.69806,-0.34111],[39.6975,-0.345],[39.70139,-0.34667],[39.7025,-0.34778],[39.7025,-0.34944],[39.70528,-0.35056],[39.70528,-0.35167],[39.70639,-0.35167],[39.70806,-0.35],[39.71083,-0.35],[39.71139,-0.35111],[39.71361,-0.35111],[39.71528,-0.35333],[39.71694,-0.35333],[39.7175,-0.35444],[39.7175,-0.35556],[39.71639,-0.35611],[39.71639,-0.35722],[39.7175,-0.35778],[39.7175,-0.36],[39.71917,-0.36111],[39.71972,-0.36333],[39.72139,-0.36333],[39.72139,-0.36556],[39.71972,-0.36444],[39.71639,-0.36556],[39.71639,-0.36722],[39.71694,-0.36667],[39.71861,-0.36722],[39.71861,-0.37167],[39.71694,-0.37167],[39.71694,-0.37278],[39.71583,-0.37333],[39.71639,-0.37556],[39.71861,-0.37611],[39.71861,-0.37889],[39.71639,-0.38],[39.7175,-0.38444],[39.71417,-0.38389],[39.7125,-0.385],[39.71306,-0.38833],[39.71472,-0.38889],[39.71472,-0.39056],[39.71306,-0.39111],[39.7125,-0.39389],[39.71194,-0.39389],[39.7125,-0.395],[39.71083,-0.39556],[39.70972,-0.39778],[39.70806,-0.39778],[39.70806,-0.39833],[39.70472,-0.39778],[39.70361,-0.39889],[39.69917,-0.39833],[39.69917,-0.40278],[39.6975,-0.40611],[39.69417,-0.40611],[39.69306,-0.40722],[39.69139,-0.40722],[39.69139,-0.40833],[39.69028,-0.40833],[39.69028,-0.40944],[39.68861,-0.40944],[39.68806,-0.41056],[39.68639,-0.41],[39.68639,-0.41111],[39.68528,-0.41167],[39.68361,-0.41111],[39.68306,-0.41333],[39.67917,-0.41222],[39.6775,-0.41389],[39.67583,-0.41389],[39.67528,-0.41278],[39.67417,-0.415],[39.67194,-0.415],[39.67139,-0.41667],[39.67028,-0.41667],[39.66861,-0.415],[39.66583,-0.415],[39.66528,-0.41611],[39.66083,-0.41722],[39.66083,-0.41611],[39.65972,-0.41556],[39.65861,-0.41833],[39.65583,-0.41778],[39.65528,-0.41889],[39.6525,-0.41833],[39.65028,-0.41944],[39.64917,-0.41833],[39.64639,-0.41889],[39.64528,-0.41667],[39.64306,-0.41611],[39.64306,-0.41722],[39.64083,-0.41722],[39.63972,-0.41833],[39.63972,-0.42],[39.6325,-0.42056],[39.6325,-0.42111],[39.63194,-0.42111],[39.63139,-0.41833],[39.62806,-0.41778],[39.62694,-0.42],[39.62417,-0.41944],[39.62417,-0.42056],[39.62139,-0.42056],[39.61917,-0.42333],[39.61917,-0.42611]]]]}},{"type":"Feature","properties":{"site_ref":"GT-03","area_km2":309.5},"geometry":{"type":"Polygon","coordinates":[[[39.51639,-0.25056],[39.51639,-0.25111],[39.51472,-0.25111],[39.51528,-0.25167],[39.51472,-0.25278],[39.51139,-0.25222],[39.51139,-0.25333],[39.50917,-0.25389],[39.50806,-0.25611],[39.50583,-0.25667],[39.50583,-0.25611],[39.50361,-0.25611],[39.50194,-0.255],[39.50083,-0.25667],[39.50083,-0.26056],[39.50194,-0.26056],[39.50417,-0.26278],[39.50417,-0.26444],[39.5025,-0.265],[39.5025,-0.26611],[39.50528,-0.26667],[39.50472,-0.26889],[39.50583,-0.26889],[39.5075,-0.27222],[39.5075,-0.275],[39.50806,-0.275],[39.5075,-0.27778],[39.50861,-0.27833],[39.50861,-0.27944],[39.50972,-0.27944],[39.50917,-0.28111],[39.51028,-0.28167],[39.51028,-0.28278],[39.50806,-0.28278],[39.50694,-0.28389],[39.5075,-0.28722],[39.50694,-0.28833],[39.50417,-0.28889],[39.50417,-0.29056],[39.50306,-0.29056],[39.50306,-0.29278],[39.5025,-0.29278],[39.5025,-0.29611],[39.50139,-0.29611],[39.50139,-0.29722],[39.50028,-0.29778],[39.50028,-0.29889],[39.50139,-0.29889],[39.50139,-0.30167],[39.50028,-0.30167],[39.50028,-0.30333],[39.50083,-0.30333],[39.50028,-0.31222],[39.50139,-0.31278],[39.50083,-0.31556],[39.50028,-0.31556],[39.50028,-0.33167],[39.50083,-0.33167],[39.50028,-0.34611],[39.50194,-0.34667],[39.50194,-0.34889],[39.50028,-0.34944],[39.50028,-0.35111],[39.50083,-0.35111],[39.50028,-0.35222],[39.50028,-0.35722],[39.50083,-0.35722],[39.50028,-0.365],[39.50139,-0.365],[39.50083,-0.36889],[39.50028,-0.36889],[39.50028,-0.37444],[39.50083,-0.37444],[39.50028,-0.375],[39.50028,-0.37667],[39.50083,-0.37667],[39.50028,-0.38222],[39.50139,-0.38278],[39.50083,-0.38389],[39.50139,-0.38556],[39.5025,-0.38611],[39.5025,-0.38722],[39.50361,-0.38722],[39.50306,-0.39056],[39.50417,-0.39111],[39.50417,-0.39222],[39.5025,-0.39222],[39.50028,-0.39444],[39.50083,-0.405],[39.50139,-0.405],[39.50139,-0.40667],[39.5025,-0.40722],[39.5025,-0.40833],[39.50028,-0.40889],[39.50028,-0.41556],[39.50139,-0.41611],[39.50083,-0.41667],[39.50139,-0.41778],[39.5025,-0.41778],[39.50194,-0.41833],[39.5025,-0.41889],[39.50194,-0.42389],[39.50083,-0.42389],[39.50083,-0.42611],[39.50028,-0.42611],[39.50028,-0.42778],[39.50083,-0.42778],[39.50028,-0.42889],[39.50028,-0.43056],[39.50083,-0.43056],[39.50083,-0.43222],[39.50028,-0.43222],[39.50028,-0.455],[39.50083,-0.455],[39.50028,-0.46556],[39.50528,-0.46667],[39.50583,-0.46778],[39.50694,-0.46778],[39.50694,-0.46667],[39.50861,-0.46667],[39.50917,-0.46556],[39.51028,-0.46556],[39.51028,-0.46778],[39.51083,-0.46778],[39.51139,-0.46611],[39.51528,-0.46222],[39.51583,-0.46111],[39.51528,-0.46],[39.51639,-0.45889],[39.51806,-0.45944],[39.51861,-0.45778],[39.52028,-0.45722],[39.52028,-0.455],[39.5225,-0.45333],[39.52306,-0.45167],[39.52528,-0.45167],[39.52639,-0.45],[39.52806,-0.45],[39.52861,-0.44889],[39.52972,-0.44889],[39.52972,-0.44722],[39.53139,-0.44722],[39.5325,-0.44611],[39.53361,-0.44667],[39.53583,-0.44611],[39.53583,-0.44333],[39.5375,-0.44167],[39.54306,-0.44056],[39.54583,-0.43889],[39.54806,-0.43944],[39.54917,-0.43833],[39.55083,-0.43833],[39.55083,-0.43667],[39.55194,-0.43611],[39.55194,-0.435],[39.55361,-0.43444],[39.55306,-0.43333],[39.55528,-0.43222],[39.55583,-0.43],[39.55861,-0.43056],[39.56194,-0.42889],[39.5625,-0.42667],[39.56694,-0.42222],[39.56861,-0.42167],[39.56972,-0.41944],[39.5725,-0.41889],[39.5725,-0.41778],[39.57694,-0.41611],[39.57694,-0.41333],[39.57806,-0.41333],[39.57806,-0.41222],[39.57583,-0.41111],[39.57583,-0.40944],[39.57694,-0.40889],[39.57694,-0.40667],[39.57528,-0.405],[39.57528,-0.40278],[39.57694,-0.40111],[39.58028,-0.40167],[39.58083,-0.40056],[39.5825,-0.40056],[39.5825,-0.4],[39.58639,-0.40056],[39.58472,-0.39722],[39.58583,-0.39722],[39.5875,-0.395],[39.58861,-0.395],[39.58861,-0.39222],[39.59139,-0.39222],[39.59083,-0.39278],[39.59139,-0.395],[39.59194,-0.39389],[39.59583,-0.39444],[39.59861,-0.39278],[39.59972,-0.39278],[39.59972,-0.39444],[39.60028,-0.39444],[39.60028,-0.39333],[39.6025,-0.39111],[39.60361,-0.39111],[39.60472,-0.38944],[39.60694,-0.39],[39.6075,-0.39111],[39.61028,-0.39111],[39.61306,-0.38944],[39.6125,-0.38889],[39.61361,-0.38667],[39.61306,-0.38333],[39.61028,-0.38111],[39.61028,-0.38],[39.6125,-0.37889],[39.6125,-0.37556],[39.61194,-0.37556],[39.6125,-0.37278],[39.61083,-0.37111],[39.61194,-0.36833],[39.61083,-0.36722],[39.61194,-0.36667],[39.61306,-0.36278],[39.61528,-0.36222],[39.61583,-0.36333],[39.61583,-0.36167],[39.6175,-0.36111],[39.6175,-0.35944],[39.61583,-0.35833],[39.61583,-0.35667],[39.61694,-0.35611],[39.61694,-0.35444],[39.61917,-0.35222],[39.61917,-0.35111],[39.62083,-0.35056],[39.62083,-0.34944],[39.62194,-0.34944],[39.62194,-0.34833],[39.62361,-0.34667],[39.62472,-0.34667],[39.62472,-0.34778],[39.62917,-0.34722],[39.62972,-0.34944],[39.63083,-0.34889],[39.63417,-0.34944],[39.63528,-0.34778],[39.63694,-0.34778],[39.63694,-0.34889],[39.63806,-0.34889],[39.63861,-0.34611],[39.64194,-0.34444],[39.6425,-0.34278],[39.64472,-0.34278],[39.64806,-0.34111],[39.64972,-0.34167],[39.65028,-0.34056],[39.6525,-0.34056],[39.65417,-0.33889],[39.65639,-0.33889],[39.65639,-0.33722],[39.6575,-0.33611],[39.65861,-0.33667],[39.66028,-0.33611],[39.66194,-0.33444],[39.66194,-0.33278],[39.66306,-0.33167],[39.66639,-0.33222],[39.66639,-0.33056],[39.66806,-0.33167],[39.67139,-0.33111],[39.67139,-0.33056],[39.67306,-0.33056],[39.67361,-0.33167],[39.67583,-0.33056],[39.6775,-0.33111],[39.67806,-0.33],[39.67972,-0.33056],[39.67972,-0.33],[39.6825,-0.32944],[39.68417,-0.32556],[39.68528,-0.325],[39.6875,-0.32556],[39.68861,-0.325],[39.68972,-0.32222],[39.69139,-0.32278],[39.69083,-0.31833],[39.68917,-0.31833],[39.68806,-0.31333],[39.68639,-0.31222],[39.68306,-0.31222],[39.68361,-0.31],[39.6825,-0.30833],[39.68028,-0.30833],[39.68028,-0.30722],[39.67639,-0.30667],[39.67583,-0.30556],[39.67639,-0.30167],[39.67417,-0.30056],[39.67194,-0.30056],[39.67194,-0.29889],[39.6725,-0.29833],[39.67417,-0.29889],[39.67583,-0.29611],[39.67528,-0.29556],[39.67417,-0.29611],[39.67306,-0.295],[39.6725,-0.29222],[39.67139,-0.29278],[39.67139,-0.29056],[39.67194,-0.29056],[39.67139,-0.285],[39.67083,-0.285],[39.67083,-0.28333],[39.66972,-0.28333],[39.67083,-0.28222],[39.67083,-0.28056],[39.66972,-0.28056],[39.66972,-0.27889],[39.66806,-0.27722],[39.66806,-0.27556],[39.66694,-0.27556],[39.66528,-0.27389],[39.66361,-0.27389],[39.66361,-0.27222],[39.66472,-0.27167],[39.66472,-0.27],[39.66361,-0.27],[39.66361,-0.26889],[39.66472,-0.26833],[39.66639,-0.26833],[39.66694,-0.26944],[39.66972,-0.26889],[39.66972,-0.27056],[39.67083,-0.27111],[39.67083,-0.27222],[39.6725,-0.27167],[39.67417,-0.26722],[39.67583,-0.26667],[39.67806,-0.26444],[39.67806,-0.26278],[39.67972,-0.26333],[39.68083,-0.26111],[39.68083,-0.25889],[39.67917,-0.25722],[39.67583,-0.25778],[39.67528,-0.25944],[39.67417,-0.26],[39.67417,-0.25944],[39.67139,-0.25944],[39.67028,-0.25833],[39.66806,-0.25833],[39.6675,-0.25722],[39.66583,-0.25722],[39.66583,-0.25667],[39.66417,-0.25722],[39.66306,-0.25944],[39.66194,-0.25722],[39.66083,-0.25722],[39.66028,-0.25611],[39.65528,-0.25611],[39.65583,-0.25667],[39.65528,-0.26056],[39.65361,-0.26],[39.65361,-0.26111],[39.65194,-0.26111],[39.65194,-0.26222],[39.65083,-0.26222],[39.65028,-0.26167],[39.65083,-0.26],[39.6475,-0.25833],[39.64694,-0.25444],[39.64417,-0.25167],[39.64194,-0.25167],[39.64194,-0.25278],[39.64083,-0.25278],[39.64028,-0.25444],[39.63806,-0.25444],[39.63694,-0.25333],[39.6275,-0.25389],[39.6275,-0.25278],[39.62583,-0.25333],[39.62583,-0.25222],[39.62361,-0.25111],[39.62083,-0.25111],[39.62083,-0.25056],[39.61917,-0.25056],[39.61861,-0.25167],[39.61639,-0.25167],[39.61472,-0.25056],[39.61083,-0.25056],[39.60917,-0.25167],[39.60694,-0.25167],[39.6075,-0.25056],[39.60306,-0.25056],[39.60306,-0.25111],[39.59694,-0.25056],[39.59583,-0.25167],[39.59417,-0.25056],[39.59194,-0.25167],[39.59083,-0.25056],[39.58361,-0.25056],[39.58361,-0.25111],[39.57806,-0.25056],[39.57639,-0.25167],[39.57528,-0.25056],[39.56917,-0.25056],[39.56917,-0.25111],[39.56417,-0.25056],[39.5625,-0.25167],[39.56028,-0.25056],[39.55861,-0.25056],[39.5575,-0.25167],[39.55472,-0.25111],[39.55472,-0.25056],[39.55139,-0.25056],[39.55083,-0.25167],[39.54917,-0.25167],[39.54861,-0.25056],[39.54694,-0.25056],[39.54694,-0.25111],[39.53861,-0.25056],[39.5375,-0.25222],[39.53528,-0.25222],[39.53472,-0.25111],[39.53306,-0.25111],[39.53306,-0.25056],[39.53194,-0.25056],[39.53139,-0.25167],[39.52972,-0.25167],[39.52972,-0.25056],[39.5275,-0.25056],[39.52694,-0.25167],[39.52472,-0.25056],[39.52306,-0.25222],[39.52028,-0.25167],[39.52028,-0.25056],[39.51861,-0.25056],[39.51861,-0.25111],[39.51639,-0.25056]]]}},{"type":"Feature","properties":{"site_ref":"GT-04","area_km2":78.4},"geometry":{"type":"Polygon","coordinates":[[[39.69194,-0.32],[39.69139,-0.32278],[39.68972,-0.32222],[39.68861,-0.325],[39.6875,-0.32556],[39.68694,-0.325],[39.68417,-0.32556],[39.6825,-0.32944],[39.67972,-0.33],[39.67972,-0.33056],[39.67806,-0.33],[39.6775,-0.33111],[39.67583,-0.33056],[39.67472,-0.33167],[39.67361,-0.33167],[39.67306,-0.33056],[39.66917,-0.33111],[39.66917,-0.33167],[39.66639,-0.33056],[39.66639,-0.33222],[39.66306,-0.33167],[39.66194,-0.33278],[39.66194,-0.33444],[39.66028,-0.33611],[39.65917,-0.33667],[39.6575,-0.33611],[39.65639,-0.33722],[39.65639,-0.33889],[39.65417,-0.33889],[39.6525,-0.34056],[39.65028,-0.34056],[39.64972,-0.34167],[39.64806,-0.34111],[39.64472,-0.34278],[39.6425,-0.34278],[39.64194,-0.34444],[39.63861,-0.34611],[39.63806,-0.34889],[39.63694,-0.34889],[39.63694,-0.34778],[39.63528,-0.34778],[39.63417,-0.34944],[39.63194,-0.34944],[39.63194,-0.34889],[39.62972,-0.34944],[39.62917,-0.34722],[39.62472,-0.34778],[39.62472,-0.34667],[39.62361,-0.34667],[39.62194,-0.34833],[39.62194,-0.34944],[39.62083,-0.34944],[39.62083,-0.35056],[39.61917,-0.35111],[39.61917,-0.35222],[39.61694,-0.35444],[39.61694,-0.35611],[39.61583,-0.35667],[39.61583,-0.35833],[39.6175,-0.35944],[39.6175,-0.36111],[39.61583,-0.36167],[39.61583,-0.36333],[39.61528,-0.36222],[39.61306,-0.36278],[39.61194,-0.36667],[39.61083,-0.36722],[39.61194,-0.36833],[39.61083,-0.37111],[39.6125,-0.37278],[39.61194,-0.37389],[39.6125,-0.37889],[39.61028,-0.38],[39.61028,-0.38111],[39.61306,-0.38333],[39.61306,-0.38611],[39.6175,-0.38667],[39.61806,-0.38833],[39.62028,-0.38833],[39.61972,-0.39111],[39.61861,-0.39167],[39.61861,-0.39333],[39.61917,-0.39333],[39.61861,-0.39611],[39.62083,-0.39667],[39.62028,-0.39833],[39.62194,-0.39944],[39.62194,-0.40056],[39.62528,-0.40222],[39.62694,-0.40222],[39.62694,-0.405],[39.62472,-0.40444],[39.62361,-0.40556],[39.62361,-0.40889],[39.62472,-0.40833],[39.62528,-0.40944],[39.6275,-0.40944],[39.62806,-0.41111],[39.63028,-0.41111],[39.63083,-0.41222],[39.63194,-0.41222],[39.63194,-0.41111],[39.63417,-0.41222],[39.63694,-0.41222],[39.63694,-0.41167],[39.63861,-0.41167],[39.63861,-0.41056],[39.64083,-0.41111],[39.64194,-0.40944],[39.64472,-0.40889],[39.64583,-0.40778],[39.64472,-0.40556],[39.64694,-0.405],[39.6475,-0.40278],[39.65083,-0.40278],[39.65361,-0.40111],[39.65472,-0.40111],[39.65472,-0.40222],[39.65861,-0.40222],[39.65861,-0.40278],[39.66083,-0.40222],[39.66083,-0.40111],[39.66361,-0.40111],[39.66361,-0.40056],[39.66528,-0.40056],[39.66528,-0.40167],[39.66694,-0.40167],[39.66694,-0.40222],[39.66806,-0.40222],[39.66861,-0.40111],[39.66917,-0.40167],[39.6725,-0.40111],[39.6725,-0.40222],[39.67361,-0.40222],[39.67417,-0.40056],[39.67583,-0.40056],[39.67583,-0.4],[39.6775,-0.40056],[39.6775,-0.40167],[39.67861,-0.40111],[39.68194,-0.40167],[39.6825,-0.39944],[39.68417,-0.39944],[39.68417,-0.4],[39.69028,-0.39944],[39.69083,-0.40056],[39.69194,-0.40056],[39.6925,-0.39944],[39.69583,-0.39944],[39.69639,-0.39778],[39.69694,-0.39833],[39.69917,-0.39778],[39.70139,-0.39889],[39.70361,-0.39889],[39.70472,-0.39778],[39.70806,-0.39833],[39.71028,-0.39722],[39.71139,-0.395],[39.7125,-0.395],[39.71194,-0.39389],[39.7125,-0.39389],[39.71306,-0.39111],[39.71472,-0.39056],[39.71472,-0.38889],[39.71306,-0.38833],[39.7125,-0.385],[39.71417,-0.38389],[39.7175,-0.38444],[39.71639,-0.38],[39.71861,-0.37889],[39.71861,-0.37611],[39.71806,-0.37556],[39.71694,-0.37611],[39.71583,-0.37389],[39.71694,-0.37167],[39.71861,-0.37167],[39.71861,-0.36722],[39.7175,-0.36667],[39.71639,-0.36722],[39.71639,-0.36556],[39.71917,-0.365],[39.71917,-0.36444],[39.72139,-0.36556],[39.72139,-0.36333],[39.71972,-0.36333],[39.71917,-0.36111],[39.7175,-0.36],[39.7175,-0.35778],[39.71639,-0.35722],[39.71639,-0.35611],[39.7175,-0.35556],[39.71694,-0.35333],[39.71528,-0.35333],[39.71361,-0.35111],[39.71139,-0.35111],[39.71083,-0.35],[39.70806,-0.35],[39.70639,-0.35167],[39.70528,-0.35167],[39.70528,-0.35056],[39.7025,-0.34944],[39.7025,-0.34778],[39.70139,-0.34667],[39.6975,-0.345],[39.69806,-0.34111],[39.69917,-0.34],[39.70028,-0.34056],[39.70139,-0.34],[39.70139,-0.33778],[39.70083,-0.33667],[39.69972,-0.33667],[39.70028,-0.335],[39.69806,-0.33389],[39.69917,-0.33167],[39.69917,-0.32944],[39.69694,-0.32889],[39.69694,-0.32722],[39.69806,-0.32667],[39.69694,-0.32444],[39.70083,-0.32333],[39.70139,-0.32222],[39.6975,-0.32167],[39.6975,-0.32111],[39.69417,-0.32167],[39.69361,-0.32],[39.69194,-0.32]]]}},{"type":"Feature","properties":{"site_ref":"GT-05","area_km2":11.4},"geometry":{"type":"Polygon","coordinates":[[[39.71028,-0.39667],[39.70972,-0.39778],[39.70806,-0.39778],[39.70806,-0.39833],[39.70472,-0.39778],[39.70361,-0.39889],[39.69917,-0.39833],[39.69917,-0.40278],[39.6975,-0.40611],[39.69417,-0.40611],[39.69306,-0.40722],[39.69139,-0.40722],[39.69028,-0.40944],[39.68861,-0.40944],[39.68806,-0.41056],[39.68639,-0.41],[39.68639,-0.41111],[39.68528,-0.41167],[39.68361,-0.41111],[39.68306,-0.41333],[39.67917,-0.41222],[39.6775,-0.41389],[39.67583,-0.41389],[39.67528,-0.41278],[39.67417,-0.415],[39.67194,-0.415],[39.67139,-0.41667],[39.67028,-0.41667],[39.66861,-0.415],[39.66583,-0.415],[39.66528,-0.41611],[39.66083,-0.41722],[39.66083,-0.41611],[39.65972,-0.41556],[39.65861,-0.41833],[39.65583,-0.41778],[39.65306,-0.42056],[39.64972,-0.42222],[39.64806,-0.42167],[39.64583,-0.42278],[39.64583,-0.425],[39.6475,-0.425],[39.64806,-0.42389],[39.65139,-0.42333],[39.65139,-0.42278],[39.65361,-0.42278],[39.65583,-0.425],[39.65806,-0.42389],[39.65972,-0.42389],[39.6625,-0.42556],[39.66417,-0.425],[39.66417,-0.42722],[39.66528,-0.42722],[39.66639,-0.42889],[39.6675,-0.42889],[39.66806,-0.42778],[39.67361,-0.42722],[39.67361,-0.42833],[39.67472,-0.42833],[39.67528,-0.42944],[39.67694,-0.42944],[39.67861,-0.42833],[39.67861,-0.42556],[39.67972,-0.42556],[39.68028,-0.42444],[39.68139,-0.425],[39.68306,-0.42389],[39.68472,-0.42389],[39.68528,-0.42278],[39.69139,-0.42222],[39.69361,-0.42056],[39.69528,-0.42056],[39.69583,-0.41889],[39.69972,-0.42],[39.69972,-0.41944],[39.70194,-0.41944],[39.7025,-0.41833],[39.70528,-0.41833],[39.70528,-0.41889],[39.70861,-0.41833],[39.70861,-0.41667],[39.70972,-0.41667],[39.71028,-0.41722],[39.70972,-0.41889],[39.71139,-0.42056],[39.7125,-0.42],[39.71417,-0.42111],[39.71472,-0.42],[39.71583,-0.42],[39.71528,-0.41833],[39.71694,-0.41778],[39.71639,-0.415],[39.72028,-0.41333],[39.72028,-0.41111],[39.71972,-0.41111],[39.71972,-0.40889],[39.71694,-0.40722],[39.7175,-0.405],[39.71639,-0.405],[39.71639,-0.40278],[39.71306,-0.40111],[39.71194,-0.39722],[39.71028,-0.39667]]]}},{"type":"Feature","properties":{"site_ref":"GT-06","area_km2":9.7},"geometry":{"type":"Polygon","coordinates":[[[39.71028,-0.39667],[39.70972,-0.39778],[39.70806,-0.39778],[39.70806,-0.39833],[39.70472,-0.39778],[39.70361,-0.39889],[39.69917,-0.39833],[39.69917,-0.40278],[39.6975,-0.40611],[39.69417,-0.40611],[39.69306,-0.40722],[39.69139,-0.40722],[39.69028,-0.40944],[39.68861,-0.40944],[39.68806,-0.41056],[39.68639,-0.41],[39.68639,-0.41111],[39.68528,-0.41167],[39.68361,-0.41111],[39.68306,-0.41333],[39.67917,-0.41222],[39.6775,-0.41389],[39.67583,-0.41389],[39.67528,-0.41278],[39.67417,-0.415],[39.67194,-0.415],[39.67139,-0.41667],[39.66972,-0.41722],[39.66806,-0.42],[39.66694,-0.42],[39.66639,-0.42111],[39.66417,-0.42111],[39.66472,-0.42333],[39.6675,-0.42389],[39.6675,-0.42556],[39.66861,-0.42556],[39.66861,-0.42667],[39.66972,-0.42667],[39.67028,-0.42778],[39.67361,-0.42722],[39.67361,-0.42833],[39.67472,-0.42833],[39.67528,-0.42944],[39.67694,-0.42944],[39.67861,-0.42833],[39.67861,-0.42556],[39.67972,-0.42556],[39.68028,-0.42444],[39.68139,-0.425],[39.68139,-0.42444],[39.68472,-0.42389],[39.68528,-0.42278],[39.69139,-0.42222],[39.69361,-0.42056],[39.69528,-0.42056],[39.69583,-0.41889],[39.69972,-0.42],[39.69972,-0.41944],[39.70194,-0.41944],[39.7025,-0.41833],[39.70528,-0.41833],[39.70528,-0.41889],[39.70861,-0.41833],[39.70861,-0.41667],[39.70972,-0.41667],[39.71028,-0.41722],[39.70972,-0.41889],[39.71139,-0.42056],[39.7125,-0.42],[39.71417,-0.42111],[39.71472,-0.42],[39.71583,-0.42],[39.71528,-0.41833],[39.71694,-0.41778],[39.71639,-0.415],[39.71806,-0.41389],[39.71972,-0.41389],[39.72028,-0.41111],[39.71972,-0.41111],[39.71972,-0.40889],[39.71694,-0.40722],[39.7175,-0.405],[39.71639,-0.405],[39.71639,-0.40278],[39.71306,-0.40111],[39.71194,-0.39722],[39.71028,-0.39667]]]}},{"type":"Feature","properties":{"site_ref":"GT-07","area_km2":36.5},"geometry":{"type":"Polygon","coordinates":[[[39.69194,-0.32],[39.69139,-0.32278],[39.68972,-0.32222],[39.68861,-0.325],[39.6875,-0.32556],[39.68694,-0.325],[39.68417,-0.32556],[39.6825,-0.32944],[39.67972,-0.33],[39.67972,-0.33056],[39.67806,-0.33],[39.6775,-0.33111],[39.67583,-0.33056],[39.67472,-0.33167],[39.67361,-0.33167],[39.67306,-0.33056],[39.66917,-0.33111],[39.66917,-0.33167],[39.66639,-0.33056],[39.66639,-0.33222],[39.66306,-0.33167],[39.66194,-0.33278],[39.66194,-0.33444],[39.66028,-0.33611],[39.65917,-0.33667],[39.6575,-0.33611],[39.65639,-0.33722],[39.65639,-0.33889],[39.65417,-0.33889],[39.6525,-0.34056],[39.65028,-0.34056],[39.64972,-0.34167],[39.64806,-0.34111],[39.64472,-0.34278],[39.6425,-0.34278],[39.64194,-0.34444],[39.63861,-0.34611],[39.63806,-0.34889],[39.63694,-0.34889],[39.63694,-0.34778],[39.63528,-0.34778],[39.63417,-0.34944],[39.63194,-0.34944],[39.63194,-0.34889],[39.62972,-0.34944],[39.62917,-0.34722],[39.62472,-0.34778],[39.62472,-0.34667],[39.62361,-0.34667],[39.62194,-0.34833],[39.62194,-0.34944],[39.62083,-0.34944],[39.62083,-0.35056],[39.61917,-0.35111],[39.61917,-0.35222],[39.61694,-0.35444],[39.61694,-0.35611],[39.61583,-0.35667],[39.61583,-0.35833],[39.6175,-0.35944],[39.6175,-0.36111],[39.61583,-0.36167],[39.61583,-0.36333],[39.61528,-0.36222],[39.61306,-0.36278],[39.61194,-0.36667],[39.61083,-0.36722],[39.61194,-0.36833],[39.61083,-0.37111],[39.6125,-0.37278],[39.61194,-0.37389],[39.6125,-0.37889],[39.61028,-0.38],[39.61028,-0.38111],[39.61306,-0.38333],[39.61306,-0.38611],[39.6175,-0.38667],[39.61806,-0.38833],[39.62028,-0.38833],[39.62083,-0.38722],[39.6225,-0.38778],[39.6225,-0.39111],[39.62306,-0.39111],[39.62306,-0.39278],[39.62417,-0.39333],[39.62417,-0.39056],[39.62583,-0.39],[39.62583,-0.38889],[39.62861,-0.38944],[39.62972,-0.38722],[39.6325,-0.38667],[39.63361,-0.38278],[39.63583,-0.38222],[39.63694,-0.38056],[39.63861,-0.38],[39.63917,-0.37722],[39.64083,-0.37722],[39.64083,-0.37611],[39.64472,-0.375],[39.64583,-0.36833],[39.64806,-0.36778],[39.64861,-0.36611],[39.64972,-0.36611],[39.64972,-0.36444],[39.65083,-0.36444],[39.65083,-0.36333],[39.65417,-0.36278],[39.65583,-0.36056],[39.6575,-0.36111],[39.6575,-0.35944],[39.65861,-0.35944],[39.65861,-0.35833],[39.65972,-0.35778],[39.66139,-0.35833],[39.6625,-0.35722],[39.66528,-0.35778],[39.66583,-0.35667],[39.66639,-0.35722],[39.67083,-0.35667],[39.67361,-0.35833],[39.67472,-0.35778],[39.6775,-0.35833],[39.6775,-0.35889],[39.67917,-0.35833],[39.67917,-0.35944],[39.68028,-0.35944],[39.6825,-0.36167],[39.6925,-0.36056],[39.69639,-0.36389],[39.7025,-0.36333],[39.7025,-0.36444],[39.70417,-0.36444],[39.70417,-0.36556],[39.70528,-0.36556],[39.70528,-0.36444],[39.70861,-0.36389],[39.70806,-0.36111],[39.71194,-0.36167],[39.71306,-0.36056],[39.7175,-0.36],[39.7175,-0.35778],[39.71639,-0.35722],[39.71639,-0.35611],[39.7175,-0.35556],[39.71694,-0.35333],[39.71528,-0.35333],[39.71361,-0.35111],[39.71139,-0.35111],[39.71083,-0.35],[39.70806,-0.35],[39.70639,-0.35167],[39.70528,-0.35167],[39.70528,-0.35056],[39.7025,-0.34944],[39.7025,-0.34778],[39.70139,-0.34667],[39.6975,-0.345],[39.69806,-0.34111],[39.69917,-0.34],[39.70028,-0.34056],[39.70139,-0.34],[39.70139,-0.33778],[39.70083,-0.33667],[39.69972,-0.33667],[39.70028,-0.335],[39.69806,-0.33389],[39.69917,-0.33167],[39.69917,-0.32944],[39.69694,-0.32889],[39.69694,-0.32722],[39.69806,-0.32667],[39.69694,-0.32444],[39.70083,-0.32333],[39.70139,-0.32222],[39.6975,-0.32167],[39.6975,-0.32111],[39.69417,-0.32167],[39.69361,-0.32],[39.69194,-0.32]]]}},{"type":"Feature","properties":{"site_ref":"GT-08","area_km2":6.4},"geometry":{"type":"Polygon","coordinates":[[[39.71028,-0.39667],[39.70972,-0.39778],[39.70806,-0.39778],[39.70806,-0.39833],[39.70472,-0.39778],[39.70361,-0.39889],[39.69917,-0.39833],[39.69861,-0.405],[39.6975,-0.405],[39.6975,-0.40611],[39.69417,-0.40611],[39.69306,-0.40722],[39.69139,-0.40722],[39.69028,-0.40944],[39.68861,-0.40944],[39.68806,-0.41056],[39.68694,-0.41056],[39.68694,-0.41222],[39.68528,-0.41222],[39.68417,-0.41556],[39.68694,-0.41611],[39.68694,-0.415],[39.68806,-0.415],[39.68806,-0.41722],[39.69083,-0.41778],[39.69306,-0.42056],[39.69528,-0.42056],[39.69583,-0.41889],[39.69972,-0.42],[39.69972,-0.41944],[39.70194,-0.41944],[39.7025,-0.41833],[39.70528,-0.41833],[39.70528,-0.41889],[39.70861,-0.41833],[39.70861,-0.41667],[39.71028,-0.41722],[39.70972,-0.41889],[39.71139,-0.42056],[39.7125,-0.42],[39.71417,-0.42111],[39.71472,-0.42],[39.71583,-0.42],[39.71528,-0.41833],[39.71694,-0.41778],[39.71639,-0.415],[39.72028,-0.41333],[39.72028,-0.41111],[39.71972,-0.41111],[39.71972,-0.40889],[39.71694,-0.40722],[39.7175,-0.405],[39.71639,-0.405],[39.71639,-0.40278],[39.71306,-0.40111],[39.71194,-0.39722],[39.71028,-0.39667]]]}}]}