{"type":"FeatureCollection","features":[{"type":"Feature","properties":{"strahler":2,"name":"Upper Tana tributary"},"geometry":{"type":"LineString","coordinates":[[38.19375,0.16042],[38.20208,0.15625],[38.20625,0.14375],[38.21458,0.14375],[38.22292,0.13542],[38.24792,0.12708]]}},{"type":"Feature","properties":{"strahler":2,"name":"Upper Tana tributary"},"geometry":{"type":"LineString","coordinates":[[37.73542,0.05208],[37.74792,0.04792],[37.76042,0.02708],[37.78125,0.02292],[37.79792,0.00625],[37.81875,0.00208],[37.82708,-0.00625]]}},{"type":"Feature","properties":{"strahler":2,"name":"Upper Tana tributary"},"geometry":{"type":"LineString","coordinates":[[37.82708,-0.00625],[37.85208,-0.01042]]}},{"type":"Feature","properties":{"strahler":2,"name":"Upper Tana tributary"},"geometry":{"type":"LineString","coordinates":[[37.76458,-0.16042],[37.78542,-0.16458]]}},{"type":"Feature","properties":{"strahler":2,"name":"Upper Tana tributary"},"geometry":{"type":"LineString","coordinates":[[37.85208,-0.01042],[37.85625,-0.01458],[37.88958,-0.01875],[37.89792,-0.02708],[37.90208,-0.02292],[37.93125,-0.05625],[37.93125,-0.06458],[37.94375,-0.08125],[37.95625,-0.08958],[37.96042,-0.10208],[37.98125,-0.11458],[37.97292,-0.14375],[37.97292,-0.15208],[37.98542,-0.16458],[37.98542,-0.18125],[37.98125,-0.18542]]}},{"type":"Feature","properties":{"strahler":4,"name":"Upper Tana tributary"},"geometry":{"type":"LineString","coordinates":[[38.18125,-0.18958],[38.18542,-0.18542],[38.18542,-0.15625],[38.20625,-0.14375],[38.20625,-0.13125],[38.21458,-0.12708],[38.21875,-0.11042]]}},{"type":"Feature","properties":{"strahler":2,"name":"Upper Tana tributary"},"geometry":{"type":"LineString","coordinates":[[37.98125,-0.18542],[37.97708,-0.19375],[37.98125,-0.20208],[38.00208,-0.21458],[38.01042,-0.23125]]}},{"type":"Feature","properties":{"strahler":4,"name":"Upper Tana tributary"},"geometry":{"type":"LineString","coordinates":[[38.16042,-0.23958],[38.16458,-0.23542],[38.16458,-0.22292],[38.18125,-0.19792],[38.18125,-0.18958]]}},{"type":"Feature","properties":{"strahler":2,"name":"Upper Tana tributary"},"geometry":{"type":"LineString","coordinates":[[38.01042,-0.23125],[38.00208,-0.25208]]}},{"type":"Feature","properties":{"strahler":2,"name":"Upper Tana tributary"},"geometry":{"type":"LineString","coordinates":[[38.00208,-0.25208],[38.00625,-0.25625],[38.00208,-0.26458]]}},{"type":"Feature","properties":{"strahler":4,"name":"Upper Tana tributary"},"geometry":{"type":"LineString","coordinates":[[38.12708,-0.26875],[38.13958,-0.25625],[38.14375,-0.24375],[38.16042,-0.23958]]}},{"type":"Feature","properties":{"strahler":4,"name":"Upper Tana tributary"},"geometry":{"type":"LineString","coordinates":[[38.11875,-0.27708],[38.12708,-0.26875]]}},{"type":"Feature","properties":{"strahler":4,"name":"Upper Tana tributary"},"geometry":{"type":"LineString","coordinates":[[38.00208,-0.26458],[38.00625,-0.26875],[38.02708,-0.26875],[38.03542,-0.27708],[38.09792,-0.27708],[38.10208,-0.28125],[38.11875,-0.27708]]}},{"type":"Feature","properties":{"strahler":2,"name":"Upper Tana tributary"},"geometry":{"type":"LineString","coordinates":[[37.78542,-0.27708],[37.81042,-0.29375],[37.81458,-0.30208],[37.81042,-0.31042]]}},{"type":"Feature","properties":{"strahler":2,"name":"Upper Tana tributary"},"geometry":{"type":"LineString","coordinates":[[37.81042,-0.31042],[37.82292,-0.31875],[37.82708,-0.33125],[37.84375,-0.33125],[37.87292,-0.34375]]}},{"type":"Feature","properties":{"strahler":2,"name":"Upper Tana tributary"},"geometry":{"type":"LineString","coordinates":[[37.87292,-0.34375],[37.87708,-0.34792]]}},{"type":"Feature","properties":{"strahler":2,"name":"Upper Tana tributary"},"geometry":{"type":"LineString","coordinates":[[37.78542,-0.16458],[37.79792,-0.17708],[37.79792,-0.20208],[37.81458,-0.21458],[37.81875,-0.23125],[37.82708,-0.23542],[37.84375,-0.25625],[37.84792,-0.26875],[37.86042,-0.28125],[37.86458,-0.29792],[37.87708,-0.31042],[37.88958,-0.31042],[37.89375,-0.31458],[37.88958,-0.32292],[37.89375,-0.34375],[37.88958,-0.34792]]}},{"type":"Feature","properties":{"strahler":2,"name":"Upper Tana tributary"},"geometry":{"type":"LineString","coordinates":[[37.87708,-0.34792],[37.88125,-0.35208],[37.88958,-0.34792]]}},{"type":"Feature","properties":{"strahler":2,"name":"Upper Tana tributary"},"geometry":{"type":"LineString","coordinates":[[38.10625,-0.39375],[38.11042,-0.35625],[38.12292,-0.34375],[38.11458,-0.33125],[38.11875,-0.32292],[38.11458,-0.28125],[38.11875,-0.27708]]}},{"type":"Feature","properties":{"strahler":2,"name":"Upper Tana tributary"},"geometry":{"type":"LineString","coordinates":[[36.95625,-0.32292],[36.97292,-0.33542],[36.98125,-0.33542],[36.99375,-0.35208],[36.99375,-0.36458],[36.99792,-0.36875],[36.99375,-0.39792]]}},{"type":"Feature","properties":{"strahler":2,"name":"Upper Tana tributary"},"geometry":{"type":"LineString","coordinates":[[37.03542,-0.38125],[37.03125,-0.38542],[37.03125,-0.40208]]}},{"type":"Feature","properties":{"strahler":3,"name":"Upper Tana tributary"},"geometry":{"type":"LineString","coordinates":[[37.88958,-0.34792],[37.89792,-0.35625],[37.88958,-0.36875],[37.89792,-0.37292],[37.89792,-0.38125],[37.88958,-0.39375],[37.89792,-0.39792],[37.91042,-0.41458],[37.91875,-0.41458],[37.92708,-0.43125],[37.93125,-0.42708],[37.93958,-0.43125]]}},{"type":"Feature","properties":{"strahler":4,"name":"Upper Tana tributary"},"geometry":{"type":"LineString","coordinates":[[37.93958,-0.43125],[37.94375,-0.42708],[37.94792,-0.43125],[37.96875,-0.41042],[37.96458,-0.40625],[37.97292,-0.39792],[37.97292,-0.38125],[37.97708,-0.37708],[37.96875,-0.36458],[37.97708,-0.35625],[37.97292,-0.34375],[37.98542,-0.32708],[37.98125,-0.31042],[38.00208,-0.26458]]}},{"type":"Feature","properties":{"strahler":2,"name":"Upper Tana tributary"},"geometry":{"type":"LineString","coordinates":[[36.99375,-0.39792],[37.00625,-0.41042],[37.00625,-0.41875],[37.01458,-0.43125],[37.01042,-0.43542]]}},{"type":"Feature","properties":{"strahler":2,"name":"Upper Tana tributary"},"geometry":{"type":"LineString","coordinates":[[37.01042,-0.43542],[37.01458,-0.44375],[37.02292,-0.43958],[37.04375,-0.44792]]}},{"type":"Feature","properties":{"strahler":2,"name":"Upper Tana tributary"},"geometry":{"type":"LineString","coordinates":[[37.03125,-0.40208],[37.03958,-0.41458],[37.03958,-0.42292],[37.04792,-0.43125],[37.04375,-0.44792]]}},{"type":"Feature","properties":{"strahler":3,"name":"Upper Tana tributary"},"geometry":{"type":"LineString","coordinates":[[37.04375,-0.44792],[37.05208,-0.46042],[37.05208,-0.48542],[37.06458,-0.49792],[37.06458,-0.50625],[37.08125,-0.51875]]}},{"type":"Feature","properties":{"strahler":2,"name":"Upper Tana tributary"},"geometry":{"type":"LineString","coordinates":[[37.00208,-0.52292],[37.01042,-0.51875],[37.01458,-0.52292],[37.02292,-0.51875],[37.03542,-0.52292],[37.03958,-0.51875],[37.08125,-0.51875]]}},{"type":"Feature","properties":{"strahler":2,"name":"Upper Tana tributary"},"geometry":{"type":"LineString","coordinates":[[37.87292,-0.53958],[37.88542,-0.53958]]}},{"type":"Feature","properties":{"strahler":3,"name":"Upper Tana tributary"},"geometry":{"type":"LineString","coordinates":[[37.88542,-0.53958],[37.88958,-0.51875],[37.89792,-0.51042],[37.89792,-0.50208],[37.90625,-0.49375],[37.91458,-0.46875],[37.93542,-0.44375],[37.93958,-0.43125]]}},{"type":"Feature","properties":{"strahler":3,"name":"Upper Tana tributary"},"geometry":{"type":"LineString","coordinates":[[37.08125,-0.51875],[37.10208,-0.54375],[37.13125,-0.53958]]}},{"type":"Feature","properties":{"strahler":3,"name":"Upper Tana tributary"},"geometry":{"type":"LineString","coordinates":[[37.88542,-0.58125],[37.88958,-0.56875],[37.88542,-0.53958]]}},{"type":"Feature","properties":{"strahler":3,"name":"Upper Tana tributary"},"geometry":{"type":"LineString","coordinates":[[37.92292,-0.62708],[37.88542,-0.58125]]}},{"type":"Feature","properties":{"strahler":3,"name":"Upper Tana tributary"},"geometry":{"type":"LineString","coordinates":[[37.13125,-0.53958],[37.15208,-0.58125],[37.18125,-0.60625],[37.16875,-0.63958]]}},{"type":"Feature","properties":{"strahler":3,"name":"Upper Tana tributary"},"geometry":{"type":"LineString","coordinates":[[37.22708,-0.67292],[37.23542,-0.66875]]}},{"type":"Feature","properties":{"strahler":3,"name":"Upper Tana tributary"},"geometry":{"type":"LineString","coordinates":[[37.16875,-0.63958],[37.17292,-0.64375],[37.16875,-0.64792],[37.18958,-0.66458],[37.19792,-0.66458],[37.21042,-0.68125],[37.22708,-0.67292]]}},{"type":"Feature","properties":{"strahler":3,"name":"Upper Tana tributary"},"geometry":{"type":"LineString","coordinates":[[37.23542,-0.66875],[37.24792,-0.71458]]}},{"type":"Feature","properties":{"strahler":2,"name":"Upper Tana tributary"},"geometry":{"type":"LineString","coordinates":[[37.44792,-0.71458],[37.45625,-0.71458],[37.46875,-0.70625],[37.47708,-0.71042]]}},{"type":"Feature","properties":{"strahler":2,"name":"Upper Tana tributary"},"geometry":{"type":"LineString","coordinates":[[37.12292,-0.70625],[37.13542,-0.71875],[37.15208,-0.70625],[37.16875,-0.71458],[37.19792,-0.71458],[37.21458,-0.72292],[37.23125,-0.72292],[37.24792,-0.71458]]}},{"type":"Feature","properties":{"strahler":2,"name":"Upper Tana tributary"},"geometry":{"type":"LineString","coordinates":[[37.47708,-0.71042],[37.49375,-0.72708],[37.48958,-0.73125]]}},{"type":"Feature","properties":{"strahler":2,"name":"Upper Tana tributary"},"geometry":{"type":"LineString","coordinates":[[37.48958,-0.73125],[37.49375,-0.73542],[37.49792,-0.73125],[37.51042,-0.73542],[37.51875,-0.73125],[37.52708,-0.73958],[37.55208,-0.73125]]}},{"type":"Feature","properties":{"strahler":3,"name":"Upper Tana tributary"},"geometry":{"type":"LineString","coordinates":[[37.91458,-0.74375],[37.91458,-0.71458],[37.90208,-0.71042],[37.90208,-0.66458],[37.89792,-0.65208],[37.92292,-0.62708]]}},{"type":"Feature","properties":{"strahler":3,"name":"Upper Tana tributary"},"geometry":{"type":"LineString","coordinates":[[37.90625,-0.75625],[37.91458,-0.74375]]}},{"type":"Feature","properties":{"strahler":3,"name":"Upper Tana tributary"},"geometry":{"type":"LineString","coordinates":[[37.24792,-0.71458],[37.25625,-0.72292],[37.26458,-0.74375],[37.25625,-0.75625],[37.26458,-0.77708]]}},{"type":"Feature","properties":{"strahler":2,"name":"Upper Tana tributary"},"geometry":{"type":"LineString","coordinates":[[37.15625,-0.74792],[37.19375,-0.75208],[37.19375,-0.76042],[37.20625,-0.76875],[37.21875,-0.76458],[37.25208,-0.78125],[37.26458,-0.77708]]}},{"type":"Feature","properties":{"strahler":2,"name":"Upper Tana tributary"},"geometry":{"type":"LineString","coordinates":[[37.21458,-0.79792],[37.22708,-0.79792],[37.23125,-0.80208],[37.23542,-0.80208],[37.23542,-0.79792],[37.25208,-0.79792],[37.25625,-0.80208],[37.26042,-0.79792],[37.27292,-0.81042],[37.28958,-0.80625],[37.30625,-0.81458]]}},{"type":"Feature","properties":{"strahler":3,"name":"Upper Tana tributary"},"geometry":{"type":"LineString","coordinates":[[37.26458,-0.77708],[37.26875,-0.78542],[37.28542,-0.78542],[37.29792,-0.79375],[37.30625,-0.80208],[37.30625,-0.81458]]}},{"type":"Feature","properties":{"strahler":3,"name":"Upper Tana tributary"},"geometry":{"type":"LineString","coordinates":[[37.82292,-0.80625],[37.83542,-0.81458],[37.83958,-0.81042],[37.84792,-0.81458]]}},{"type":"Feature","properties":{"strahler":3,"name":"Upper Tana tributary"},"geometry":{"type":"LineString","coordinates":[[37.84792,-0.81458],[37.85625,-0.81042],[37.86042,-0.81458]]}},{"type":"Feature","properties":{"strahler":3,"name":"Upper Tana tributary"},"geometry":{"type":"LineString","coordinates":[[37.86042,-0.81458],[37.88542,-0.80208],[37.88125,-0.79375],[37.89375,-0.77708],[37.89375,-0.76875],[37.90625,-0.76042],[37.90625,-0.75625]]}},{"type":"Feature","properties":{"strahler":2,"name":"Upper Tana tributary"},"geometry":{"type":"LineString","coordinates":[[37.55208,-0.73125],[37.57292,-0.73542],[37.57708,-0.74375],[37.58958,-0.75208],[37.60625,-0.75208],[37.61042,-0.74792],[37.61875,-0.75625],[37.62708,-0.75625],[37.63958,-0.76875],[37.63125,-0.79792],[37.63542,-0.81042],[37.65208,-0.82292],[37.67292,-0.82708]]}},{"type":"Feature","properties":{"strahler":3,"name":"Upper Tana tributary"},"geometry":{"type":"LineString","coordinates":[[37.67292,-0.82708],[37.68542,-0.79792],[37.69792,-0.79375],[37.70208,-0.78542],[37.71042,-0.78125],[37.72708,-0.78125],[37.73125,-0.77708],[37.74375,-0.78125],[37.76042,-0.82292],[37.77708,-0.82292],[37.78125,-0.82708],[37.80208,-0.81042],[37.81042,-0.81458],[37.82292,-0.80625]]}},{"type":"Feature","properties":{"strahler":3,"name":"Upper Tana tributary"},"geometry":{"type":"LineString","coordinates":[[37.66042,-0.84792],[37.67292,-0.83542],[37.67292,-0.82708]]}},{"type":"Feature","properties":{"strahler":3,"name":"Upper Tana tributary"},"geometry":{"type":"LineString","coordinates":[[37.30625,-0.81458],[37.32708,-0.83958],[37.33542,-0.84375],[37.36875,-0.84375],[37.38125,-0.85625],[37.38958,-0.85625]]}},{"type":"Feature","properties":{"strahler":2,"name":"Upper Tana tributary"},"geometry":{"type":"LineString","coordinates":[[37.82292,-0.88125],[37.84792,-0.83542],[37.84792,-0.82292],[37.84375,-0.81875],[37.84792,-0.81458]]}},{"type":"Feature","properties":{"strahler":3,"name":"Upper Tana tributary"},"geometry":{"type":"LineString","coordinates":[[37.38958,-0.85625],[37.41458,-0.85625],[37.42708,-0.86458],[37.46042,-0.86875],[37.49375,-0.89792]]}},{"type":"Feature","properties":{"strahler":3,"name":"Upper Tana tributary"},"geometry":{"type":"LineString","coordinates":[[37.53958,-0.89792],[37.55208,-0.89375],[37.56458,-0.88125],[37.58542,-0.88125],[37.59375,-0.87292],[37.58958,-0.86875],[37.59375,-0.86458],[37.60208,-0.86458],[37.61042,-0.85625],[37.62292,-0.85625],[37.63125,-0.84375],[37.63958,-0.84792],[37.64792,-0.84375],[37.66042,-0.84792]]}},{"type":"Feature","properties":{"strahler":3,"name":"Upper Tana tributary"},"geometry":{"type":"LineString","coordinates":[[37.49375,-0.89792],[37.50625,-0.89792],[37.51042,-0.90208],[37.53958,-0.89792]]}},{"type":"Feature","properties":{"strahler":2,"name":"Upper Tana tributary"},"geometry":{"type":"LineString","coordinates":[[37.82292,-0.90208],[37.82708,-0.89375],[37.82292,-0.88125]]}},{"type":"Feature","properties":{"strahler":2,"name":"Upper Tana tributary"},"geometry":{"type":"LineString","coordinates":[[37.86458,-0.98542],[37.86875,-0.97708],[37.85208,-0.96458],[37.85625,-0.96042],[37.84792,-0.94792],[37.85208,-0.93542],[37.84375,-0.92708],[37.83542,-0.90625],[37.82292,-0.90208]]}},{"type":"Feature","properties":{"strahler":2,"name":"Upper Tana tributary"},"geometry":{"type":"LineString","coordinates":[[36.97292,-0.97708],[36.98125,-0.97708],[37.00208,-0.99792],[37.02292,-1.01042],[37.03542,-1.03125],[37.05208,-1.03542],[37.06875,-1.02708]]}},{"type":"Feature","properties":{"strahler":2,"name":"Upper Tana tributary"},"geometry":{"type":"LineString","coordinates":[[37.16458,-1.04792],[37.16875,-1.04792],[37.17708,-1.03542],[37.18542,-1.03958],[37.21458,-1.03542],[37.23542,-1.01875],[37.24375,-1.02292],[37.26458,-1.01875],[37.27292,-1.02708]]}},{"type":"Feature","properties":{"strahler":2,"name":"Upper Tana tributary"},"geometry":{"type":"LineString","coordinates":[[37.06875,-1.02708],[37.07708,-1.02708],[37.08958,-1.03542],[37.10625,-1.03542],[37.11458,-1.03958],[37.12292,-1.05208],[37.13125,-1.04792],[37.13958,-1.05208],[37.16458,-1.04792]]}},{"type":"Feature","properties":{"strahler":2,"name":"Upper Tana tributary"},"geometry":{"type":"LineString","coordinates":[[37.83958,-1.05625],[37.84792,-1.04792],[37.84792,-1.02708],[37.85208,-1.02292],[37.84792,-0.99792],[37.86458,-0.98542]]}},{"type":"Feature","properties":{"strahler":2,"name":"Upper Tana tributary"},"geometry":{"type":"LineString","coordinates":[[37.48542,-1.07708],[37.47708,-1.05208],[37.47292,-1.05208],[37.45625,-1.03125],[37.45625,-1.01875],[37.43958,-0.98125],[37.43958,-0.96875],[37.44375,-0.96458],[37.43958,-0.96042],[37.43958,-0.93125],[37.46458,-0.90625],[37.48542,-0.90625],[37.49375,-0.89792]]}},{"type":"Feature","properties":{"strahler":2,"name":"Upper Tana tributary"},"geometry":{"type":"LineString","coordinates":[[37.27292,-1.02708],[37.28958,-1.04792],[37.32708,-1.07708],[37.33958,-1.08125],[37.35208,-1.09375],[37.36458,-1.09375],[37.38125,-1.10208],[37.41042,-1.12292],[37.43958,-1.11458],[37.46458,-1.08125],[37.47708,-1.08542],[37.48542,-1.07708]]}},{"type":"Feature","properties":{"strahler":2,"name":"Upper Tana tributary"},"geometry":{"type":"LineString","coordinates":[[37.80625,-1.39792],[37.81458,-1.44375],[37.82292,-1.45625],[37.83542,-1.46458],[37.84375,-1.46458],[37.85625,-1.48125],[37.88125,-1.48125]]}},{"type":"Feature","properties":{"strahler":2,"name":"Upper Tana tributary"},"geometry":{"type":"LineString","coordinates":[[37.87708,-1.35208],[37.86875,-1.36875],[37.88125,-1.40625],[37.87708,-1.41042],[37.88125,-1.41458],[37.88125,-1.48125]]}},{"type":"Feature","properties":{"strahler":2,"name":"Upper Tana tributary"},"geometry":{"type":"LineString","coordinates":[[38.15208,-1.42708],[38.17708,-1.44792],[38.18125,-1.45625],[38.20208,-1.46875],[38.21042,-1.48125],[38.22292,-1.48125],[38.22708,-1.48542],[38.23125,-1.48125],[38.23958,-1.48542],[38.24375,-1.48125],[38.24792,-1.48958]]}},{"type":"Feature","properties":{"strahler":3,"name":"Upper Tana tributary"},"geometry":{"type":"LineString","coordinates":[[37.88125,-1.48125],[37.88958,-1.50208],[37.89792,-1.51042],[37.89792,-1.52292],[37.88542,-1.53125],[37.88125,-1.54375],[37.88125,-1.57292],[37.88542,-1.57708]]}},{"type":"Feature","properties":{"strahler":3,"name":"Upper Tana tributary"},"geometry":{"type":"LineString","coordinates":[[37.88542,-1.57708],[37.88125,-1.58125],[37.88542,-1.58958],[37.88125,-1.63958],[37.88542,-1.64792],[37.89375,-1.65625],[37.89792,-1.65208],[37.90208,-1.65625],[37.90208,-1.66458],[37.91458,-1.67292],[37.91458,-1.68125],[37.92292,-1.69375],[37.93958,-1.69792],[37.95208,-1.68542],[37.96875,-1.68958],[37.97708,-1.71458],[37.98542,-1.71875],[37.99792,-1.73542],[38.00208,-1.73125],[38.00625,-1.73542]]}},{"type":"Feature","properties":{"strahler":3,"name":"Upper Tana tributary"},"geometry":{"type":"LineString","coordinates":[[38.00625,-1.73542],[38.01042,-1.74792],[37.99792,-1.75625],[37.99792,-1.76042],[38.00625,-1.76875],[38.00208,-1.77708],[38.01042,-1.78958],[38.00625,-1.79375],[38.01875,-1.81042],[38.02292,-1.83125],[38.03542,-1.83958],[38.06875,-1.87708],[38.08125,-1.88125]]}},{"type":"Feature","properties":{"strahler":2,"name":"Upper Tana tributary"},"geometry":{"type":"LineString","coordinates":[[38.07708,-1.72708],[38.08542,-1.73542],[38.08125,-1.73958],[38.08125,-1.75208],[38.08542,-1.75625],[38.07708,-1.76458],[38.07708,-1.78542],[38.07292,-1.79375],[38.09375,-1.83125],[38.08542,-1.84375],[38.08542,-1.85625],[38.08125,-1.86042],[38.08542,-1.87708],[38.08125,-1.88125]]}},{"type":"Feature","properties":{"strahler":3,"name":"Upper Tana tributary"},"geometry":{"type":"LineString","coordinates":[[38.08125,-1.88125],[38.09792,-1.90625],[38.09375,-1.91042],[38.09375,-1.92708],[38.10208,-1.93542],[38.09792,-1.93958],[38.10208,-1.95208],[38.11458,-1.96042],[38.11458,-1.98125],[38.12292,-1.99792]]}},{"type":"Feature","properties":{"strahler":3,"name":"Upper Tana tributary"},"geometry":{"type":"LineString","coordinates":[[38.12292,-1.99792],[38.12292,-2.01042],[38.14375,-2.02708]]}},{"type":"Feature","properties":{"strahler":3,"name":"Upper Tana tributary"},"geometry":{"type":"LineString","coordinates":[[38.14375,-2.02708],[38.14792,-2.03958],[38.16042,-2.04792],[38.15625,-2.06042],[38.16875,-2.06875],[38.17708,-2.09792],[38.17292,-2.10625],[38.19375,-2.12708],[38.19375,-2.13542],[38.20625,-2.14375],[38.21042,-2.15625]]}}]}